{
"type": "FeatureCollection",
"name": "Poligonos_Predios_Sisimetera",
"crs": { "type": "name", "properties": { "name": "urn:ogc:def:crs:OGC:1.3:CRS84" } },
"features": [
{ "type": "Feature", "properties": { "fid": 1, "begin": "2", "end": "10" }, "geometry": { "type": "MultiPolygon", "coordinates": [ [ [ [ -88.165302116442547, 14.649885935950548 ], [ -88.16399056875774, 14.669288149375813 ], [ -88.153558247180186, 14.688494034682739 ], [ -88.147759690235603, 14.682652823331638 ], [ -88.142629204428601, 14.674930659976111 ], [ -88.142456047162227, 14.661170054112885 ], [ -88.146741598107255, 14.658041940120002 ], [ -88.138898245875524, 14.651245123029714 ], [ -88.132724677082933, 14.647262610198755 ], [ -88.165302116442547, 14.649885935950548 ] ] ] ] } }
]
}
