{
"type": "FeatureCollection",
"name": "Poligonos_Predios_La Vega",
"crs": { "type": "name", "properties": { "name": "urn:ogc:def:crs:OGC:1.3:CRS84" } },
"features": [
{ "type": "Feature", "properties": { "fid": 1, "begin": 1, "end": 7 }, "geometry": { "type": "MultiPolygon", "coordinates": [ [ [ [ -88.215146196444707, 14.625748889197952 ], [ -88.214857548262643, 14.626605317681694 ], [ -88.214077973915678, 14.627272546717085 ], [ -88.213569909731731, 14.627772567892626 ], [ -88.213438068821361, 14.628569053297937 ], [ -88.21338963020257, 14.629050100613924 ], [ -88.213051463734942, 14.629482919400981 ], [ -88.212476195470799, 14.63014908000514 ], [ -88.212275332317191, 14.630780132839945 ], [ -88.212243826916193, 14.631244512773979 ], [ -88.211530972020697, 14.631662700336147 ], [ -88.21112441751238, 14.63204613506246 ], [ -88.210955784638884, 14.632345436525062 ], [ -88.210839596048771, 14.632893152447833 ], [ -88.210995203324444, 14.633323401183336 ], [ -88.211186138706097, 14.633985574035997 ], [ -88.211104095383348, 14.634549691589511 ], [ -88.210714653252097, 14.634949616089248 ], [ -88.210032930235144, 14.634837105398054 ], [ -88.209503453105995, 14.63454143130409 ], [ -88.208924530035759, 14.634544437373993 ], [ -88.20826183207906, 14.634796564051978 ], [ -88.208196899017821, 14.635377171475501 ], [ -88.208268909806321, 14.636089701577555 ], [ -88.20801440793737, 14.636256813612624 ], [ -88.20760693202736, 14.636474456280174 ], [ -88.206893688523323, 14.636826316658295 ], [ -88.206401435988823, 14.637110713430033 ], [ -88.205687101582868, 14.637263626008053 ], [ -88.20534863621873, 14.637646699327897 ], [ -88.205487119191986, 14.638060461588166 ], [ -88.205933274878646, 14.638688159416203 ], [ -88.206242850441868, 14.639250247227221 ], [ -88.206314222884728, 14.639846727245279 ], [ -88.206095220160648, 14.640278920187235 ], [ -88.205465651274992, 14.640365076942119 ], [ -88.205021394102587, 14.640085531158357 ], [ -88.204355779411159, 14.63980712970409 ], [ -88.20353809351181, 14.639745041734779 ], [ -88.202945019767313, 14.640278640797131 ], [ -88.202692767700171, 14.640860215452825 ], [ -88.202100050219585, 14.641460127556972 ], [ -88.201455975378494, 14.642010565888896 ], [ -88.200930009216705, 14.642361443047049 ], [ -88.200796583764358, 14.642876086213565 ], [ -88.200987138806866, 14.643471953730614 ], [ -88.201261029292851, 14.643735807215744 ], [ -88.201366175884331, 14.644282377513164 ], [ -88.201095443604615, 14.644598779338253 ], [ -88.20033098865747, 14.644934307074408 ], [ -88.199668158501183, 14.645169833466166 ], [ -88.198903158488392, 14.645405884436395 ], [ -88.198734950024658, 14.645788072401835 ], [ -88.198737923087066, 14.646335170472016 ], [ -88.198773871403006, 14.646683148334995 ], [ -88.198913971437946, 14.647395331780679 ], [ -88.198780809408561, 14.647959710341638 ], [ -88.198699002007089, 14.648573561854592 ], [ -88.198481417985676, 14.649271008732471 ], [ -88.198057780588996, 14.649654511987119 ], [ -88.197700544627892, 14.649722668053103 ], [ -88.197090402232533, 14.65025634251934 ], [ -88.196379165319215, 14.650989485871605 ], [ -88.196278973022899, 14.651354743494435 ], [ -88.195958218483369, 14.651870347920982 ], [ -88.195468524714158, 14.652635508289791 ], [ -88.195232909930482, 14.653150674341695 ], [ -88.195033508296902, 14.65406355502118 ], [ -88.194866635341441, 14.654694422031014 ], [ -88.194561913733523, 14.655027571358723 ], [ -88.194052036811087, 14.655212560855567 ], [ -88.193200504965276, 14.655200351839927 ], [ -88.192587556206405, 14.65522007486971 ], [ -88.192077856154015, 14.655438217705772 ], [ -88.192028203936744, 14.655703739653994 ], [ -88.192166317949003, 14.656051195232163 ], [ -88.192150813297175, 14.656333121359133 ], [ -88.191880949974788, 14.656815301817005 ], [ -88.191952741685313, 14.657494681650238 ], [ -88.192245015224856, 14.658007138936357 ], [ -88.19219661840043, 14.658504763413736 ], [ -88.191550946449567, 14.6587733403444 ], [ -88.191006730979453, 14.658908762201767 ], [ -88.190667491617674, 14.659159187839132 ], [ -88.190669014324712, 14.65944102675136 ], [ -88.192407613269395, 14.661305567721456 ], [ -88.192151686953878, 14.662075194581991 ], [ -88.182481494245678, 14.651242009768945 ], [ -88.165302116442547, 14.649885935950548 ], [ -88.169603096079982, 14.597984638471004 ], [ -88.180588385410928, 14.597544144971462 ], [ -88.183382182771041, 14.625118138955587 ], [ -88.215146196444707, 14.625748889197952 ] ] ] ] } }
]
}
