{
"type": "FeatureCollection",
"name": "Predios asociados a proyecto",
"crs": { "type": "name", "properties": { "name": "urn:ogc:def:crs:OGC:1.3:CRS84" } },
"features": [
{ "type": "Feature", "properties": { "fid": 1, "begin": "16", "end": "19", "layer": "Cuchilla del Naranjal", "path": "C:/Users/ferse/Documents/re-presentare/E2 Mapa Cartografia y Timeline/01_DIBUJOS/20251103_presa_predios/00-presa_predios_BSLAYERS/Cuchilla del Naranjal/Cuchilla del Naranjal.gpkg" }, "geometry": { "type": "MultiPolygon", "coordinates": [ [ [ [ -88.119444489820651, 14.615788389838395, 0.0 ], [ -88.135449820090145, 14.61289549477825, 0.0 ], [ -88.145734530185223, 14.637599695193886, 0.0 ], [ -88.12971746940832, 14.640414540127786, 0.0 ], [ -88.119444489820651, 14.615788389838395, 0.0 ] ] ] ] } },
{ "type": "Feature", "properties": { "fid": 1, "begin": "1", "end": "7", "layer": "La Vega", "path": "C:/Users/ferse/Documents/re-presentare/E2 Mapa Cartografia y Timeline/01_DIBUJOS/20251103_presa_predios/00-presa_predios_BSLAYERS/La Vega/La Vega.gpkg" }, "geometry": { "type": "MultiPolygon", "coordinates": [ [ [ [ -88.215146196444707, 14.625748889197952, 0.0 ], [ -88.214857548262643, 14.626605317681694, 0.0 ], [ -88.214077973915678, 14.627272546717085, 0.0 ], [ -88.213569909731731, 14.627772567892626, 0.0 ], [ -88.213438068821361, 14.628569053297937, 0.0 ], [ -88.21338963020257, 14.629050100613924, 0.0 ], [ -88.213051463734942, 14.629482919400981, 0.0 ], [ -88.212476195470799, 14.63014908000514, 0.0 ], [ -88.212275332317191, 14.630780132839945, 0.0 ], [ -88.212243826916193, 14.631244512773979, 0.0 ], [ -88.211530972020697, 14.631662700336147, 0.0 ], [ -88.21112441751238, 14.63204613506246, 0.0 ], [ -88.210955784638884, 14.632345436525062, 0.0 ], [ -88.210839596048771, 14.632893152447833, 0.0 ], [ -88.210995203324444, 14.633323401183336, 0.0 ], [ -88.211186138706097, 14.633985574035997, 0.0 ], [ -88.211104095383348, 14.634549691589511, 0.0 ], [ -88.210714653252097, 14.634949616089248, 0.0 ], [ -88.210032930235144, 14.634837105398054, 0.0 ], [ -88.209503453105995, 14.63454143130409, 0.0 ], [ -88.208924530035759, 14.634544437373993, 0.0 ], [ -88.20826183207906, 14.634796564051978, 0.0 ], [ -88.208196899017821, 14.635377171475501, 0.0 ], [ -88.208268909806321, 14.636089701577555, 0.0 ], [ -88.20801440793737, 14.636256813612624, 0.0 ], [ -88.20760693202736, 14.636474456280174, 0.0 ], [ -88.206893688523323, 14.636826316658295, 0.0 ], [ -88.206401435988823, 14.637110713430033, 0.0 ], [ -88.205687101582868, 14.637263626008053, 0.0 ], [ -88.20534863621873, 14.637646699327897, 0.0 ], [ -88.205487119191986, 14.638060461588166, 0.0 ], [ -88.205933274878646, 14.638688159416203, 0.0 ], [ -88.206242850441868, 14.639250247227221, 0.0 ], [ -88.206314222884728, 14.639846727245279, 0.0 ], [ -88.206095220160648, 14.640278920187235, 0.0 ], [ -88.205465651274992, 14.640365076942119, 0.0 ], [ -88.205021394102587, 14.640085531158357, 0.0 ], [ -88.204355779411159, 14.63980712970409, 0.0 ], [ -88.20353809351181, 14.639745041734779, 0.0 ], [ -88.202945019767313, 14.640278640797131, 0.0 ], [ -88.202692767700171, 14.640860215452825, 0.0 ], [ -88.202100050219585, 14.641460127556972, 0.0 ], [ -88.201455975378494, 14.642010565888896, 0.0 ], [ -88.200930009216705, 14.642361443047049, 0.0 ], [ -88.200796583764358, 14.642876086213565, 0.0 ], [ -88.200987138806866, 14.643471953730614, 0.0 ], [ -88.201261029292851, 14.643735807215744, 0.0 ], [ -88.201366175884331, 14.644282377513164, 0.0 ], [ -88.201095443604615, 14.644598779338253, 0.0 ], [ -88.20033098865747, 14.644934307074408, 0.0 ], [ -88.199668158501183, 14.645169833466166, 0.0 ], [ -88.198903158488392, 14.645405884436395, 0.0 ], [ -88.198734950024658, 14.645788072401835, 0.0 ], [ -88.198737923087066, 14.646335170472016, 0.0 ], [ -88.198773871403006, 14.646683148334995, 0.0 ], [ -88.198913971437946, 14.647395331780679, 0.0 ], [ -88.198780809408561, 14.647959710341638, 0.0 ], [ -88.198699002007089, 14.648573561854592, 0.0 ], [ -88.198481417985676, 14.649271008732471, 0.0 ], [ -88.198057780588996, 14.649654511987119, 0.0 ], [ -88.197700544627892, 14.649722668053103, 0.0 ], [ -88.197090402232533, 14.65025634251934, 0.0 ], [ -88.196379165319215, 14.650989485871605, 0.0 ], [ -88.196278973022899, 14.651354743494435, 0.0 ], [ -88.195958218483369, 14.651870347920982, 0.0 ], [ -88.195468524714158, 14.652635508289791, 0.0 ], [ -88.195232909930482, 14.653150674341695, 0.0 ], [ -88.195033508296902, 14.65406355502118, 0.0 ], [ -88.194866635341441, 14.654694422031014, 0.0 ], [ -88.194561913733523, 14.655027571358723, 0.0 ], [ -88.194052036811087, 14.655212560855567, 0.0 ], [ -88.193200504965276, 14.655200351839927, 0.0 ], [ -88.192587556206405, 14.65522007486971, 0.0 ], [ -88.192077856154015, 14.655438217705772, 0.0 ], [ -88.192028203936744, 14.655703739653994, 0.0 ], [ -88.192166317949003, 14.656051195232163, 0.0 ], [ -88.192150813297175, 14.656333121359133, 0.0 ], [ -88.191880949974788, 14.656815301817005, 0.0 ], [ -88.191952741685313, 14.657494681650238, 0.0 ], [ -88.192245015224856, 14.658007138936357, 0.0 ], [ -88.19219661840043, 14.658504763413736, 0.0 ], [ -88.191550946449567, 14.6587733403444, 0.0 ], [ -88.191006730979453, 14.658908762201767, 0.0 ], [ -88.190667491617674, 14.659159187839132, 0.0 ], [ -88.190669014324712, 14.65944102675136, 0.0 ], [ -88.192407613269395, 14.661305567721456, 0.0 ], [ -88.192151686953878, 14.662075194581991, 0.0 ], [ -88.182481494245678, 14.651242009768945, 0.0 ], [ -88.165302116442547, 14.649885935950548, 0.0 ], [ -88.169603096079982, 14.597984638471004, 0.0 ], [ -88.180588385410928, 14.597544144971462, 0.0 ], [ -88.183382182771041, 14.625118138955587, 0.0 ], [ -88.215146196444707, 14.625748889197952, 0.0 ] ] ] ] } },
{ "type": "Feature", "properties": { "fid": 1, "begin": "2", "end": "5", "layer": "Las Lagunas", "path": "C:/Users/ferse/Documents/re-presentare/E2 Mapa Cartografia y Timeline/01_DIBUJOS/20251103_presa_predios/00-presa_predios_BSLAYERS/Las Lagunas/Las Lagunas.gpkg" }, "geometry": { "type": "MultiPolygon", "coordinates": [ [ [ [ -88.172040150023122, 14.697325181630092, 0.0 ], [ -88.153558247180186, 14.688494034682739, 0.0 ], [ -88.16399056875774, 14.669288149375813, 0.0 ], [ -88.174655030385793, 14.676010552476411, 0.0 ], [ -88.172040150023122, 14.697325181630092, 0.0 ] ] ] ] } },
{ "type": "Feature", "properties": { "fid": 1, "begin": "1", "end": "6", "layer": "Rio Blanco", "path": "C:/Users/ferse/Documents/re-presentare/E2 Mapa Cartografia y Timeline/01_DIBUJOS/20251103_presa_predios/00-presa_predios_BSLAYERS/Poligono_Rio Blanco/Rio Blanco.gpkg" }, "geometry": { "type": "MultiPolygon", "coordinates": [ [ [ [ -88.192151686953878, 14.662075194581991, 507.17 ], [ -88.191758477984848, 14.662418105806823, 0.0 ], [ -88.190605055895318, 14.66277215617187, 0.0 ], [ -88.190057224747676, 14.663203441715476, 0.0 ], [ -88.190060841038516, 14.663872923852436, 0.0 ], [ -88.189952981042978, 14.664275176410731, 0.0 ], [ -88.189430483735833, 14.664304630641062, 0.0 ], [ -88.189045234534433, 14.664279821608394, 0.0 ], [ -88.188469888990696, 14.664711244579305, 0.0 ], [ -88.187679389418221, 14.666054287165121, 0.0 ], [ -88.187353050028989, 14.666752235647428, 0.0 ], [ -88.187356514652862, 14.667394938936956, 0.0 ], [ -88.187551091246391, 14.667768865291867, 0.0 ], [ -88.187690941420158, 14.668196631196421, 0.0 ], [ -88.187583075516628, 14.668598882992686, 0.0 ], [ -88.187200561540365, 14.669082878177329, 0.0 ], [ -88.187037245092228, 14.669405072960231, 0.0 ], [ -88.186929521888942, 14.669834103847663, 0.0 ], [ -88.186768225059907, 14.670531208718272, 0.0 ], [ -88.186332420804305, 14.67133683542961, 0.0 ], [ -88.185705063584834, 14.672330899459283, 0.0 ], [ -88.185352498986788, 14.67327000010577, 0.0 ], [ -88.185271991483546, 14.673645331492649, 0.0 ], [ -88.185080151455523, 14.673780210422407, 0.0 ], [ -88.184777555727138, 14.673781753849672, 0.0 ], [ -88.184226805395397, 14.673677441796386, 0.0 ], [ -88.183951718414235, 14.67367884390843, 0.0 ], [ -88.183677927234982, 14.673921259611239, 0.0 ], [ -88.183597992588432, 14.674403707922663, 0.0 ], [ -88.183572355486817, 14.674751979283446, 0.0 ], [ -88.183463183929049, 14.674913215839965, 0.0 ], [ -88.183299426302341, 14.675155070596825, 0.0 ], [ -88.183024913047674, 14.675263589057222, 0.0 ], [ -88.182859859601479, 14.675264429598453, 0.0 ], [ -88.182612279412496, 14.675265690190523, 0.0 ], [ -88.182420148558165, 14.675347008467028, 0.0 ], [ -88.182283754567052, 14.675561943242162, 0.0 ], [ -88.182286055880894, 14.675990412570318, 0.0 ], [ -88.182315003278262, 14.676258065868664, 0.0 ], [ -88.182454850221731, 14.676685834978397, 0.0 ], [ -88.182566181471444, 14.676926288720679, 0.0 ], [ -88.18267880803981, 14.67740775631801, 0.0 ], [ -88.182681686032964, 14.677943342814059, 0.0 ], [ -88.18252612743774, 14.679711618625031, 0.0 ], [ -88.18230993641825, 14.680435780897946, 0.0 ], [ -88.182034984649874, 14.680463960694915, 0.0 ], [ -88.181593968775232, 14.680305524802744, 0.0 ], [ -88.181042627882476, 14.680094089022278, 0.0 ], [ -88.18060391209211, 14.680364120559576, 0.0 ], [ -88.180497178100154, 14.68098060477568, 0.0 ], [ -88.180499907842147, 14.681489412193253, 0.0 ], [ -88.18039159294068, 14.681811323657126, 0.0 ], [ -88.180007748954438, 14.682054295293366, 0.0 ], [ -88.179486642106127, 14.682351523815777, 0.0 ], [ -88.178856355221839, 14.68280998609278, 0.0 ], [ -88.178363615422555, 14.683267748764933, 0.0 ], [ -88.178254866381266, 14.683509321419166, 0.0 ], [ -88.178312037795834, 14.68391073248784, 0.0 ], [ -88.178561780057436, 14.684311166004333, 0.0 ], [ -88.178948212809303, 14.684550224616233, 0.0 ], [ -88.179280774580306, 14.685003796743125, 0.0 ], [ -88.179668070963601, 14.685403530013707, 0.0 ], [ -88.179863084257619, 14.685857800031298, 0.0 ], [ -88.179948344457699, 14.686366187850084, 0.0 ], [ -88.179977435054568, 14.68666062064689, 0.0 ], [ -88.180171300766972, 14.686900655604779, 0.0 ], [ -88.180199385927352, 14.687007633042819, 0.0 ], [ -88.180228764410387, 14.687355624413634, 0.0 ], [ -88.180202116151335, 14.68751644025158, 0.0 ], [ -88.180204271665573, 14.687918130137151, 0.0 ], [ -88.180180497441469, 14.688614532460866, 0.0 ], [ -88.179768700294062, 14.688777306370636, 0.0 ], [ -88.179276237357726, 14.689288630265517, 0.0 ], [ -88.179113757727748, 14.689771496903219, 0.0 ], [ -88.179119645133525, 14.690869449442609, 0.0 ], [ -88.17882090159587, 14.691594028791178, 0.0 ], [ -88.178300488900831, 14.692025152882422, 0.0 ], [ -88.177505106459364, 14.69248445150553, 0.0 ], [ -88.176874070890165, 14.692809013744712, 0.0 ], [ -88.175858162866277, 14.69318908526418, 0.0 ], [ -88.17500946564067, 14.693970007150195, 0.0 ], [ -88.174846830631594, 14.694426092199617, 0.0 ], [ -88.174877061356867, 14.694934760750813, 0.0 ], [ -88.17507236137385, 14.695442593253309, 0.0 ], [ -88.175184698138565, 14.695870505541327, 0.0 ], [ -88.175104024595043, 14.69621905523975, 0.0 ], [ -88.174746373692585, 14.696220866594297, 0.0 ], [ -88.174361211127447, 14.696222816667508, 0.0 ], [ -88.173839634522537, 14.696439697111842, 0.0 ], [ -88.173427674624946, 14.696575681723646, 0.0 ], [ -88.172962119910281, 14.696979737605572, 0.0 ], [ -88.172743169224717, 14.697195085384198, 0.0 ], [ -88.172040150023122, 14.697325181630092, 363.53 ], [ -88.174655030385793, 14.676010552476411, 745.09 ], [ -88.16399056875774, 14.669288149375813, 949.27 ], [ -88.165302116442547, 14.649885935950548, -1.7976931348623157e+308 ], [ -88.182481494245678, 14.651242009768945, 663.23 ], [ -88.192151686953878, 14.662075194581991, 507.17 ] ] ] ] } },
{ "type": "Feature", "properties": { "fid": 1, "begin": "2", "end": "10", "layer": "Sisimetera", "path": "C:/Users/ferse/Documents/re-presentare/E2 Mapa Cartografia y Timeline/01_DIBUJOS/20251103_presa_predios/00-presa_predios_BSLAYERS/Poligono_Sisimetera/Sisimetera.gpkg" }, "geometry": { "type": "MultiPolygon", "coordinates": [ [ [ [ -88.165302116442547, 14.649885935950548, 0.0 ], [ -88.16399056875774, 14.669288149375813, 0.0 ], [ -88.153558247180186, 14.688494034682739, 0.0 ], [ -88.147759690235603, 14.682652823331638, 0.0 ], [ -88.142629204428601, 14.674930659976111, 0.0 ], [ -88.142456047162227, 14.661170054112885, 0.0 ], [ -88.146741598107255, 14.658041940120002, 0.0 ], [ -88.138898245875524, 14.651245123029714, 0.0 ], [ -88.132724677082933, 14.647262610198755, 0.0 ], [ -88.165302116442547, 14.649885935950548, 0.0 ] ] ] ] } }
]
}
