{
"type": "FeatureCollection",
"name": "TCH",
"crs": { "type": "name", "properties": { "name": "urn:ogc:def:crs:OGC:1.3:CRS84" } },
"features": [
{ "type": "Feature", "properties": { "fid": 24, "id": 24, "etnia_id": 34, "etnia": "Antiguo territorio Chorotega" }, "geometry": { "type": "MultiPolygon", "coordinates": [ [ [ [ -86.941714154344083, 13.214698940271925 ], [ -86.938001024911813, 13.187778751887869 ], [ -86.937072742553738, 13.178495928307168 ], [ -86.932431330763379, 13.171997951800668 ], [ -86.925933354256884, 13.161786845861892 ], [ -86.927789918973033, 13.159930281145748 ], [ -86.938001024911813, 13.152504022281187 ], [ -86.937072742553738, 13.141364633984336 ], [ -86.937072742553738, 13.120942422106785 ], [ -86.931503048405318, 13.112587880884146 ], [ -86.925933354256884, 13.102376774945368 ], [ -86.932431330763379, 13.096807080796944 ], [ -86.944499001418308, 13.089380821932378 ], [ -86.957494954431297, 13.079169715993601 ], [ -86.967706060370062, 13.066173762980609 ], [ -86.976060601592707, 13.055034374683762 ], [ -86.979773731024991, 13.055034374683762 ], [ -86.987199989889561, 13.063388915906394 ], [ -86.989984836963771, 13.074528304203245 ], [ -86.988128272247621, 13.086595974858168 ], [ -86.986271707531486, 13.099591927871154 ], [ -86.981630295741127, 13.107018186735722 ], [ -86.975132319234632, 13.119085857390639 ], [ -86.973275754518511, 13.134866657477842 ], [ -86.976060601592707, 13.149719175206975 ], [ -86.976988883950781, 13.167356540010315 ], [ -86.969562625086212, 13.181280775381376 ], [ -86.960279801505507, 13.193348446036296 ], [ -86.941714154344083, 13.214698940271925 ] ] ] ] } }
]
}
