{
"type": "FeatureCollection",
"name": "TGA",
"crs": { "type": "name", "properties": { "name": "urn:ogc:def:crs:OGC:1.3:CRS84" } },
"features": [
{ "type": "Feature", "properties": { "fid": 25, "id": 25, "etnia_id": 35, "etnia": "Garifuna" }, "geometry": { "type": "MultiPolygon", "coordinates": [ [ [ [ -85.930272415609835, 16.074245332291376 ], [ -85.917239952056605, 16.08226530986261 ], [ -85.868545402559192, 16.096693324528534 ], [ -85.832475365894453, 16.102103830028248 ], [ -85.778370310897344, 16.116531844694162 ], [ -85.702623233901448, 16.116531844694148 ], [ -85.583592112907979, 16.130959859360051 ], [ -85.500631028579335, 16.129156357526785 ], [ -85.383403409419415, 16.132763361193216 ], [ -85.298638823257761, 16.136370364859655 ], [ -85.219284742595946, 16.130959859359873 ], [ -85.141734163767467, 16.12374585202685 ], [ -85.056969577606324, 16.114728342860548 ], [ -84.974008493278632, 16.098496826361274 ], [ -84.892850910784361, 16.082265309861974 ], [ -84.826121342955972, 16.055212782363235 ], [ -84.777426793459711, 16.028160254864517 ], [ -84.761195276961047, 15.984876210866709 ], [ -84.787615538640352, 15.963740001522819 ], [ -84.794593812026079, 15.966299984076212 ], [ -84.819511410422862, 15.97543906979719 ], [ -84.859443663987562, 15.991546683967153 ], [ -84.883163453508516, 16.007024626502307 ], [ -84.908409114932013, 16.013277147877258 ], [ -84.924583433761512, 16.01943967664749 ], [ -84.95529174734952, 16.029010874605891 ], [ -84.96240997344826, 16.033338393769917 ], [ -84.98262023927505, 16.035308843260335 ], [ -85.025321959099202, 16.042823864903188 ], [ -85.054763795225753, 16.042203766914778 ], [ -85.085159302968748, 16.038028762160842 ], [ -85.11193084653118, 16.027591666355615 ], [ -85.17021180027281, 15.991619067508994 ], [ -85.204536441240009, 15.958990012120996 ], [ -85.22113799479915, 15.952899836356648 ], [ -85.246963493455112, 15.9442139053972 ], [ -85.264450077470926, 15.942576358729164 ], [ -85.285644529405232, 15.936517755574428 ], [ -85.327049272812388, 15.934173665216314 ], [ -85.368408204288656, 15.936269764240501 ], [ -85.411163343315366, 15.936589231427835 ], [ -85.427764900236895, 15.930482966535001 ], [ -85.451698319016629, 15.927096233854513 ], [ -85.466476436434874, 15.918304421392897 ], [ -85.477508531075941, 15.918382537329883 ], [ -85.49676514730433, 15.925635428367737 ], [ -85.506835935926134, 15.93193433366298 ], [ -85.526130685594566, 15.933846514286856 ], [ -85.596725468247584, 15.964572901849134 ], [ -85.658973680626914, 16.008573636771203 ], [ -85.675476099669069, 16.017574227761596 ], [ -85.746650660897529, 16.038469383642756 ], [ -85.763191243743549, 16.041235046164335 ], [ -85.805442795772947, 16.053932155835064 ], [ -85.82843018103469, 16.057619008293209 ], [ -85.861511210391399, 16.06580720470857 ], [ -85.885421750985358, 16.068601673234745 ], [ -85.920372035019952, 16.07234203642658 ], [ -85.930272415609835, 16.074245332291376 ] ] ] ] } },
{ "type": "Feature", "properties": { "fid": 26, "id": 26, "etnia_id": 35, "etnia": "Garifuna" }, "geometry": { "type": "MultiPolygon", "coordinates": [ [ [ [ -84.794593812026079, 15.966299984076212 ], [ -84.799079903508314, 15.962249664792303 ], [ -84.808258062435513, 15.958724925995584 ], [ -84.816772460263834, 15.951815629113211 ], [ -84.825920113045257, 15.950405077752528 ], [ -84.856178280780725, 15.964438396238918 ], [ -84.88589477383789, 15.966039537771705 ], [ -84.897354124323783, 15.943835147988604 ], [ -84.894348140027432, 15.942335247098859 ], [ -84.884170534710975, 15.937254847708708 ], [ -84.862632754439147, 15.929196435477495 ], [ -84.859962463087584, 15.928082372600308 ], [ -84.841781614463201, 15.920489257491694 ], [ -84.837898255077505, 15.91861143746077 ], [ -84.839286810142809, 15.916163506687425 ], [ -84.841018684682879, 15.913264382355351 ], [ -84.845443730564995, 15.910271674450964 ], [ -84.8622817987508, 15.920560706900707 ], [ -84.877716062176361, 15.92537022764086 ], [ -84.888343814620285, 15.92911910554999 ], [ -84.894775387690999, 15.934647586381653 ], [ -84.900604249624919, 15.937336910375464 ], [ -84.907058717610326, 15.940234177319288 ], [ -84.91389464999861, 15.945620618681509 ], [ -84.920394898148444, 15.946031679618548 ], [ -84.923919678419637, 15.944103280011928 ], [ -84.925628662238097, 15.940350469660739 ], [ -84.926544190932276, 15.937790032268547 ], [ -84.927619934669366, 15.935168250049573 ], [ -84.929100034314018, 15.93336102877227 ], [ -84.93075561460509, 15.928558293013062 ], [ -84.933074951671927, 15.919429822436442 ], [ -84.941474916634363, 15.913588648644934 ], [ -84.952316286270175, 15.912364807689787 ], [ -84.969085693946624, 15.909284642075749 ], [ -84.973342895532255, 15.90850173779995 ], [ -84.990928650881784, 15.912728262967606 ], [ -85.00846862748817, 15.921827337953578 ], [ -85.018592834061309, 15.925542939753226 ], [ -85.05657959071533, 15.912615884391366 ], [ -85.059471129912694, 15.911686915796112 ], [ -85.096282953876795, 15.899836447540233 ], [ -85.105369572430575, 15.895540171658997 ], [ -85.109870911622309, 15.897768109064851 ], [ -85.120063783952574, 15.895668138115509 ], [ -85.125724795334662, 15.894622726303743 ], [ -85.167137137470718, 15.87492261786708 ], [ -85.176559442563217, 15.873747705165082 ], [ -85.181221004095903, 15.873665925308332 ], [ -85.185607911403508, 15.873743110350661 ], [ -85.185897826450656, 15.8677767924777 ], [ -85.192680359937, 15.867833223552639 ], [ -85.213790901376669, 15.864587881250344 ], [ -85.223304751338745, 15.86191366632516 ], [ -85.233634946182818, 15.858938255946565 ], [ -85.282218924786918, 15.84251025655483 ], [ -85.283065803858037, 15.845027967929987 ], [ -85.287803642733309, 15.850001284198468 ], [ -85.287117004527687, 15.862360990300182 ], [ -85.287895193655658, 15.865659837163216 ], [ -85.29566193047809, 15.867506857509339 ], [ -85.294921867090196, 15.877250702149237 ], [ -85.298072819688841, 15.87702934874314 ], [ -85.300254823675871, 15.876707885981819 ], [ -85.30471037912757, 15.87633709372404 ], [ -85.306091303736267, 15.874285570803693 ], [ -85.309402469783194, 15.876192022176934 ], [ -85.313575738620571, 15.875090647089458 ], [ -85.315757758068955, 15.874547961730066 ], [ -85.318611146621564, 15.87383757024514 ], [ -85.321441659898383, 15.87506386085599 ], [ -85.324493413627366, 15.875870744648918 ], [ -85.3270568778849, 15.875725595650978 ], [ -85.331230175766294, 15.875452970219643 ], [ -85.333938585598546, 15.875580693386398 ], [ -85.338127130743345, 15.876087998374365 ], [ -85.340744032517406, 15.87607863015551 ], [ -85.343727117472255, 15.876015717177923 ], [ -85.345771802973672, 15.876017597302704 ], [ -85.348945603332666, 15.875766757964181 ], [ -85.350883500636826, 15.87526607175859 ], [ -85.352966319736751, 15.874945654386684 ], [ -85.356498707237151, 15.875653324626501 ], [ -85.358924872054473, 15.876152933327019 ], [ -85.364387507946304, 15.876037544222507 ], [ -85.366851824169572, 15.875892660514102 ], [ -85.369941704496711, 15.876195037882701 ], [ -85.371955873166641, 15.876934003233163 ], [ -85.374397272495258, 15.877755023633298 ], [ -85.377159125629845, 15.87811192693438 ], [ -85.380249016974233, 15.878275887233377 ], [ -85.386840806175144, 15.878135750461659 ], [ -85.3895111009885, 15.878493223050882 ], [ -85.394348132694446, 15.878298780458612 ], [ -85.396629348829634, 15.878434101084926 ], [ -85.399002067716353, 15.878430394932304 ], [ -85.40209196880771, 15.878364529859564 ], [ -85.404411309382326, 15.877947728545445 ], [ -85.406898485353608, 15.87660688658152 ], [ -85.409523018656671, 15.875125798895942 ], [ -85.411643996378132, 15.874437244581568 ], [ -85.413681028650515, 15.874026223305394 ], [ -85.415664668455889, 15.873477852193334 ], [ -85.418266300118646, 15.873101210086409 ], [ -85.420150754919277, 15.872371623938674 ], [ -85.422477722381274, 15.872368879382549 ], [ -85.424522406024948, 15.872738951183443 ], [ -85.427223222951781, 15.872405945716121 ], [ -85.429870620104126, 15.871980638976302 ], [ -85.431838972354996, 15.870422269280686 ], [ -85.434471122244517, 15.869446656244385 ], [ -85.435234072506844, 15.867362023738099 ], [ -85.437057487362438, 15.866035382797676 ], [ -85.439979563133875, 15.864961689625309 ], [ -85.441902151649046, 15.863771397548003 ], [ -85.445144644353462, 15.862048144758928 ], [ -85.447731026644476, 15.861026702545342 ], [ -85.451423656573169, 15.860305711760114 ], [ -85.452087420077149, 15.857353133623601 ], [ -85.452682500592886, 15.855071087299367 ], [ -85.454368591251864, 15.853583357146633 ], [ -85.456268306671333, 15.85493276220758 ], [ -85.462600695139258, 15.85252668866365 ], [ -85.465560919795521, 15.8516149292593 ], [ -85.464248648144988, 15.854970921242188 ], [ -85.466796892029336, 15.855172122277349 ], [ -85.469177239473851, 15.855407725740626 ], [ -85.473472586725663, 15.855127369351864 ], [ -85.476394666758836, 15.855257957868291 ], [ -85.479095440933662, 15.855697641124456 ], [ -85.481094357736737, 15.856150649061135 ], [ -85.483924863194133, 15.857048043578592 ], [ -85.486297624366159, 15.857613537608637 ], [ -85.487350456555632, 15.854895570091744 ], [ -85.485351544054978, 15.853966683255523 ], [ -85.48307035619132, 15.853768351181184 ], [ -85.482498170949825, 15.851807563855386 ], [ -85.47882080983706, 15.85351949469695 ], [ -85.475997931688724, 15.853151318678018 ], [ -85.473411564863397, 15.853078864806353 ], [ -85.468749994315758, 15.848071059039944 ], [ -85.474845868495549, 15.847912732633763 ], [ -85.475479118399221, 15.845778390223563 ], [ -85.48808287083223, 15.850236825489246 ], [ -85.490180983503109, 15.84800528255154 ], [ -85.494094841536011, 15.851614946908612 ], [ -85.493957501256816, 15.855643246118907 ], [ -85.496086126276253, 15.855458243455832 ], [ -85.498535149026011, 15.851617791395416 ], [ -85.497459425436858, 15.845550485473737 ], [ -85.501838673051452, 15.843552638417707 ], [ -85.503601074513355, 15.844622584173207 ], [ -85.50732423227214, 15.843741333618317 ], [ -85.509277349421424, 15.841461219436695 ], [ -85.510696409341151, 15.839889469010547 ], [ -85.511932381858514, 15.837777143424514 ], [ -85.51419831629191, 15.837567287817109 ], [ -85.518684379416186, 15.837952620674487 ], [ -85.522178656145243, 15.839771255983612 ], [ -85.524459842951487, 15.840471311952721 ], [ -85.52969361259693, 15.841713865757995 ], [ -85.532806411391917, 15.842299474284312 ], [ -85.537696838044099, 15.844263048739389 ], [ -85.539596558561897, 15.84556386474309 ], [ -85.541297915066565, 15.846701668498104 ], [ -85.544143664506393, 15.849376679540754 ], [ -85.546165480862513, 15.851282055442347 ], [ -85.557426438894382, 15.861055409861674 ], [ -85.55805207589178, 15.863112465052941 ], [ -85.558868391665115, 15.865612866617568 ], [ -85.561058054907463, 15.867518384514673 ], [ -85.564384449225031, 15.870237394352854 ], [ -85.568618776297129, 15.87187485862969 ], [ -85.57073210158174, 15.872895349999979 ], [ -85.577186592747026, 15.876961783133282 ], [ -85.578712465074403, 15.878299706910678 ], [ -85.58126069524036, 15.879886701400828 ], [ -85.583831801485772, 15.881311394662118 ], [ -85.586647040467099, 15.883060396608021 ], [ -85.598815910276969, 15.89030254547734 ], [ -85.617797816864339, 15.905061766756278 ], [ -85.627784727556673, 15.901059999767513 ], [ -85.629997237446005, 15.901997691806548 ], [ -85.632148712338264, 15.901572220875686 ], [ -85.634391808416254, 15.900708268054013 ], [ -85.635353093150059, 15.898922016949866 ], [ -85.635360693694295, 15.896891524175077 ], [ -85.637161270232298, 15.895750855638585 ], [ -85.639198319010063, 15.896568147352005 ], [ -85.641944871499248, 15.89726254750534 ], [ -85.644088762545067, 15.899031636563349 ], [ -85.644928013178401, 15.901268903845203 ], [ -85.646713243136247, 15.902871168118445 ], [ -85.649185204324695, 15.902142417142342 ], [ -85.651351960701803, 15.901725726592856 ], [ -85.651329008314093, 15.904215866320985 ], [ -85.651306180503113, 15.906423541758688 ], [ -85.651023870104538, 15.911264271243505 ], [ -85.648200963177558, 15.914970498284447 ], [ -85.650733939201402, 15.917648291141203 ], [ -85.651817331488687, 15.919372547005242 ], [ -85.654495263089359, 15.920235684118101 ], [ -85.656890888569905, 15.920036233921767 ], [ -85.659439069378038, 15.920451078079225 ], [ -85.661537199314893, 15.920775430910773 ], [ -85.664115911753385, 15.921687186361503 ], [ -85.66603088801233, 15.922473900974309 ], [ -85.669433584618034, 15.923827222782702 ], [ -85.672172521568299, 15.925424422139653 ], [ -85.674438476686163, 15.926939952369734 ], [ -85.688262944594797, 15.922263040572629 ], [ -85.687774675029317, 15.920081169661939 ], [ -85.688247669326245, 15.917588217404552 ], [ -85.690834047267387, 15.916476206955991 ], [ -85.691505406608613, 15.918852660744525 ], [ -85.693328887637392, 15.919778827142057 ], [ -85.710304231525811, 15.913242367043189 ], [ -85.718429565420649, 15.906766761738547 ], [ -85.731285115875565, 15.900958187573488 ], [ -85.76916504251939, 15.891487220044016 ], [ -85.773223879899518, 15.894358533383651 ], [ -85.772949231965612, 15.897030934287688 ], [ -85.771064781589672, 15.899968043891242 ], [ -85.770507799292602, 15.902785332787332 ], [ -85.769889831381363, 15.90518772649221 ], [ -85.769142141617081, 15.907963712642239 ], [ -85.770141577922573, 15.910379342299205 ], [ -85.773269659840622, 15.912060675052633 ], [ -85.774536108580619, 15.913827063987577 ], [ -85.77305603233286, 15.915514072644466 ], [ -85.771179181020628, 15.91647249855526 ], [ -85.768630965471104, 15.917538567995182 ], [ -85.76656343965189, 15.91841031687094 ], [ -85.76388546375297, 15.919755021680565 ], [ -85.762161278206833, 15.92135437101255 ], [ -85.762924157152781, 15.923499930763025 ], [ -85.764099106663821, 15.925359626799677 ], [ -85.763626065471982, 15.92771531375627 ], [ -85.76252745617208, 15.929439515326029 ], [ -85.762779233736367, 15.932422681510259 ], [ -85.761787447917982, 15.935155832299824 ], [ -85.760696401413043, 15.937295948579202 ], [ -85.759330763803447, 15.939945323282874 ], [ -85.757270792088292, 15.941506359859634 ], [ -85.754951493630685, 15.944130810473087 ], [ -85.75442506707634, 15.946257701067593 ], [ -85.754043582906817, 15.948242162536648 ], [ -85.753158533215839, 15.951158523423816 ], [ -85.752059948278713, 15.953066848990002 ], [ -85.750717140310371, 15.954796888917192 ], [ -85.748359687122459, 15.955535961073377 ], [ -85.745918285660721, 15.954851990199458 ], [ -85.743858314029168, 15.95388424611081 ], [ -85.740249624370179, 15.954954113025195 ], [ -85.742584204980446, 15.958231931557945 ], [ -85.744140649922912, 15.96040811839829 ], [ -85.746673594355585, 15.961274007652438 ], [ -85.747108476107542, 15.963747966636536 ], [ -85.745384211467226, 15.965302406018454 ], [ -85.743362401619208, 15.966447794050287 ], [ -85.742042570819223, 15.970360810978208 ], [ -85.746231063453607, 15.97167483237742 ], [ -85.747924828178682, 15.973156902523304 ], [ -85.745567330303814, 15.97619535885309 ], [ -85.747718828522153, 15.977069844138597 ], [ -85.750686624876636, 15.9780646070217 ], [ -85.75269319229777, 15.97866523768953 ], [ -85.756080603121163, 15.979513184603942 ], [ -85.760040294411539, 15.980256886202991 ], [ -85.763038659607062, 15.980745309794097 ], [ -85.765907267249744, 15.981603626088274 ], [ -85.767921419811643, 15.982526828746554 ], [ -85.770126330221728, 15.98335359994068 ], [ -85.772369407388041, 15.984087843680024 ], [ -85.77452084660095, 15.984778452958958 ], [ -85.776435850032271, 15.985381162734601 ], [ -85.779243476223456, 15.985781607787874 ], [ -85.781440743390419, 15.986195440050173 ], [ -85.784111035453677, 15.986736271985702 ], [ -85.787071205651685, 15.987454306288161 ], [ -85.78907012683085, 15.987917769847007 ], [ -85.791175835740248, 15.988700752859884 ], [ -85.793678294793864, 15.989981601297544 ], [ -85.795921339575358, 15.990760666234834 ], [ -85.798027047766951, 15.991360531410457 ], [ -85.800689708479382, 15.991718139993491 ], [ -85.803459178278729, 15.992395248102843 ], [ -85.806747461008271, 15.993014386627245 ], [ -85.808944715595501, 15.993520598486699 ], [ -85.811477649848754, 15.994339844898104 ], [ -85.813667314906766, 15.994661294827912 ], [ -85.815910371324293, 15.994878891533451 ], [ -85.820694001503725, 15.984955814440008 ], [ -85.819252016408399, 15.982679483543377 ], [ -85.818214440284834, 15.980678477977422 ], [ -85.816757182071953, 15.979145942957683 ], [ -85.815803509515007, 15.97659095575472 ], [ -85.816093479914528, 15.974607569584425 ], [ -85.817283644359151, 15.972513281918772 ], [ -85.818519560621752, 15.970463876134435 ], [ -85.821586588202507, 15.969296458633494 ], [ -85.823860161415297, 15.969017084879207 ], [ -85.826133749195975, 15.968923554091925 ], [ -85.828193638093254, 15.969844912706945 ], [ -85.830200189498029, 15.97016998231077 ], [ -85.83246614357158, 15.969799021363851 ], [ -85.83409879374905, 15.968202567271486 ], [ -85.835762055837606, 15.966097945611596 ], [ -85.83743288925524, 15.961970412420449 ], [ -85.839218149597784, 15.958851754434038 ], [ -85.839736913519602, 15.956633442941538 ], [ -85.836158730316541, 15.955835373020072 ], [ -85.83406833388284, 15.955788632997745 ], [ -85.831306489547885, 15.955432925441208 ], [ -85.830696131662606, 15.953424459343736 ], [ -85.832618709842535, 15.952232457870721 ], [ -85.83521272593326, 15.951533272272981 ], [ -85.836814867805629, 15.953291842112824 ], [ -85.838920583700173, 15.954029029183234 ], [ -85.84191132969849, 15.953921349974184 ], [ -85.844490034230205, 15.952440340227106 ], [ -85.846023585341172, 15.950843893409385 ], [ -85.847686734932694, 15.948510224859948 ], [ -85.848983790850994, 15.946966200088221 ], [ -85.850593568523394, 15.944448534256283 ], [ -85.852310157985286, 15.942848240524059 ], [ -85.854194642976623, 15.941980342468938 ], [ -85.856391927739637, 15.942439050370981 ], [ -85.859138523796744, 15.942243653927795 ], [ -85.861549348469524, 15.941640904419899 ], [ -85.863998435005314, 15.940623151322963 ], [ -85.866333035793105, 15.939100314390023 ], [ -85.868560758106213, 15.938834176551024 ], [ -85.871078467691888, 15.938413671174082 ], [ -85.873283416626151, 15.937666851752892 ], [ -85.87643431731577, 15.938382090839408 ], [ -85.878623958942228, 15.94091023058078 ], [ -85.879997264706745, 15.942904549678707 ], [ -85.881317144277361, 15.944669833702866 ], [ -85.882835374580978, 15.946846047464273 ], [ -85.885261561373724, 15.949138587460693 ], [ -85.886764518229114, 15.950761733920688 ], [ -85.889564523844328, 15.952817857895047 ], [ -85.892257664984939, 15.954369434204393 ], [ -85.894332853757462, 15.956027112414576 ], [ -85.896209745428209, 15.95736593636131 ], [ -85.898185734929527, 15.95875081164473 ], [ -85.900161742774699, 15.959950360873698 ], [ -85.902565037212199, 15.961370348265618 ], [ -85.903091421775258, 15.959291538333785 ], [ -85.902618372764806, 15.957184702807842 ], [ -85.904159536035806, 15.955864934521449 ], [ -85.905242915624214, 15.953267068535128 ], [ -85.909614599127593, 15.953404304529458 ], [ -85.907485974742059, 15.956024224625256 ], [ -85.905609165205703, 15.959465984957529 ], [ -85.904808015279187, 15.961829234792582 ], [ -85.903526288709131, 15.964385102351226 ], [ -85.901618977383123, 15.966035009382386 ], [ -85.900573750291073, 15.96844767619589 ], [ -85.898757921851157, 15.969911597322829 ], [ -85.896408087136905, 15.970972982874832 ], [ -85.893775933667314, 15.972500718558473 ], [ -85.891151420552319, 15.974027546886132 ], [ -85.889122036977582, 15.974576986275263 ], [ -85.887199384089215, 15.97567457326026 ], [ -85.887588487927772, 15.978517648576309 ], [ -85.889350897107278, 15.980826324261052 ], [ -85.891181911408921, 15.9798203320758 ], [ -85.905334476042299, 15.979446317948925 ], [ -85.90538027596007, 15.982702213620144 ], [ -85.905799887735256, 15.984754626483117 ], [ -85.906723022831358, 15.987291334010353 ], [ -85.908019982751298, 15.990010116659453 ], [ -85.909248326581377, 15.992548939187254 ], [ -85.911293042650172, 15.995694098270908 ], [ -85.912834185934145, 15.997993362257345 ], [ -85.915451054356623, 16.000648357479434 ], [ -85.917671207805853, 16.002721732981954 ], [ -85.919479386408725, 16.004407882957477 ], [ -85.921417269893396, 16.006215984121653 ], [ -85.92414093844917, 16.008758628728017 ], [ -85.925636312759195, 16.010158502141046 ], [ -85.92899319288901, 16.013439097148542 ], [ -85.931800862925982, 16.014549261621191 ], [ -85.933807358593768, 16.014921268587006 ], [ -85.936141981655268, 16.015331296632485 ], [ -85.938484169538853, 16.016063721732596 ], [ -85.940536504837311, 16.016847482755367 ], [ -85.943550080908977, 16.017564889904623 ], [ -85.945983904527068, 16.018203629061713 ], [ -85.948089584801053, 16.018940062473241 ], [ -85.950622574669822, 16.019897401015275 ], [ -85.952827473448579, 16.020679547712216 ], [ -85.955299405643132, 16.020811104927382 ], [ -85.958206172968403, 16.021301226260572 ], [ -85.961250270195521, 16.021787614274597 ], [ -85.964195236941833, 16.021818168389295 ], [ -85.968589761756107, 16.022920662322623 ], [ -85.971504191927096, 16.023685436584078 ], [ -85.973976172180144, 16.024139520786399 ], [ -85.977844203196327, 16.024976611410636 ], [ -85.979942309197043, 16.025529722508129 ], [ -85.983032192422712, 16.02573962077361 ], [ -85.985794090706975, 16.026096253606184 ], [ -85.988418605443812, 16.026637926026051 ], [ -85.991088875140122, 16.027040525146877 ], [ -85.993324270227319, 16.027360839570893 ], [ -85.996711716817344, 16.027933064269199 ], [ -86.000465370656116, 16.028221114866636 ], [ -86.003128036567972, 16.028303119189726 ], [ -86.005310055227838, 16.028257449300217 ], [ -86.008750941561217, 16.027126291659624 ], [ -86.011352519385341, 16.024404385202814 ], [ -86.01130677501574, 16.02224344411297 ], [ -86.010032689894231, 16.020385785357451 ], [ -86.007926957439196, 16.019464353683247 ], [ -86.005592369531257, 16.019146044731041 ], [ -86.00349426278575, 16.018638518145572 ], [ -86.001296981697976, 16.018087486069625 ], [ -85.999565114267384, 16.017021220061039 ], [ -85.996261575914005, 16.015710819365619 ], [ -85.994567870042516, 16.014413696035813 ], [ -85.992980980032542, 16.013160574926577 ], [ -85.990905736840091, 16.011686307787791 ], [ -85.988639845721337, 16.010032635103038 ], [ -85.986564602422519, 16.008651825190267 ], [ -85.984771747734698, 16.006805345796018 ], [ -85.982879602894272, 16.004396336996507 ], [ -85.980911231181608, 16.003759320740389 ], [ -85.97854613578231, 16.004270514225322 ], [ -85.976524360571418, 16.005140360229227 ], [ -85.974433927617397, 16.005184217129756 ], [ -85.971565273022321, 16.00437169014273 ], [ -85.969253563736928, 16.00520331520713 ], [ -85.966255166292186, 16.006921639658348 ], [ -85.963745135014207, 16.009220185063452 ], [ -85.959312430552671, 16.00858693839616 ], [ -85.95677184646452, 16.00767507382265 ], [ -85.954437262985635, 16.0073108864147 ], [ -85.951957704505077, 16.006810994645615 ], [ -85.949691744692487, 16.007318355684738 ], [ -85.947761525013718, 16.008279915938878 ], [ -85.945182802762631, 16.009574851981903 ], [ -85.942825342983852, 16.010314869806209 ], [ -85.939971892534416, 16.010330109377186 ], [ -85.937263495807343, 16.010019428723925 ], [ -85.934791550478067, 16.009933573531459 ], [ -85.932121253938107, 16.009531143199698 ], [ -85.914161687541011, 15.995471891930757 ], [ -85.913009608073082, 15.992785495741925 ], [ -85.912063594386879, 15.99045956178592 ], [ -85.911628712677697, 15.987986482051351 ], [ -85.912254304522278, 15.98383424155606 ], [ -85.912185684612538, 15.980754735469421 ], [ -85.911994931226999, 15.978598599398733 ], [ -85.912033103317754, 15.975700295837521 ], [ -85.912834156380455, 15.973108346218684 ], [ -85.913429239744261, 15.969876277028687 ], [ -85.913810765043877, 15.96761498648006 ], [ -85.914573635978101, 15.965531228249599 ], [ -85.915374762543337, 15.963168224576238 ], [ -85.916770901575148, 15.959460272034809 ], [ -85.917610161726699, 15.954350465474754 ], [ -85.919280983969387, 15.950347907452244 ], [ -85.920883187875134, 15.947601365409687 ], [ -85.923301675832036, 15.945300023595671 ], [ -85.926055884339249, 15.94289389614754 ], [ -85.926963781013711, 15.940758794290327 ], [ -85.92842864201377, 15.938520531112577 ], [ -85.930557262551872, 15.935853938536789 ], [ -85.932327252271477, 15.934161271626012 ], [ -85.934043904584044, 15.932331946803341 ], [ -85.936653157702125, 15.93002317546784 ], [ -85.940628049253732, 15.926812170120886 ], [ -85.94348905402498, 15.925417790467224 ], [ -85.946609504317351, 15.924313458671113 ], [ -85.945228544684667, 15.920078170455612 ], [ -85.951126103484299, 15.917922989597571 ], [ -85.952873221431261, 15.919387777071929 ], [ -85.954750067294285, 15.921459163617886 ], [ -85.958122228632618, 15.920929776030667 ], [ -85.958518969903579, 15.91880802147935 ], [ -85.958282489030495, 15.916259821428696 ], [ -85.95766451146342, 15.914194000040007 ], [ -85.95767977589874, 15.911403641083826 ], [ -85.959068327331181, 15.909954037965447 ], [ -85.961837805800499, 15.908512222466941 ], [ -85.964210542215383, 15.908886863632151 ], [ -85.965202351564159, 15.911196608589256 ], [ -85.96499632352419, 15.916724303981676 ], [ -85.969909634087074, 15.915063777763539 ], [ -85.972915645445738, 15.91334338946883 ], [ -85.974693282226681, 15.912295255485708 ], [ -85.977371251747883, 15.910904903614362 ], [ -85.983230604469384, 15.907469630686489 ], [ -85.988090549745351, 15.905803585281554 ], [ -85.99140163878242, 15.905227776567383 ], [ -85.994865426361471, 15.905154204653833 ], [ -85.99781039026422, 15.905091369315087 ], [ -86.000198373810449, 15.904672511063021 ], [ -86.003242507052093, 15.903826814124306 ], [ -86.006217938903376, 15.903119943718135 ], [ -86.006661923509967, 15.902968500566597 ], [ -86.063327857429826, 15.954288591663898 ], [ -86.046089141852718, 15.957242882278248 ], [ -86.037803617654973, 15.958097489239117 ], [ -86.030433653674692, 15.960733276036159 ], [ -86.021247880639308, 15.958911838189589 ], [ -86.027656587902356, 15.965169886451946 ], [ -86.042335522735556, 15.972355734092254 ], [ -86.057006803779345, 15.982210124865155 ], [ -86.067054720930784, 15.998273942495436 ], [ -86.069747906765855, 16.012525566818109 ], [ -86.067779570824356, 16.040105704275181 ], [ -86.063125612847855, 16.051654832965529 ], [ -86.049232448602922, 16.071172659628697 ], [ -86.03445433840642, 16.080896458657055 ], [ -86.010505706774921, 16.084346842157689 ], [ -85.972770691809117, 16.084167566098863 ], [ -85.948875406923079, 16.07782165909196 ], [ -85.930272415609835, 16.074245332291376 ], [ -85.920372035019952, 16.07234203642658 ], [ -85.885421750985358, 16.068601673234745 ], [ -85.861511210391399, 16.06580720470857 ], [ -85.82843018103469, 16.057619008293209 ], [ -85.805442795772947, 16.053932155835064 ], [ -85.763191243743549, 16.041235046164335 ], [ -85.746650660897529, 16.038469383642756 ], [ -85.675476099669069, 16.017574227761596 ], [ -85.658973680626914, 16.008573636771203 ], [ -85.596725468247584, 15.964572901849134 ], [ -85.526130685594566, 15.933846514286856 ], [ -85.506835935926134, 15.93193433366298 ], [ -85.49676514730433, 15.925635428367737 ], [ -85.477508531075941, 15.918382537329883 ], [ -85.466476436434874, 15.918304421392897 ], [ -85.451698319016629, 15.927096233854513 ], [ -85.427764900236895, 15.930482966535001 ], [ -85.411163343315366, 15.936589231427835 ], [ -85.368408204288656, 15.936269764240501 ], [ -85.327049272812388, 15.934173665216314 ], [ -85.285644529405232, 15.936517755574428 ], [ -85.264450077470926, 15.942576358729164 ], [ -85.246963493455112, 15.9442139053972 ], [ -85.22113799479915, 15.952899836356648 ], [ -85.204536441240009, 15.958990012120996 ], [ -85.17021180027281, 15.991619067508994 ], [ -85.11193084653118, 16.027591666355615 ], [ -85.085159302968748, 16.038028762160842 ], [ -85.054763795225753, 16.042203766914778 ], [ -85.025321959099202, 16.042823864903188 ], [ -84.98262023927505, 16.035308843260335 ], [ -84.96240997344826, 16.033338393769917 ], [ -84.95529174734952, 16.029010874605891 ], [ -84.924583433761512, 16.01943967664749 ], [ -84.908409114932013, 16.013277147877258 ], [ -84.883163453508516, 16.007024626502307 ], [ -84.859443663987562, 15.991546683967153 ], [ -84.819511410422862, 15.97543906979719 ], [ -84.794593812026079, 15.966299984076212 ] ] ] ] } },
{ "type": "Feature", "properties": { "fid": 28, "id": 28, "etnia_id": 35, "etnia": "Garifuna" }, "geometry": { "type": "MultiPolygon", "coordinates": [ [ [ [ -86.259572404968225, 15.808215791715321 ], [ -86.259445148591581, 15.803467691279309 ], [ -86.260070811733215, 15.78848553759855 ], [ -86.27859502870605, 15.781829819287646 ], [ -86.279716501991061, 15.780067401154927 ], [ -86.283950806831371, 15.772291124560892 ], [ -86.28779601604586, 15.768965713696184 ], [ -86.290290783953338, 15.766933459699707 ], [ -86.293373048137639, 15.763419067405813 ], [ -86.294143657229071, 15.760825157270078 ], [ -86.310974123530883, 15.767927226112876 ], [ -86.315940833137816, 15.770910241525575 ], [ -86.322837863279318, 15.771859111377799 ], [ -86.327240030998496, 15.772057449699183 ], [ -86.332290618810489, 15.787054974212763 ], [ -86.322944589088422, 15.802021022761851 ], [ -86.317863475020189, 15.805235846199404 ], [ -86.32364651842127, 15.804745618327221 ], [ -86.327812163987076, 15.804334663249273 ], [ -86.331504817777827, 15.803521080583693 ], [ -86.333755488079177, 15.802231751118214 ], [ -86.336158800204444, 15.799145697315765 ], [ -86.338035527758095, 15.798140488515909 ], [ -86.340347347966912, 15.797539714755009 ], [ -86.343231221041634, 15.796973178404922 ], [ -86.345932031655607, 15.796593591088673 ], [ -86.34827417288173, 15.795117399854927 ], [ -86.34947201020978, 15.793437942115251 ], [ -86.350555370400201, 15.790701817473126 ], [ -86.351798994662843, 15.788742976968393 ], [ -86.353645297806125, 15.786589637353012 ], [ -86.355331413057812, 15.78545097107213 ], [ -86.35904686962121, 15.783578862288982 ], [ -86.364242600795237, 15.782226588481169 ], [ -86.369751024685456, 15.782201805883133 ], [ -86.37221531464877, 15.78228762000661 ], [ -86.374305696783509, 15.782290398672428 ], [ -86.376792876408686, 15.783018126137971 ], [ -86.378707904159839, 15.783713346533293 ], [ -86.380096394531435, 15.78207392832188 ], [ -86.382781983467581, 15.782338060703987 ], [ -86.385459969371212, 15.782601361395733 ], [ -86.38471986068231, 15.785286930463664 ], [ -86.387207103024252, 15.785969761892872 ], [ -86.389640806823124, 15.786561936170413 ], [ -86.391998346968407, 15.788167991193475 ], [ -86.39308160941637, 15.785246766885079 ], [ -86.398056033186705, 15.78693579796221 ], [ -86.398864814003105, 15.782595623558615 ], [ -86.400718735766617, 15.780716844470341 ], [ -86.402549690816869, 15.779482836073294 ], [ -86.405731138532275, 15.780253422914793 ], [ -86.409271313186849, 15.780765539956667 ], [ -86.411827139710667, 15.780573771860078 ], [ -86.414314202391964, 15.780293421798934 ], [ -86.418067910682524, 15.779432231833164 ], [ -86.421638452824268, 15.779133718990952 ], [ -86.427368124353364, 15.778761788399285 ], [ -86.43064878625691, 15.778985023021534 ], [ -86.434066700797516, 15.779657356590528 ], [ -86.43593597225329, 15.780435599602962 ], [ -86.438064642786586, 15.781394912729001 ], [ -86.440628067363804, 15.782764376629961 ], [ -86.444038354420442, 15.784727014309556 ], [ -86.447540320100629, 15.786781231826726 ], [ -86.44966890721075, 15.787877024035057 ], [ -86.451705942950184, 15.789382035330247 ], [ -86.454025233109135, 15.791480104743192 ], [ -86.455490137990921, 15.792892388470902 ], [ -86.457191535363265, 15.794487990513318 ], [ -86.459091121367379, 15.795630402665298 ], [ -86.461738645833435, 15.797591185664118 ], [ -86.463485678157824, 15.799277261824493 ], [ -86.465431274708678, 15.800236681134427 ], [ -86.467323312035759, 15.801332463850342 ], [ -86.470222425102747, 15.801747320723065 ], [ -86.47200005724676, 15.804644538806317 ], [ -86.473815895099435, 15.805485760391104 ], [ -86.475898735713614, 15.806762691184856 ], [ -86.478218112621065, 15.808040553939501 ], [ -86.48025515799398, 15.809591208259347 ], [ -86.482254017632343, 15.807639101756363 ], [ -86.48392492148507, 15.806049376274565 ], [ -86.486160270342197, 15.805416047792178 ], [ -86.49093626812062, 15.798938733043299 ], [ -86.4910049186946, 15.796575570714337 ], [ -86.493659908016554, 15.792495750444759 ], [ -86.495178190033243, 15.79090302639832 ], [ -86.497619673229053, 15.790206929870498 ], [ -86.500488258738343, 15.790340393597594 ], [ -86.50404353606217, 15.791178703845771 ], [ -86.506088329165237, 15.791630727468968 ], [ -86.511238053119314, 15.790109570755934 ], [ -86.514999442114814, 15.787883750368401 ], [ -86.518691967793828, 15.78693382484629 ], [ -86.521827756863885, 15.78713220235462 ], [ -86.524925236547134, 15.787330658084775 ], [ -86.527496264745665, 15.787336276266576 ], [ -86.529739406100035, 15.787341036003051 ], [ -86.532577547555746, 15.787218999741157 ], [ -86.53495024737343, 15.787671015702609 ], [ -86.539230315754168, 15.787425096716836 ], [ -86.539230375291126, 15.789788222450666 ], [ -86.53810121086201, 15.791892933752031 ], [ -86.540733313388131, 15.793302584768725 ], [ -86.543373058240221, 15.79381939453909 ], [ -86.545158367986787, 15.792098996862745 ], [ -86.547798136063534, 15.791593590343247 ], [ -86.549636873830792, 15.794662401632763 ], [ -86.547256518968737, 15.798169135198366 ], [ -86.544876160989148, 15.799824711784272 ], [ -86.542030385669307, 15.803384769285993 ], [ -86.546356180636053, 15.802256623785986 ], [ -86.549346900404274, 15.802170760883572 ], [ -86.552391032593647, 15.801722453980101 ], [ -86.555625862896719, 15.801273324439018 ], [ -86.559898396615253, 15.800599127642313 ], [ -86.569549602559633, 15.799206725632205 ], [ -86.572494454011618, 15.798849105831767 ], [ -86.574684104935415, 15.798670732989224 ], [ -86.577102706445373, 15.798311168727219 ], [ -86.580574078712601, 15.79763595169878 ], [ -86.583808840059135, 15.797004619611215 ], [ -86.58641810704836, 15.796964640091106 ], [ -86.589225754020191, 15.796970377421108 ], [ -86.591789220000223, 15.796701420068665 ], [ -86.595024149928378, 15.796116811378276 ], [ -86.597778306991998, 15.796166336588225 ], [ -86.600196810490885, 15.795989999484998 ], [ -86.602340649181059, 15.795402482255446 ], [ -86.606140144601767, 15.794773062453935 ], [ -86.608375552283889, 15.795141225194099 ], [ -86.611412069530786, 15.795055314830327 ], [ -86.614456139171068, 15.79492565527976 ], [ -86.618873568393269, 15.794934315583337 ], [ -86.621910073388293, 15.7949399309623 ], [ -86.625564538614341, 15.795265114123145 ], [ -86.626991204806487, 15.793643002256449 ], [ -86.626884494359288, 15.791642122944788 ], [ -86.627578689414761, 15.78946397525681 ], [ -86.634849581540195, 15.788722005349252 ], [ -86.635879531901082, 15.78364086552844 ], [ -86.635841421270499, 15.780809382740079 ], [ -86.641899168639725, 15.780774169896604 ], [ -86.641799984190982, 15.783489234953597 ], [ -86.641632118280228, 15.785791378386433 ], [ -86.641242974824081, 15.788275688069405 ], [ -86.639518727583862, 15.79103463699586 ], [ -86.637802107028534, 15.792137122485352 ], [ -86.635665824800824, 15.791511540102311 ], [ -86.634010343602696, 15.795826910401383 ], [ -86.638725233761164, 15.794971475970472 ], [ -86.641433646728785, 15.794203795175951 ], [ -86.643432555652353, 15.793341662898177 ], [ -86.646530110901807, 15.792029315350705 ], [ -86.648384129725457, 15.791213981558776 ], [ -86.652618424385992, 15.790266924936375 ], [ -86.656753607485754, 15.789637502435747 ], [ -86.65912628002512, 15.789505923808099 ], [ -86.662178108185586, 15.787191384453161 ], [ -86.665031414006918, 15.786514274515712 ], [ -86.6685486271098, 15.786444655597363 ], [ -86.678977988172264, 15.785396577084537 ], [ -86.679924070893676, 15.780120831419866 ], [ -86.682029769482753, 15.779869090615522 ], [ -86.684265168322398, 15.779544807763406 ], [ -86.686302175776888, 15.778038050149833 ], [ -86.687286424096541, 15.776056324329149 ], [ -86.689224309634554, 15.774985270182022 ], [ -86.691215566899004, 15.775333339297307 ], [ -86.691696102457911, 15.778627386545915 ], [ -86.692672690044631, 15.780521319925683 ], [ -86.695175223176591, 15.781252814675844 ], [ -86.69701378588195, 15.783020001618739 ], [ -86.698440591751265, 15.784914956851523 ], [ -86.701416032931874, 15.785719913179669 ], [ -86.70393375074481, 15.785997349626172 ], [ -86.706115698965704, 15.786046978444395 ], [ -86.70944214715712, 15.786462721910615 ], [ -86.711952255753033, 15.786649724155494 ], [ -86.714515753961223, 15.787064541872994 ], [ -86.718269328658366, 15.787207602854261 ], [ -86.721069350076377, 15.787486027676675 ], [ -86.723205607894911, 15.787716789204067 ], [ -86.725532490824293, 15.787902812583068 ], [ -86.728241023758585, 15.788272828023768 ], [ -86.730422954810606, 15.78836826322638 ], [ -86.733085676629216, 15.788645780972868 ], [ -86.73616789060145, 15.789153018377723 ], [ -86.738540640004572, 15.789156894004931 ], [ -86.740768474403552, 15.790298397273975 ], [ -86.743522574614374, 15.79103187150382 ], [ -86.746086057031576, 15.79131029763019 ], [ -86.749122667017716, 15.791452443668019 ], [ -86.752159084829614, 15.791776621912032 ], [ -86.754150439175433, 15.792325912442891 ], [ -86.756759628268227, 15.793104164957741 ], [ -86.762313804316662, 15.794025363046726 ], [ -86.764259298586239, 15.794983852653061 ], [ -86.766914379935073, 15.79571627663322 ], [ -86.76855812020878, 15.795232711732789 ], [ -86.807997233641672, 15.846503559195543 ], [ -86.800514279371484, 15.851564339358672 ], [ -86.784881660842288, 15.855109237568048 ], [ -86.76648714111235, 15.855091121514748 ], [ -86.714096073761041, 15.843457269352839 ], [ -86.678237905955626, 15.843406730401394 ], [ -86.657081670524832, 15.847824119949324 ], [ -86.639602622272932, 15.85580634668851 ], [ -86.609268156585102, 15.853083597129656 ], [ -86.592056340334423, 15.914026235630455 ], [ -86.548172029370377, 15.950408889274458 ], [ -86.51758581093307, 15.962171420496267 ], [ -86.50948334072892, 15.942439119116468 ], [ -86.489067089070133, 15.959148280796748 ], [ -86.47331241760763, 15.963871012584827 ], [ -86.45644372658758, 15.968925514133135 ], [ -86.42701716204229, 15.926464914553799 ], [ -86.424049396626259, 15.893930330923837 ], [ -86.438705392006653, 15.852708749529363 ], [ -86.427688602431573, 15.84644982479514 ], [ -86.421272267555125, 15.840202361599028 ], [ -86.401031467443772, 15.846378338854203 ], [ -86.3808059501619, 15.84632114433786 ], [ -86.367919853317503, 15.849843976962735 ], [ -86.35134885253801, 15.857805173579793 ], [ -86.338462810284852, 15.862216912895017 ], [ -86.332939089699821, 15.862199878144727 ], [ -86.329782559748409, 15.862529307677407 ], [ -86.259572404968225, 15.808215791715321 ] ] ] ] } },
{ "type": "Feature", "properties": { "fid": 31, "id": 30, "etnia_id": 35, "etnia": "Garifuna" }, "geometry": { "type": "MultiPolygon", "coordinates": [ [ [ [ -87.36076356987968, 15.840674196987022 ], [ -87.362693822695988, 15.841350524341882 ], [ -87.365394524549231, 15.842356649995162 ], [ -87.368331884870017, 15.84363550536859 ], [ -87.371276895341651, 15.844687382625811 ], [ -87.373840360088181, 15.844511022031554 ], [ -87.37558749389224, 15.84315969224232 ], [ -87.367965669186148, 15.837507235211687 ], [ -87.364822447490852, 15.835482554671897 ], [ -87.362716690107348, 15.830918356740076 ], [ -87.370559702889864, 15.820755895976195 ], [ -87.37683867228921, 15.816684718476006 ], [ -87.378990237197925, 15.81585876514044 ], [ -87.381050166095307, 15.813744588090366 ], [ -87.382965159321529, 15.812490379463854 ], [ -87.385055586561506, 15.811431829974509 ], [ -87.386505111805405, 15.809436842742086 ], [ -87.387596180558987, 15.807598082266862 ], [ -87.391967785711557, 15.803994161527868 ], [ -87.394523583907201, 15.802230755938627 ], [ -87.397125269734659, 15.800780284695501 ], [ -87.399726857902905, 15.799798990155322 ], [ -87.406456012586432, 15.79811006386408 ], [ -87.408256565812721, 15.799438504261584 ], [ -87.409606971101326, 15.797958426798647 ], [ -87.410873472909358, 15.79607383857887 ], [ -87.415741019950147, 15.792301099170746 ], [ -87.417579677185685, 15.790995598999471 ], [ -87.419578497950795, 15.790238367312124 ], [ -87.426918016816145, 15.791890091727897 ], [ -87.42838288162811, 15.790247965934718 ], [ -87.430381820147161, 15.789751007722353 ], [ -87.432701141868094, 15.79080204486279 ], [ -87.434211725720289, 15.792396517727415 ], [ -87.438003554012042, 15.794906631476405 ], [ -87.43986505886366, 15.793318773552498 ], [ -87.441436697601816, 15.791501047527928 ], [ -87.4430618650604, 15.789366720994627 ], [ -87.444923383542189, 15.787959066756706 ], [ -87.446960403349067, 15.784594464221842 ], [ -87.450347881249158, 15.783462482037525 ], [ -87.452644303786272, 15.782695732552458 ], [ -87.453979440869901, 15.780879975382579 ], [ -87.457931612428808, 15.778930626985435 ], [ -87.460922110516393, 15.778572048973714 ], [ -87.463249329433822, 15.778440502306607 ], [ -87.466247541034249, 15.77794644016616 ], [ -87.469146743816665, 15.777586939240088 ], [ -87.471427948610753, 15.777545945492308 ], [ -87.474372787235637, 15.777551571313897 ], [ -87.476600759735859, 15.777510558530588 ], [ -87.479263234043486, 15.777651794454576 ], [ -87.482254067478593, 15.777977024358384 ], [ -87.485389708447499, 15.778255380858536 ], [ -87.488471998608233, 15.779125171121493 ], [ -87.490799067930212, 15.779631529453811 ], [ -87.493644831925593, 15.780409848434884 ], [ -87.494323827987074, 15.77607156802795 ], [ -87.497879088957987, 15.776606510913089 ], [ -87.506744421629477, 15.782562191153191 ], [ -87.512390225537132, 15.785666507708038 ], [ -87.519103961734544, 15.787210480102546 ], [ -87.519096284201467, 15.784611744440392 ], [ -87.516403077201005, 15.781240515313074 ], [ -87.512100364119931, 15.778391832947277 ], [ -87.506195041918801, 15.775287638043878 ], [ -87.502433760486667, 15.773737883039066 ], [ -87.501625127322413, 15.771660799257686 ], [ -87.502517717531319, 15.768567026984135 ], [ -87.503730687049682, 15.766825713060156 ], [ -87.504875277455298, 15.764780010029444 ], [ -87.506927511476107, 15.763510621809287 ], [ -87.510681060180957, 15.762198371339171 ], [ -87.513580426110749, 15.761613813402283 ], [ -87.515960550152641, 15.761616718448035 ], [ -87.519378605235616, 15.761759708546736 ], [ -87.521659825573536, 15.761900836674503 ], [ -87.523887521584712, 15.762587525787627 ], [ -87.5263062162051, 15.762728725863086 ], [ -87.529479992974089, 15.764190594716354 ], [ -87.531707887054154, 15.765196722750369 ], [ -87.534179752459423, 15.766110470014953 ], [ -87.536781214188807, 15.767024953867997 ], [ -87.538772453958103, 15.768848371041873 ], [ -87.540473909232844, 15.769990013778825 ], [ -87.542427151771932, 15.769265137445625 ], [ -87.545181295077484, 15.768361049714086 ], [ -87.548034578888007, 15.768093135068522 ], [ -87.550552311699448, 15.768007194630474 ], [ -87.552742085895076, 15.767373986936587 ], [ -87.555259809639921, 15.767288132843236 ], [ -87.557304323799187, 15.767109859334511 ], [ -87.55924982601276, 15.766568129249253 ], [ -87.561912443876523, 15.766890448200154 ], [ -87.564994811330934, 15.767262501769261 ], [ -87.568412858245694, 15.76786042687711 ], [ -87.571021911198741, 15.768456451285664 ], [ -87.573829702855789, 15.767596161665175 ], [ -87.57587421806636, 15.767418841307462 ], [ -87.578956728397628, 15.76728825174977 ], [ -87.581047022079929, 15.7675647763164 ], [ -87.583091673913259, 15.767978691850523 ], [ -87.583885196079976, 15.770254077923521 ], [ -87.58597573451793, 15.770940762880665 ], [ -87.587676883298968, 15.772035579119249 ], [ -87.587905969361998, 15.774356849106926 ], [ -87.588081437520884, 15.777087125677385 ], [ -87.590599027354401, 15.77619552331516 ], [ -87.592750609731709, 15.774003064883605 ], [ -87.594795259398722, 15.773278200066532 ], [ -87.596931493427164, 15.773964808785625 ], [ -87.599075327484428, 15.773013145751158 ], [ -87.603538511317794, 15.77261249238938 ], [ -87.606384407451017, 15.772890998355344 ], [ -87.608665478529119, 15.773395533949056 ], [ -87.611038158474628, 15.773490867211885 ], [ -87.612136951585711, 15.771764801377673 ], [ -87.613891464620835, 15.773041711877331 ], [ -87.616119242429676, 15.774547611404593 ], [ -87.618263334624984, 15.772821385868026 ], [ -87.62012488911482, 15.770915002364637 ], [ -87.622604410492301, 15.769190811301034 ], [ -87.625641010406028, 15.768878035023622 ], [ -87.629157896732139, 15.768067333581223 ], [ -87.631431453015153, 15.767280541676433 ], [ -87.634811317248079, 15.76844118052713 ], [ -87.636657781688754, 15.769263231898471 ], [ -87.635604847537579, 15.7717180441481 ], [ -87.635925424883339, 15.773719785038638 ], [ -87.634628233292162, 15.776493084163125 ], [ -87.634147667289838, 15.778449036921817 ], [ -87.633521995914663, 15.780448961906288 ], [ -87.632415742603555, 15.78235815050725 ], [ -87.631217899410714, 15.784767067782413 ], [ -87.628830061907124, 15.787946624351999 ], [ -87.627296349954648, 15.790173489988746 ], [ -87.626533377480769, 15.792218257341009 ], [ -87.626609930026632, 15.794858007511294 ], [ -87.627365151058271, 15.797134400347213 ], [ -87.628913975530793, 15.800822225905339 ], [ -87.629760789284859, 15.803051896005121 ], [ -87.630127007807843, 15.805692702001378 ], [ -87.63001255632031, 15.808831255337639 ], [ -87.62895200369563, 15.812241580254899 ], [ -87.627799881887128, 15.814559943790327 ], [ -87.626274140432514, 15.816831622265486 ], [ -87.624267449868483, 15.818375611307761 ], [ -87.622604460802492, 15.819735535530853 ], [ -87.62164296569793, 15.822373375980886 ], [ -87.620155465268624, 15.824099583965447 ], [ -87.6174926779195, 15.826050792293499 ], [ -87.616485450103838, 15.828322453673243 ], [ -87.615425227695951, 15.831005087288091 ], [ -87.614181613916614, 15.83277694987795 ], [ -87.612403834782427, 15.836964544326518 ], [ -87.608512817114288, 15.836178818811199 ], [ -87.605331526895569, 15.836536424304054 ], [ -87.602241504399686, 15.836939802270564 ], [ -87.599899199170252, 15.83814236553709 ], [ -87.597480810290364, 15.838976851950305 ], [ -87.595436104847821, 15.839748341114403 ], [ -87.593452557349835, 15.840429251633012 ], [ -87.597053656474742, 15.849475883771934 ], [ -87.599700824559903, 15.853907617122983 ], [ -87.601959277843022, 15.8566847586413 ], [ -87.603752172707644, 15.858189567518748 ], [ -87.605552643903167, 15.860057867590623 ], [ -87.607627881790521, 15.862245671561652 ], [ -87.609474324489369, 15.864432213455817 ], [ -87.610656623616379, 15.866118509004167 ], [ -87.611831606601825, 15.867895008366553 ], [ -87.613342277230231, 15.869673729186202 ], [ -87.615417628058324, 15.872497680805891 ], [ -87.617118826570518, 15.874410718449836 ], [ -87.618911627148606, 15.876916915127184 ], [ -87.619857884050703, 15.879103612696049 ], [ -87.620887822894758, 15.881424783808443 ], [ -87.621925405863024, 15.883655452533226 ], [ -87.629112363138063, 15.882125008672476 ], [ -87.630157516177064, 15.875163976916925 ], [ -87.636260947588227, 15.869734778203529 ], [ -87.638656645710014, 15.869212198921749 ], [ -87.650787463139054, 15.873814666163645 ], [ -87.661171020395841, 15.875587318654462 ], [ -87.665115403832544, 15.858567337110827 ], [ -87.669868547362086, 15.848245604579134 ], [ -87.681335563960729, 15.853879017776096 ], [ -87.686668300682243, 15.856696009475389 ], [ -87.693588172505173, 15.857190000481468 ], [ -87.701064989979557, 15.864123443853227 ], [ -87.710472060734361, 15.889087538393314 ], [ -87.717193486387956, 15.907619487253458 ], [ -87.71813198781588, 15.921124429215203 ], [ -87.720100350898534, 15.922466178850593 ], [ -87.723571915053626, 15.924831468643665 ], [ -87.726120077537885, 15.925416860495414 ], [ -87.728332655187771, 15.925133559320912 ], [ -87.730773851900452, 15.923469630032589 ], [ -87.732406734529931, 15.921488676679816 ], [ -87.733573772043528, 15.919738783103048 ], [ -87.735061662535557, 15.916702324277923 ], [ -87.736556918430722, 15.913804049206071 ], [ -87.737251427925628, 15.911918599813651 ], [ -87.738166815859657, 15.908516876676721 ], [ -87.740455685385342, 15.905201771875182 ], [ -87.737159612374668, 15.904941528176892 ], [ -87.735916153030445, 15.906921361941052 ], [ -87.735145591461929, 15.908853654663732 ], [ -87.732719513207613, 15.909419897322191 ], [ -87.73004910699288, 15.909289253697208 ], [ -87.729133679579476, 15.907362868011194 ], [ -87.729652518730916, 15.90531541500571 ], [ -87.7297287705494, 15.902385692761714 ], [ -87.729957483445574, 15.899827825985582 ], [ -87.730056763824408, 15.896781784251635 ], [ -87.730552575540415, 15.89450254013351 ], [ -87.73107157402265, 15.891571009485077 ], [ -87.730255263304628, 15.889039848307576 ], [ -87.729217607521178, 15.887114408655048 ], [ -87.728675746457299, 15.884883743852903 ], [ -87.729286248014361, 15.882603649107622 ], [ -87.730285651352887, 15.880345223242603 ], [ -87.731475809915324, 15.878063312574254 ], [ -87.733016871745662, 15.876663098765869 ], [ -87.735199042676655, 15.875633186868884 ], [ -87.737220861513975, 15.875393833747914 ], [ -87.73986060990454, 15.875059213772214 ], [ -87.742080607603327, 15.874563319205885 ], [ -87.744552693137692, 15.874973409945964 ], [ -87.746475167099931, 15.875640962261492 ], [ -87.747253441448493, 15.877637984594166 ], [ -87.748847994204993, 15.879097060209189 ], [ -87.75036617943087, 15.877766575046202 ], [ -87.751487656397018, 15.875182080318728 ], [ -87.752220233275168, 15.873296667358105 ], [ -87.754035906175645, 15.870918124878095 ], [ -87.755691565506822, 15.869285658065671 ], [ -87.757507227546597, 15.867628932737359 ], [ -87.759002810335787, 15.866042938307253 ], [ -87.760436997239893, 15.864549513018668 ], [ -87.765602188279416, 15.864369478281738 ], [ -87.770828170509702, 15.866001206648297 ], [ -87.777824334149045, 15.863557749220567 ], [ -87.783561816144257, 15.870070362052541 ], [ -87.783996558668974, 15.872323091078963 ], [ -87.784721292939338, 15.87427334541503 ], [ -87.784896847010501, 15.87678901097116 ], [ -87.786750907871678, 15.879449693918096 ], [ -87.788742086459692, 15.880442719614436 ], [ -87.790718155622457, 15.881528014775139 ], [ -87.792823789038906, 15.882799229153395 ], [ -87.794822774386617, 15.884209495007314 ], [ -87.796172966865271, 15.886111247293856 ], [ -87.797073372726103, 15.888355245695211 ], [ -87.797935592119458, 15.890416092552664 ], [ -87.800369355239781, 15.891382290451238 ], [ -87.802520625969933, 15.892020268901307 ], [ -87.804458528630974, 15.891523380593298 ], [ -87.806800817778935, 15.889421334053729 ], [ -87.810211138992884, 15.888996949295411 ], [ -87.811378496798696, 15.891125685127165 ], [ -87.813468789747859, 15.891391721047412 ], [ -87.816001909139786, 15.890638466543077 ], [ -87.817779554335019, 15.889281394669473 ], [ -87.821563814489593, 15.892378793026142 ], [ -87.825324905627198, 15.888528869559046 ], [ -87.827491729621642, 15.888149114884072 ], [ -87.829414500643793, 15.889041824467313 ], [ -87.830589267324541, 15.890739454260391 ], [ -87.833183341650425, 15.889320263523471 ], [ -87.835212662041897, 15.887844914358158 ], [ -87.835586615982933, 15.88522056133994 ], [ -87.835189841627383, 15.882033231451505 ], [ -87.837631340549009, 15.882200183421761 ], [ -87.836471549118201, 15.877507128958007 ], [ -87.837066726839808, 15.874863597476743 ], [ -87.8335876460457, 15.874739515158096 ], [ -87.83417514057335, 15.872447862924744 ], [ -87.834732085425827, 15.869979728013206 ], [ -87.834953186324782, 15.867709105108498 ], [ -87.838501001497008, 15.867586124202619 ], [ -87.839485033910293, 15.865176142324559 ], [ -87.840957733746251, 15.861080157739153 ], [ -87.84219370392934, 15.859391310492194 ], [ -87.849655177412544, 15.859361713635158 ], [ -87.853386047271201, 15.859828990965763 ], [ -87.85591111884132, 15.860886622504333 ], [ -87.855438207892377, 15.858197125722082 ], [ -87.860366745360636, 15.858728515702399 ], [ -87.864783605800284, 15.858854012587539 ], [ -87.91220240496412, 15.936221527012782 ], [ -87.880348196803823, 15.944206308762316 ], [ -87.86656940641528, 15.948712222899598 ], [ -87.861053473784281, 15.949624076106076 ], [ -87.850959776462517, 15.955004807800544 ], [ -87.82980343897519, 15.955977539492748 ], [ -87.816017226152084, 15.959589823887949 ], [ -87.790245160349372, 15.954345620069384 ], [ -87.782875159400191, 15.952592891353618 ], [ -87.766388021072686, 15.971342126208773 ], [ -87.752616833335139, 15.977621038477736 ], [ -87.738830634222296, 15.982118458154575 ], [ -87.724113436593015, 15.983058946303984 ], [ -87.708473132506384, 15.982220503053622 ], [ -87.693733224880901, 15.976928817943577 ], [ -87.677139281489431, 15.966300989215076 ], [ -87.671600454717989, 15.960979366454461 ], [ -87.663307257178019, 15.955663756977314 ], [ -87.641273363793587, 15.96997163710081 ], [ -87.627487294819247, 15.975352349916411 ], [ -87.602661104172768, 15.979872706790305 ], [ -87.592544476590902, 15.979901394889932 ], [ -87.570442267852826, 15.971950475510583 ], [ -87.559371878988358, 15.962189729912456 ], [ -87.549232494909177, 15.953314723886828 ], [ -87.544593891569178, 15.939975736353961 ], [ -87.540862977922316, 15.919514603832964 ], [ -87.543586707184801, 15.907047307565337 ], [ -87.547233601889005, 15.896357452611452 ], [ -87.550895751429195, 15.89011750980975 ], [ -87.533378486939853, 15.871470340944988 ], [ -87.518638525125581, 15.85993588641213 ], [ -87.506660341907221, 15.851063583995536 ], [ -87.485488880347631, 15.839541487621011 ], [ -87.482727036648953, 15.839548166291978 ], [ -87.472641061022173, 15.852030871032687 ], [ -87.457031385776872, 15.861854651438133 ], [ -87.442337012521463, 15.867225513279193 ], [ -87.428543046308391, 15.869033784821058 ], [ -87.420288153886872, 15.879730162341604 ], [ -87.412956175684613, 15.889534910145189 ], [ -87.407010185048136, 15.892426361580281 ], [ -87.36076356987968, 15.840674196987022 ] ] ] ] } }
]
}
