{
"type": "FeatureCollection",
"name": "TPC",
"crs": { "type": "name", "properties": { "name": "urn:ogc:def:crs:OGC:1.3:CRS84" } },
"features": [
{ "type": "Feature", "properties": { "fid": 9, "id": 9, "etnia_id": 42, "etnia": "Pech" }, "geometry": { "type": "MultiPolygon", "coordinates": [ [ [ [ -85.595298751223766, 15.368136335882429 ], [ -85.614135725596782, 15.4207706088688 ], [ -85.610488895141629, 15.44929221185215 ], [ -85.589485150757199, 15.483580577086581 ], [ -85.565246576608317, 15.483425176050849 ], [ -85.554084782946177, 15.469920169960156 ], [ -85.538734429692354, 15.437078441102877 ], [ -85.537155158269357, 15.415240277034057 ], [ -85.525596632270251, 15.39386551453876 ], [ -85.595298751223766, 15.368136335882429 ] ] ] ] } },
{ "type": "Feature", "properties": { "fid": 11, "id": 11, "etnia_id": 42, "etnia": "Pech" }, "geometry": { "type": "MultiPolygon", "coordinates": [ [ [ [ -85.462532059239791, 15.143865518387983 ], [ -85.469825758040955, 15.153700771071573 ], [ -85.546585089081702, 15.256787257089439 ], [ -85.557250964935676, 15.261737868101294 ], [ -85.569404587200935, 15.295736356750627 ], [ -85.566535951959949, 15.297731421369111 ], [ -85.537925721888797, 15.315979944037458 ], [ -85.507148760061213, 15.304254477768422 ], [ -85.478813161480346, 15.2833270931598 ], [ -85.45280456062261, 15.269324239644487 ], [ -85.42871094348979, 15.274650513230673 ], [ -85.382751479274503, 15.239560167386799 ], [ -85.368072513947624, 15.236935617244301 ], [ -85.332839978581916, 15.208973852033809 ], [ -85.310821520998019, 15.189528397016851 ], [ -85.325286874999122, 15.187765109936736 ], [ -85.367988573387976, 15.188078850895192 ], [ -85.396369935734782, 15.19980340787629 ], [ -85.41278840527481, 15.225266479739426 ], [ -85.429450978166841, 15.218469542062556 ], [ -85.443817151711812, 15.200137100066614 ], [ -85.446357727970934, 15.177112573825065 ], [ -85.439376838940134, 15.158630361856204 ], [ -85.462532059239791, 15.143865518387983 ] ] ] ] } },
{ "type": "Feature", "properties": { "fid": 13, "id": 13, "etnia_id": 42, "etnia": "Pech" }, "geometry": { "type": "MultiPolygon", "coordinates": [ [ [ [ -85.617240941465127, 15.047491029044162 ], [ -85.642555251636423, 15.065912208325454 ], [ -85.650260916454201, 15.071868864642706 ], [ -85.646362300549924, 15.076144189471295 ], [ -85.639183017774386, 15.073952601279512 ], [ -85.6125945774359, 15.081314040544418 ], [ -85.624275174993002, 15.156072576397721 ], [ -85.623146047696395, 15.160364165447865 ], [ -85.615386968818697, 15.161929133085678 ], [ -85.576278676156264, 15.137505476337276 ], [ -85.569023121445511, 15.124430662916687 ], [ -85.555412295844306, 15.114807141793241 ], [ -85.556579596165548, 15.106217311713221 ], [ -85.573219286881724, 15.098800664713261 ], [ -85.59448243082808, 15.060246399337986 ], [ -85.600616449484789, 15.052225059311313 ], [ -85.617240941465127, 15.047491029044162 ] ] ] ] } },
{ "type": "Feature", "properties": { "fid": 16, "id": 16, "etnia_id": 42, "etnia": "Pech" }, "geometry": { "type": "MultiPolygon", "coordinates": [ [ [ [ -85.208915710932587, 15.040976476326666 ], [ -85.216682427832268, 15.041877735948358 ], [ -85.25029755372563, 15.046626028897945 ], [ -85.24798583656893, 15.067369512134347 ], [ -85.245429990412347, 15.090389303131191 ], [ -85.22236633186408, 15.111363396590878 ], [ -85.18527222439603, 15.078562769661252 ], [ -85.1837692324778, 15.052529367794893 ], [ -85.208915710932587, 15.040976476326666 ] ] ] ] } }
]
}
