{
"type": "FeatureCollection",
"name": "Rio Gualcarque",
"crs": { "type": "name", "properties": { "name": "urn:ogc:def:crs:OGC:1.3:CRS84" } },
"features": [
{ "type": "Feature", "properties": { "full_id": "w761570425", "osm_id": "761570425", "osm_type": "way", "waterway": "river", "name": "Río Gualcarque" }, "geometry": { "type": "MultiLineString", "coordinates": [ [ [ -88.234356, 14.5456033 ], [ -88.2342065, 14.5458962 ], [ -88.2338711, 14.5471349 ], [ -88.233481, 14.5476043 ], [ -88.2329632, 14.5484054 ], [ -88.2327189, 14.5486101 ], [ -88.2324419, 14.5487018 ], [ -88.2321793, 14.5487336 ], [ -88.2318767, 14.5486807 ], [ -88.2314684, 14.5485854 ], [ -88.2311038, 14.5485889 ], [ -88.2308486, 14.5486771 ], [ -88.2307246, 14.5488571 ], [ -88.2306845, 14.5490336 ], [ -88.2306808, 14.5492665 ], [ -88.2309105, 14.5503111 ], [ -88.2309397, 14.5506552 ], [ -88.2309069, 14.5507928 ], [ -88.2306845, 14.5510045 ], [ -88.2304584, 14.5511139 ], [ -88.2300756, 14.551241 ], [ -88.2296199, 14.5512692 ], [ -88.2292079, 14.5512727 ], [ -88.228774, 14.5513892 ], [ -88.2285115, 14.5515057 ], [ -88.2283073, 14.5516962 ], [ -88.2282016, 14.5518621 ], [ -88.2281651, 14.5520138 ], [ -88.2281615, 14.5522609 ], [ -88.2283438, 14.5530196 ], [ -88.2282745, 14.5532243 ], [ -88.228187, 14.5533055 ], [ -88.2276838, 14.5534184 ], [ -88.2273958, 14.553369 ], [ -88.2265463, 14.5533619 ], [ -88.2260942, 14.5534784 ], [ -88.225726, 14.5537183 ], [ -88.2255983, 14.5539089 ], [ -88.2255509, 14.5541136 ], [ -88.2256968, 14.5555358 ], [ -88.2256129, 14.555691 ], [ -88.2254598, 14.5557828 ], [ -88.2253103, 14.5557722 ], [ -88.2251608, 14.5556663 ], [ -88.2249858, 14.5556663 ], [ -88.2247671, 14.5557899 ], [ -88.2244171, 14.5563263 ], [ -88.2239285, 14.5571873 ], [ -88.2237332, 14.5576702 ], [ -88.2229587, 14.5588071 ], [ -88.2224701, 14.5592306 ], [ -88.221967, 14.5599787 ], [ -88.2218466, 14.5602716 ], [ -88.2216534, 14.5609632 ], [ -88.2214419, 14.5612032 ], [ -88.2211794, 14.5613232 ], [ -88.220545, 14.5612808 ], [ -88.2198012, 14.5613902 ], [ -88.2191997, 14.5614432 ], [ -88.2190356, 14.5615137 ], [ -88.2189262, 14.5616725 ], [ -88.2188897, 14.5619301 ], [ -88.218908, 14.5621948 ], [ -88.2190538, 14.5625618 ], [ -88.2194111, 14.563077 ], [ -88.2198012, 14.5633064 ], [ -88.2202393, 14.5636982 ] ] ] } },
{ "type": "Feature", "properties": { "full_id": "w761570426", "osm_id": "761570426", "osm_type": "way", "waterway": "river", "name": "Río Gualcarque" }, "geometry": { "type": "MultiLineString", "coordinates": [ [ [ -88.2202393, 14.5636982 ], [ -88.2206252, 14.5640333 ], [ -88.2209133, 14.5644533 ], [ -88.2210336, 14.5647567 ], [ -88.2211466, 14.5654237 ], [ -88.2212815, 14.5659318 ], [ -88.2212888, 14.5662388 ], [ -88.2211685, 14.566687 ], [ -88.2209388, 14.5669199 ], [ -88.2206471, 14.5674351 ], [ -88.2205341, 14.5678691 ], [ -88.2205341, 14.5682291 ], [ -88.2206289, 14.5685114 ], [ -88.2211357, 14.5695206 ], [ -88.2211575, 14.5697147 ], [ -88.2211138, 14.5699793 ], [ -88.2204466, 14.5719166 ], [ -88.2203627, 14.5720472 ], [ -88.2202461, 14.5720719 ], [ -88.2199471, 14.572033 ], [ -88.2197028, 14.5720824 ], [ -88.2192252, 14.5723259 ], [ -88.2189371, 14.5726541 ], [ -88.2187804, 14.5730705 ], [ -88.2187731, 14.5735574 ], [ -88.2189882, 14.5743655 ], [ -88.2194731, 14.5753923 ], [ -88.219495, 14.5756887 ], [ -88.2194622, 14.575904 ], [ -88.2192471, 14.5761439 ], [ -88.2191486, 14.5763239 ], [ -88.2190662, 14.5772622 ] ] ] } },
{ "type": "Feature", "properties": { "full_id": "w761570427", "osm_id": "761570427", "osm_type": "way", "waterway": "river", "name": "Río Gualcarque" }, "geometry": { "type": "MultiLineString", "coordinates": [ [ [ -88.2190662, 14.5772622 ], [ -88.2189371, 14.5782435 ], [ -88.2187877, 14.5787939 ], [ -88.2183939, 14.5796549 ], [ -88.2175663, 14.5811581 ], [ -88.2175189, 14.581398 ], [ -88.217548, 14.5815427 ], [ -88.2176611, 14.5816485 ], [ -88.2179199, 14.5816768 ], [ -88.2181168, 14.5817755 ], [ -88.2182991, 14.5820331 ], [ -88.2184814, 14.5831587 ], [ -88.2185675, 14.5840431 ], [ -88.2189139, 14.5849922 ], [ -88.2189905, 14.5858073 ], [ -88.2189103, 14.5864777 ], [ -88.2186879, 14.5876315 ], [ -88.2187316, 14.5879032 ], [ -88.2188009, 14.588062 ], [ -88.2189836, 14.5882148 ], [ -88.2200916, 14.5886195 ], [ -88.2203577, 14.5889123 ], [ -88.2204817, 14.5891346 ], [ -88.2206749, 14.5898791 ], [ -88.2206348, 14.5901932 ], [ -88.2205509, 14.590299 ], [ -88.2203249, 14.5904049 ], [ -88.2199931, 14.5904225 ], [ -88.2192639, 14.5903519 ], [ -88.2189832, 14.5904366 ], [ -88.2188228, 14.5906166 ], [ -88.2187498, 14.5908424 ], [ -88.2187535, 14.591167 ], [ -88.2190561, 14.5919821 ], [ -88.2192894, 14.5922784 ], [ -88.219428, 14.592416 ], [ -88.2198691, 14.5924866 ], [ -88.2199822, 14.5926771 ], [ -88.2199603, 14.5930688 ], [ -88.2197525, 14.5934428 ], [ -88.2195483, 14.5936016 ], [ -88.2192275, 14.5937603 ], [ -88.2189978, 14.5937815 ], [ -88.2183378, 14.5937568 ], [ -88.2180352, 14.5938591 ], [ -88.2178274, 14.5939897 ], [ -88.2176123, 14.594272 ] ] ] } },
{ "type": "Feature", "properties": { "full_id": "w761570428", "osm_id": "761570428", "osm_type": "way", "waterway": "river", "name": "Río Gualcarque" }, "geometry": { "type": "MultiLineString", "coordinates": [ [ [ -88.2176123, 14.594272 ], [ -88.217554, 14.5945789 ], [ -88.2176086, 14.5956021 ], [ -88.2175758, 14.5959232 ], [ -88.2173024, 14.5963854 ], [ -88.2172154, 14.5966558 ], [ -88.2173507, 14.5971867 ], [ -88.2174125, 14.5975419 ], [ -88.2173622, 14.5979943 ], [ -88.21737, 14.5983121 ], [ -88.2174395, 14.5986523 ], [ -88.217679, 14.5990897 ], [ -88.2177911, 14.5993551 ], [ -88.2177834, 14.5995608 ], [ -88.217625, 14.5999757 ], [ -88.2175863, 14.6002786 ], [ -88.2176018, 14.600559 ], [ -88.2177409, 14.6008132 ], [ -88.218556, 14.601688 ], [ -88.2187144, 14.602103 ], [ -88.2189269, 14.6024058 ], [ -88.2197923, 14.6030937 ], [ -88.2202791, 14.6035835 ], [ -88.220337, 14.6037854 ], [ -88.2202482, 14.6041929 ], [ -88.2201362, 14.6056771 ], [ -88.2201477, 14.6064397 ], [ -88.2201052, 14.6066828 ], [ -88.2198078, 14.6072585 ], [ -88.2197035, 14.6076398 ], [ -88.2195451, 14.6078641 ] ] ] } },
{ "type": "Feature", "properties": { "full_id": "w761570429", "osm_id": "761570429", "osm_type": "way", "waterway": "river", "name": "Río Gualcarque" }, "geometry": { "type": "MultiLineString", "coordinates": [ [ [ -88.2195451, 14.6078641 ], [ -88.2194214, 14.6080679 ], [ -88.2194369, 14.6083071 ], [ -88.2196455, 14.6086586 ], [ -88.2206113, 14.6098623 ], [ -88.2206577, 14.6100941 ], [ -88.2205264, 14.6106399 ], [ -88.2204336, 14.6127484 ], [ -88.2203177, 14.6135484 ], [ -88.2202482, 14.6140382 ], [ -88.2202405, 14.6145541 ], [ -88.2202675, 14.6151186 ], [ -88.2202327, 14.6152868 ], [ -88.2201555, 14.6153989 ], [ -88.2197112, 14.6156345 ], [ -88.219348, 14.6157653 ], [ -88.2190274, 14.6160307 ], [ -88.2188806, 14.6163335 ], [ -88.2188187, 14.6166849 ], [ -88.2188574, 14.6169167 ], [ -88.2189771, 14.6171485 ], [ -88.2196494, 14.6178588 ], [ -88.2198271, 14.6181728 ], [ -88.219885, 14.6184868 ], [ -88.2198812, 14.618756 ], [ -88.2198116, 14.6190438 ], [ -88.2196764, 14.6192756 ], [ -88.2192746, 14.6195859 ], [ -88.2190544, 14.6198961 ], [ -88.218923, 14.62027 ], [ -88.2188806, 14.6206139 ], [ -88.2185019, 14.6216905 ], [ -88.218332, 14.6219634 ], [ -88.2178548, 14.6221933 ], [ -88.2175786, 14.6223709 ], [ -88.2173564, 14.6227354 ], [ -88.2168001, 14.6233391 ], [ -88.2166494, 14.6237391 ], [ -88.2165683, 14.6249876 ], [ -88.2164872, 14.6252194 ], [ -88.2163481, 14.6253764 ], [ -88.2159154, 14.6256344 ], [ -88.2156643, 14.6257054 ], [ -88.2153823, 14.6257689 ], [ -88.2151698, 14.6258736 ], [ -88.2149882, 14.6261241 ], [ -88.2146289, 14.6268455 ], [ -88.2144821, 14.6270324 ], [ -88.2143739, 14.6270922 ], [ -88.2142271, 14.6271147 ], [ -88.2141151, 14.6271894 ], [ -88.2140455, 14.6274922 ], [ -88.2139953, 14.6275184 ], [ -88.2139142, 14.6275184 ], [ -88.2138446, 14.6274586 ], [ -88.2137133, 14.6274698 ], [ -88.2136553, 14.6275371 ], [ -88.2136553, 14.6276717 ], [ -88.2135819, 14.627709 ], [ -88.2135162, 14.6278361 ], [ -88.2135047, 14.628266 ] ] ] } },
{ "type": "Feature", "properties": { "full_id": "w761570430", "osm_id": "761570430", "osm_type": "way", "waterway": "river", "name": "Río Gualcarque" }, "geometry": { "type": "MultiLineString", "coordinates": [ [ [ -88.2135047, 14.628266 ], [ -88.2134119, 14.628823 ], [ -88.2132072, 14.6293052 ], [ -88.2128092, 14.629765 ], [ -88.2123456, 14.6305426 ], [ -88.2121679, 14.6309799 ], [ -88.2119245, 14.631264 ], [ -88.211488, 14.6316416 ], [ -88.2108312, 14.6323256 ], [ -88.2106767, 14.6327256 ], [ -88.2106689, 14.6329536 ], [ -88.2106998, 14.6331069 ], [ -88.2107694, 14.6332228 ], [ -88.2109316, 14.6333835 ], [ -88.2110475, 14.6338096 ], [ -88.2110823, 14.6345498 ], [ -88.2109973, 14.634804 ], [ -88.2106689, 14.6349871 ], [ -88.2102555, 14.6350544 ], [ -88.2099233, 14.6350021 ], [ -88.2092742, 14.6346096 ], [ -88.2090734, 14.6344638 ], [ -88.2088609, 14.6344414 ], [ -88.2085016, 14.634561 ], [ -88.2082002, 14.63486 ], [ -88.2080186, 14.6352189 ], [ -88.2079684, 14.635488 ], [ -88.2084552, 14.6366954 ], [ -88.2084745, 14.6370617 ], [ -88.2082466, 14.6375065 ], [ -88.2080071, 14.6376635 ], [ -88.2077134, 14.6377121 ], [ -88.2073619, 14.6376598 ], [ -88.2064926, 14.6371552 ], [ -88.2059556, 14.6369645 ], [ -88.2053606, 14.6370131 ], [ -88.2050709, 14.6371327 ], [ -88.2050052, 14.6373234 ], [ -88.2050477, 14.6376 ], [ -88.2054147, 14.6382168 ], [ -88.2061526, 14.638998 ], [ -88.2063072, 14.6394204 ], [ -88.2063072, 14.6397082 ], [ -88.2061835, 14.6400671 ], [ -88.2059401, 14.6402913 ], [ -88.2056581, 14.6403997 ], [ -88.2052679, 14.6404184 ], [ -88.2049434, 14.6403138 ], [ -88.204333, 14.6398166 ], [ -88.2039119, 14.6397306 ], [ -88.2036067, 14.6398278 ], [ -88.2033285, 14.6400035 ], [ -88.2028842, 14.640553 ], [ -88.202324, 14.6413903 ], [ -88.2018063, 14.6418351 ], [ -88.2012191, 14.6421528 ], [ -88.2009409, 14.6424556 ], [ -88.2008714, 14.6427883 ], [ -88.2008907, 14.6430499 ], [ -88.2012307, 14.6438872 ], [ -88.2012461, 14.6442797 ], [ -88.2011843, 14.644504 ], [ -88.2009525, 14.6447208 ], [ -88.1995656, 14.6451431 ], [ -88.1989745, 14.6455319 ], [ -88.1987465, 14.6458197 ], [ -88.1986924, 14.6459841 ], [ -88.1987002, 14.6463392 ], [ -88.1988972, 14.6468326 ], [ -88.1989011, 14.6471728 ], [ -88.198762, 14.6486305 ], [ -88.1985534, 14.649266 ], [ -88.1982984, 14.6496248 ], [ -88.1975875, 14.6501107 ], [ -88.1969655, 14.6506863 ], [ -88.1964478, 14.6514077 ], [ -88.1954627, 14.6529925 ], [ -88.1952656, 14.6534522 ], [ -88.1948831, 14.6547829 ], [ -88.1946822, 14.6551417 ], [ -88.1944504, 14.6552725 ], [ -88.1941491, 14.6553286 ], [ -88.19367, 14.6552239 ], [ -88.1930751, 14.6552015 ], [ -88.1926694, 14.6552987 ], [ -88.1923681, 14.6555117 ], [ -88.1921749, 14.6557995 ], [ -88.1921537, 14.6565113 ] ] ] } },
{ "type": "Feature", "properties": { "full_id": "w761570432", "osm_id": "761570432", "osm_type": "way", "waterway": "river", "name": "Río Gualcarque" }, "geometry": { "type": "MultiLineString", "coordinates": [ [ [ -88.1921537, 14.6565113 ], [ -88.1920397, 14.6570815 ], [ -88.1920165, 14.6574441 ], [ -88.1921981, 14.6580944 ], [ -88.1922174, 14.6583 ], [ -88.192117, 14.6584906 ], [ -88.1919508, 14.6586252 ], [ -88.1911588, 14.658771 ], [ -88.191012, 14.6589055 ], [ -88.1908961, 14.6591597 ], [ -88.1908807, 14.65944 ], [ -88.1909193, 14.6597054 ], [ -88.1917074, 14.6605426 ], [ -88.1923565, 14.661107 ], [ -88.1925651, 14.6614209 ], [ -88.1925844, 14.6616489 ], [ -88.1925342, 14.6618545 ], [ -88.1923526, 14.6621834 ], [ -88.1919586, 14.6624637 ], [ -88.1907339, 14.6628786 ], [ -88.1904828, 14.6630991 ], [ -88.1904132, 14.6632673 ], [ -88.1903784, 14.6637831 ], [ -88.1902896, 14.6639886 ], [ -88.1900539, 14.6642017 ], [ -88.1897719, 14.6643175 ], [ -88.1891383, 14.6642353 ], [ -88.1888524, 14.664325 ], [ -88.1886283, 14.6645642 ], [ -88.1882729, 14.6653715 ], [ -88.1876973, 14.66619 ], [ -88.1875466, 14.6665526 ], [ -88.1875311, 14.6669114 ], [ -88.1875582, 14.6672178 ], [ -88.1878711, 14.6678345 ], [ -88.1878788, 14.6681597 ], [ -88.1877938, 14.6683727 ], [ -88.1871255, 14.6689931 ], [ -88.1869253, 14.6692538 ], [ -88.1867816, 14.6706825 ], [ -88.1866812, 14.6708693 ], [ -88.1861867, 14.6714972 ], [ -88.1857327, 14.6725026 ], [ -88.1855994, 14.6730034 ], [ -88.185244, 14.6735995 ], [ -88.1849253, 14.6737677 ], [ -88.1845911, 14.6737602 ], [ -88.1841294, 14.6737471 ], [ -88.1838822, 14.6738107 ], [ -88.1837296, 14.6738892 ], [ -88.1836562, 14.6740611 ], [ -88.1836523, 14.6747095 ], [ -88.1835518, 14.6749879 ], [ -88.1833819, 14.6752028 ], [ -88.1830245, 14.6753355 ], [ -88.1826362, 14.6754607 ], [ -88.182559, 14.6755448 ], [ -88.1824392, 14.6759578 ], [ -88.1824701, 14.6761858 ], [ -88.1826652, 14.6764847 ], [ -88.1827386, 14.6767725 ], [ -88.1827463, 14.6771743 ], [ -88.1826208, 14.67934 ], [ -88.1825126, 14.6800539 ], [ -88.1824392, 14.6802631 ], [ -88.1823563, 14.6803153 ], [ -88.1822074, 14.6804089 ], [ -88.1820335, 14.6804239 ], [ -88.1818674, 14.6803753 ], [ -88.1815661, 14.6802407 ], [ -88.1813999, 14.680237 ], [ -88.1811488, 14.6803267 ], [ -88.1809363, 14.680536 ], [ -88.1808282, 14.6812573 ], [ -88.1807238, 14.6815226 ], [ -88.1804534, 14.6817767 ], [ -88.1784754, 14.6830885 ], [ -88.1782667, 14.6834062 ], [ -88.1782126, 14.6836379 ], [ -88.1782436, 14.6838845 ], [ -88.1795757, 14.6854906 ], [ -88.1799396, 14.6862352 ], [ -88.1800246, 14.6872368 ], [ -88.180183, 14.6884065 ], [ -88.1800091, 14.6888475 ], [ -88.1797735, 14.689139 ], [ -88.1794296, 14.6892586 ], [ -88.1792751, 14.6895388 ], [ -88.1792017, 14.6899948 ], [ -88.179248, 14.691 ], [ -88.1791824, 14.6914186 ], [ -88.1789351, 14.6919007 ], [ -88.1787265, 14.6920502 ], [ -88.1779306, 14.6922445 ], [ -88.1770614, 14.6928275 ], [ -88.1759873, 14.6934104 ], [ -88.1749867, 14.6940869 ], [ -88.1747163, 14.694412 ], [ -88.1747124, 14.694625 ], [ -88.1747317, 14.6948118 ], [ -88.1753344, 14.6957386 ], [ -88.1753731, 14.6959666 ], [ -88.1752726, 14.6960936 ], [ -88.1745888, 14.6962319 ], [ -88.1722676, 14.6973636 ], [ -88.171784, 14.6977865 ], [ -88.1717028, 14.6981378 ], [ -88.1718187, 14.6986535 ], [ -88.1720467, 14.6989262 ], [ -88.1724021, 14.6992327 ], [ -88.1727035, 14.6993635 ], [ -88.1730743, 14.6994494 ], [ -88.1734993, 14.6994233 ], [ -88.1742372, 14.699341 ], [ -88.174782, 14.6994158 ], [ -88.1762649, 14.6999216 ], [ -88.176648, 14.7001445 ], [ -88.1768798, 14.7003837 ], [ -88.1769764, 14.7007125 ], [ -88.1769764, 14.701131 ], [ -88.176845, 14.7015047 ], [ -88.1765591, 14.7018859 ], [ -88.1763389, 14.7020391 ], [ -88.1758483, 14.7020989 ], [ -88.1752069, 14.7021363 ], [ -88.1743763, 14.702424 ], [ -88.1739861, 14.7027827 ], [ -88.1736307, 14.7033732 ], [ -88.1734568, 14.7040869 ], [ -88.1734452, 14.7045615 ], [ -88.1735727, 14.7049501 ], [ -88.173847, 14.7052565 ], [ -88.1743609, 14.7055293 ], [ -88.1755624, 14.7057834 ], [ -88.1761032, 14.7061459 ], [ -88.1762771, 14.7065196 ], [ -88.1763196, 14.706912 ], [ -88.1761341, 14.7071474 ], [ -88.1756358, 14.7074127 ], [ -88.1751141, 14.7079081 ], [ -88.1743066, 14.7089625 ], [ -88.174075, 14.7095015 ], [ -88.1740672, 14.7103872 ], [ -88.1743493, 14.7111009 ], [ -88.174697, 14.7114222 ], [ -88.1750369, 14.7116763 ], [ -88.1754465, 14.7117025 ], [ -88.1760878, 14.7115007 ], [ -88.1775829, 14.7108094 ], [ -88.177834, 14.710772 ], [ -88.1780697, 14.7108916 ], [ -88.1781972, 14.7110859 ], [ -88.1782126, 14.711284 ], [ -88.1778418, 14.7119454 ], [ -88.176988, 14.7132233 ], [ -88.17676, 14.7134774 ], [ -88.1765089, 14.7135708 ], [ -88.1756705, 14.7134214 ], [ -88.1749404, 14.7134401 ], [ -88.1742565, 14.7136568 ], [ -88.1737813, 14.7140118 ], [ -88.1734414, 14.7144228 ], [ -88.1730164, 14.7154186 ], [ -88.1728928, 14.7158259 ], [ -88.1729082, 14.7161323 ], [ -88.1731323, 14.7164612 ], [ -88.17365, 14.7170478 ], [ -88.1737427, 14.7173056 ], [ -88.1736848, 14.717769 ], [ -88.1734607, 14.7182547 ], [ -88.1729237, 14.7186583 ], [ -88.1726687, 14.7189871 ], [ -88.1720621, 14.7200819 ], [ -88.1718303, 14.7210123 ], [ -88.1718303, 14.7215429 ], [ -88.1721896, 14.723258 ], [ -88.1720312, 14.7247152 ], [ -88.1719771, 14.7251076 ], [ -88.1720312, 14.7254289 ], [ -88.1722746, 14.725825 ], [ -88.1733255, 14.7267404 ], [ -88.1736423, 14.7272785 ], [ -88.1736616, 14.7274915 ], [ -88.1735573, 14.7276932 ], [ -88.1733757, 14.7278502 ], [ -88.1722205, 14.7284181 ], [ -88.1720274, 14.7286199 ], [ -88.1720042, 14.728844 ], [ -88.1721935, 14.72927 ], [ -88.1725567, 14.7295988 ], [ -88.173453, 14.7300023 ], [ -88.1740247, 14.7302303 ], [ -88.1744458, 14.7302228 ], [ -88.1748051, 14.7301144 ], [ -88.1751606, 14.729894 ], [ -88.1758135, 14.7295017 ], [ -88.1762075, 14.729397 ], [ -88.17659, 14.729397 ], [ -88.1767793, 14.7296138 ], [ -88.1772159, 14.7306151 ], [ -88.1772584, 14.731467 ], [ -88.1771232, 14.7323152 ], [ -88.1770652, 14.7327785 ], [ -88.1772082, 14.7331633 ], [ -88.1774438, 14.7338321 ], [ -88.1779229, 14.7345308 ], [ -88.1787072, 14.735293 ], [ -88.1798932, 14.7360366 ], [ -88.1806118, 14.7365223 ], [ -88.180832, 14.7368137 ], [ -88.1808436, 14.7370865 ], [ -88.1807586, 14.737221 ], [ -88.1803645, 14.7373816 ], [ -88.1801637, 14.7375423 ], [ -88.1800555, 14.7377814 ], [ -88.1798044, 14.7387155 ], [ -88.179486, 14.7406082 ], [ -88.1793407, 14.7409174 ], [ -88.1790808, 14.7412373 ], [ -88.1786251, 14.7415539 ], [ -88.1782269, 14.7416257 ], [ -88.1774979, 14.7416224 ], [ -88.1764887, 14.7414919 ], [ -88.17632, 14.74158 ], [ -88.1762221, 14.7417269 ], [ -88.1761479, 14.7420239 ], [ -88.1760027, 14.7423797 ], [ -88.1753986, 14.7430651 ], [ -88.1748687, 14.7435122 ], [ -88.1741633, 14.7438093 ], [ -88.1740148, 14.7440377 ], [ -88.1739372, 14.7445534 ], [ -88.173998, 14.7449418 ], [ -88.1742443, 14.7453955 ], [ -88.1749295, 14.7459961 ], [ -88.1754222, 14.7464367 ], [ -88.1754391, 14.7466652 ], [ -88.1753311, 14.7468382 ], [ -88.175105, 14.7469589 ], [ -88.1749362, 14.7473734 ], [ -88.1745481, 14.7478728 ], [ -88.1742275, 14.7489597 ], [ -88.1735997, 14.7503468 ], [ -88.1733196, 14.7508527 ], [ -88.1729045, 14.7513031 ], [ -88.1723442, 14.751636 ], [ -88.1714093, 14.7520244 ], [ -88.1709233, 14.7521941 ], [ -88.1708322, 14.7523573 ], [ -88.1708221, 14.7525531 ], [ -88.1709199, 14.752762 ], [ -88.1713114, 14.7531047 ], [ -88.1715308, 14.7535486 ], [ -88.1716489, 14.7539892 ], [ -88.1716422, 14.7544298 ], [ -88.1715544, 14.7546615 ], [ -88.1713891, 14.7547496 ], [ -88.1710887, 14.754779 ], [ -88.1706061, 14.7546615 ], [ -88.1703293, 14.7543873 ], [ -88.1702483, 14.7541621 ], [ -88.1702618, 14.7539761 ], [ -88.1704272, 14.7535257 ], [ -88.1704272, 14.7533168 ], [ -88.170363, 14.7530329 ], [ -88.170174, 14.752824 ], [ -88.1697623, 14.7525335 ], [ -88.1695024, 14.7524356 ], [ -88.1691514, 14.7524813 ], [ -88.168851, 14.7526412 ], [ -88.1686485, 14.7530884 ], [ -88.1684427, 14.7537346 ], [ -88.1682739, 14.7540577 ], [ -88.1678824, 14.7542894 ], [ -88.1668631, 14.7558723 ], [ -88.1660396, 14.7567111 ], [ -88.1654017, 14.75723 ], [ -88.1640517, 14.757997 ], [ -88.1637142, 14.7583136 ], [ -88.1635758, 14.7587542 ], [ -88.1635556, 14.7591948 ], [ -88.16337, 14.7594167 ], [ -88.1628806, 14.7595864 ], [ -88.1622866, 14.7599781 ] ] ] } }
]
}
