{
"type": "FeatureCollection",
"name": "componentes_Presa Agua Zarca _2011",
"crs": { "type": "name", "properties": { "name": "urn:ogc:def:crs:OGC:1.3:CRS84" } },
"features": [
{ "type": "Feature", "properties": { "NOMBRE": "Casa de Máquinas" }, "geometry": { "type": "MultiPoint", "coordinates": [ [ -88.175385219080425, 14.692716373491992 ] ] } },
{ "type": "Feature", "properties": { "NOMBRE": "Tanque de Oscilación" }, "geometry": { "type": "MultiPoint", "coordinates": [ [ -88.174818221222438, 14.6868348736357 ] ] } },
{ "type": "Feature", "properties": { "NOMBRE": "Addit" }, "geometry": { "type": "MultiPoint", "coordinates": [ [ -88.176807713543283, 14.68277617188331 ] ] } },
{ "type": "Feature", "properties": { "NOMBRE": "Presa" }, "geometry": { "type": "MultiPoint", "coordinates": [ [ -88.187279499001775, 14.668527754531583 ] ] } }
]
}
