{
"type": "FeatureCollection",
"name": "PA11ID",
"crs": { "type": "name", "properties": { "name": "urn:ogc:def:crs:OGC:1.3:CRS84" } },
"features": [
{ "type": "Feature", "properties": { "id": 15, "Prop_orig": "Ignacio Dominguez", "Comunidad": "La Tejera", "Infr_asoci": "Camino al addit", "Area (m2)": 910.92 }, "geometry": { "type": "MultiPolygon", "coordinates": [ [ [ [ -88.177275569515672, 14.683222012679568 ], [ -88.177239407841185, 14.68331066461181 ], [ -88.177220563074641, 14.683361067511472 ], [ -88.177189266962486, 14.683465975741132 ], [ -88.177153402514008, 14.683643267014046 ], [ -88.177127109751495, 14.683757108712179 ], [ -88.177093852009875, 14.68389234911529 ], [ -88.177055450708266, 14.683992469363382 ], [ -88.176961838539384, 14.683961932572156 ], [ -88.177000273062347, 14.683868014444224 ], [ -88.17701412556643, 14.683810745449689 ], [ -88.177104799033387, 14.683424366359175 ], [ -88.177114400258574, 14.683366429772329 ], [ -88.177143712737205, 14.683287718994926 ], [ -88.177185801922207, 14.683182239190593 ], [ -88.177210617503945, 14.683189263214125 ], [ -88.177275569515672, 14.683222012679568 ] ] ] ] } }
]
}
