{
"type": "FeatureCollection",
"name": "PA11VP",
"crs": { "type": "name", "properties": { "name": "urn:ogc:def:crs:OGC:1.3:CRS84" } },
"features": [
{ "type": "Feature", "properties": { "id": 7, "Prop_orig": "Virgilio Pineda", "Comunidad": "El Barreal", "Infr_asoci": "Campamento", "Area (m2)": 34700.0 }, "geometry": { "type": "MultiPolygon", "coordinates": [ [ [ [ -88.173992397392894, 14.670461613536549 ], [ -88.17356879288333, 14.670232201267964 ], [ -88.173218562224505, 14.670044685167156 ], [ -88.173068984703519, 14.66996090541619 ], [ -88.17300274929913, 14.669929998618475 ], [ -88.172949884318029, 14.669928427762606 ], [ -88.172857191982331, 14.669892141322375 ], [ -88.172825487317269, 14.669787551540052 ], [ -88.172802394701876, 14.669704970875891 ], [ -88.17277953698138, 14.669666494205472 ], [ -88.172782793664382, 14.669569078822281 ], [ -88.172778871503269, 14.669541532877645 ], [ -88.17272928289438, 14.669446221911933 ], [ -88.172712029545551, 14.669396690651238 ], [ -88.172732451531203, 14.669332267526309 ], [ -88.172722827198996, 14.669297399492359 ], [ -88.172782048837348, 14.669074736972318 ], [ -88.172869156067634, 14.669125753387002 ], [ -88.173013216714537, 14.669237126904013 ], [ -88.173035996116823, 14.669260902221348 ], [ -88.173054794605648, 14.669246105598829 ], [ -88.17338455688018, 14.668426657192903 ], [ -88.17341067098441, 14.668367718429579 ], [ -88.173477082195674, 14.668431703139255 ], [ -88.173633778575933, 14.668434587257526 ], [ -88.173751186412616, 14.668503827473719 ], [ -88.173864721025978, 14.668554710035012 ], [ -88.173840347783667, 14.668586074315309 ], [ -88.173804775818851, 14.668641385461621 ], [ -88.173959692413675, 14.668664493209082 ], [ -88.174014493734234, 14.668675242650311 ], [ -88.174127989301553, 14.668718774407791 ], [ -88.174216954938061, 14.668764267771094 ], [ -88.174298487492422, 14.668831851241908 ], [ -88.174423162246214, 14.668847760625773 ], [ -88.174453345449578, 14.668843932652409 ], [ -88.174510250113926, 14.668895101073465 ], [ -88.174682254025811, 14.668936499106792 ], [ -88.174653070587098, 14.669127768985128 ], [ -88.17464222480487, 14.669217871842902 ], [ -88.174655879636049, 14.669300499991325 ], [ -88.174682826654603, 14.669397762663653 ], [ -88.174775920943048, 14.669509392646845 ], [ -88.174827202031182, 14.669567940259959 ], [ -88.174872692651277, 14.669602626844394 ], [ -88.174923885547798, 14.669644635445728 ], [ -88.174977083803753, 14.669708686470557 ], [ -88.175009311672937, 14.669734251513647 ], [ -88.175047486956586, 14.669813080201406 ], [ -88.175068653504439, 14.66988831946418 ], [ -88.17508795199619, 14.669967243599602 ], [ -88.175120493717813, 14.670051613902094 ], [ -88.175139625536318, 14.670099297725633 ], [ -88.175166661150641, 14.670213099296415 ], [ -88.175172530153674, 14.670251661618579 ], [ -88.17519167181095, 14.670301183099776 ], [ -88.175201276968153, 14.670332375666518 ], [ -88.175201473111628, 14.670369128963848 ], [ -88.175205513282449, 14.670418726820355 ], [ -88.175194344068345, 14.670448186742007 ], [ -88.175186852157495, 14.67045925092021 ], [ -88.175136322166225, 14.670453074476267 ], [ -88.175065701780483, 14.670396462471603 ], [ -88.175022479866257, 14.670344765608313 ], [ -88.174960816253048, 14.670286270558762 ], [ -88.174900233780036, 14.670253498028902 ], [ -88.17482503400727, 14.670223096530853 ], [ -88.174806169394728, 14.670225489053028 ], [ -88.174783585778826, 14.670238467236043 ], [ -88.174747328683466, 14.670253811689573 ], [ -88.174721350929616, 14.670249808165085 ], [ -88.174629518741625, 14.670197897538305 ], [ -88.174600058656821, 14.670160373307466 ], [ -88.174580071318829, 14.670129233190329 ], [ -88.174540263285436, 14.670098193260273 ], [ -88.174470208189334, 14.670059036488883 ], [ -88.174461698903116, 14.670056322925866 ], [ -88.173992397392894, 14.670461613536549 ] ] ] ] } }
]
}
