{
"type": "FeatureCollection",
"name": "PA11FM",
"crs": { "type": "name", "properties": { "name": "urn:ogc:def:crs:OGC:1.3:CRS84" } },
"features": [
{ "type": "Feature", "properties": { "id": 5, "Prop_orig": "Francisco Madrid", "Comunidad": "El Barreal", "Infr_asoci": "Camino al addit", "Area (m2)": 6179.49 }, "geometry": { "type": "MultiPolygon", "coordinates": [ [ [ [ -88.176961838539384, 14.683961932572156 ], [ -88.177055450708266, 14.683992469363382 ], [ -88.177014435206814, 14.684100183419458 ], [ -88.176963044109414, 14.68422035462209 ], [ -88.176949532634097, 14.68427520988933 ], [ -88.176935125167361, 14.684361081077261 ], [ -88.176943830445566, 14.6844003180253 ], [ -88.176950478307759, 14.684451969954438 ], [ -88.176962419042184, 14.684500493911937 ], [ -88.176981804088044, 14.684551047552503 ], [ -88.177027852596211, 14.684623173972474 ], [ -88.177107964669858, 14.684710633356307 ], [ -88.177340812695363, 14.684962712163365 ], [ -88.177448761119138, 14.685092412444952 ], [ -88.177552473158784, 14.685224201579755 ], [ -88.1776840768526, 14.685408568490947 ], [ -88.177769631791037, 14.68552080908476 ], [ -88.177855231098917, 14.685641319112611 ], [ -88.177885429168896, 14.685727997714459 ], [ -88.177882702897492, 14.685813809660639 ], [ -88.177827921472613, 14.685895750883878 ], [ -88.177795212950898, 14.68593519790436 ], [ -88.177704321369319, 14.686016288601015 ], [ -88.177447320188691, 14.6862119302348 ], [ -88.177212623994279, 14.686408492209003 ], [ -88.177154573491677, 14.686474944189804 ], [ -88.17697172190087, 14.68663609681087 ], [ -88.176760359038738, 14.686827371506979 ], [ -88.176661015711446, 14.686916774387464 ], [ -88.176438917152495, 14.687086395281101 ], [ -88.176290869680201, 14.687202921386836 ], [ -88.176130117872319, 14.687326747769387 ], [ -88.176046603162121, 14.687397463384002 ], [ -88.175949372040989, 14.687484787866131 ], [ -88.175844956177571, 14.687618665781082 ], [ -88.175688777455164, 14.68780345777717 ], [ -88.175470310462529, 14.688056790186346 ], [ -88.175421744373168, 14.688109755491462 ], [ -88.175375278709652, 14.68806726400085 ], [ -88.175349912832104, 14.68804844104964 ], [ -88.17550293391335, 14.687868833809508 ], [ -88.175787128731258, 14.687528336569819 ], [ -88.175872944515561, 14.68742453057623 ], [ -88.175918702549396, 14.687376058839245 ], [ -88.175958155449166, 14.687340023590282 ], [ -88.17626267600825, 14.687093835294487 ], [ -88.176527086836671, 14.686893333295071 ], [ -88.176613797968855, 14.686824668751122 ], [ -88.176708908414199, 14.686738043916204 ], [ -88.176842774532972, 14.686617454623935 ], [ -88.176962562941455, 14.686512097758083 ], [ -88.177019592177174, 14.68645323155703 ], [ -88.177125937044309, 14.686349321065961 ], [ -88.177250688080207, 14.686245317186392 ], [ -88.177409290677659, 14.686117021595585 ], [ -88.177577789385793, 14.685985919140821 ], [ -88.177692717495745, 14.68589850427489 ], [ -88.177748312063073, 14.685836199487214 ], [ -88.17777919540363, 14.685786424611374 ], [ -88.177782668646017, 14.685774002442622 ], [ -88.1777824841555, 14.685739546304058 ], [ -88.177768096757305, 14.685696892526883 ], [ -88.17772957697413, 14.68564264577612 ], [ -88.177672529248326, 14.685565751341747 ], [ -88.177591972277966, 14.685461410484999 ], [ -88.177537701037792, 14.685374164802001 ], [ -88.177421474740555, 14.685219008323513 ], [ -88.177207008526409, 14.684962356995662 ], [ -88.177027592662512, 14.684773063613516 ], [ -88.176931436066837, 14.684663977577118 ], [ -88.176891419715759, 14.684594577124235 ], [ -88.17687062435931, 14.684545064337074 ], [ -88.176848870399724, 14.684448694766369 ], [ -88.176845861853394, 14.684283315991461 ], [ -88.176849866107929, 14.684237812335956 ], [ -88.176856119483347, 14.68421572809979 ], [ -88.176891069754092, 14.684132164774432 ], [ -88.176961838539384, 14.683961932572156 ] ] ] ] } }
]
}
