{
"type": "FeatureCollection",
"name": "PA11SD",
"crs": { "type": "name", "properties": { "name": "urn:ogc:def:crs:OGC:1.3:CRS84" } },
"features": [
{ "type": "Feature", "properties": { "id": 13, "Prop_orig": "Santos Dominguez", "Comunidad": "La Tejera", "Infr_asoci": "Embalse lado derecho", "Area (m2)": 28694.92 }, "geometry": { "type": "MultiPolygon", "coordinates": [ [ [ [ -88.187952507014941, 14.665180300786465 ], [ -88.187913715163518, 14.665250331943943 ], [ -88.187879558148239, 14.665304718892413 ], [ -88.187808896909345, 14.665415801907075 ], [ -88.187758438529727, 14.665510242293458 ], [ -88.187738848705862, 14.665553069109359 ], [ -88.187709005670925, 14.665619838521129 ], [ -88.187660943910572, 14.665721158048942 ], [ -88.187615693754182, 14.665818787786815 ], [ -88.187614334992432, 14.665829361550326 ], [ -88.187426042334664, 14.66618040696625 ], [ -88.187312089676084, 14.666402432939012 ], [ -88.187275049939387, 14.66653493713469 ], [ -88.187234284393327, 14.666676648898905 ], [ -88.187165837956215, 14.666936115370133 ], [ -88.187167874175643, 14.666963670589492 ], [ -88.187126300435168, 14.667305696642954 ], [ -88.187122822264001, 14.667360845649696 ], [ -88.187150507332092, 14.667594093143542 ], [ -88.187183261131395, 14.667717052258027 ], [ -88.18724100028895, 14.667922580576215 ], [ -88.187451322993951, 14.668068522617611 ], [ -88.187411751493627, 14.668081588765828 ], [ -88.18714651547235, 14.668079268424478 ], [ -88.187120477006331, 14.668151531471661 ], [ -88.186787545948391, 14.668285546918137 ], [ -88.186769944885739, 14.668347200024188 ], [ -88.186639630086191, 14.668160419252155 ], [ -88.186212515743435, 14.667017707401596 ], [ -88.186303951642387, 14.666820605879543 ], [ -88.186387965469493, 14.666647432427858 ], [ -88.186477553026023, 14.666457691122234 ], [ -88.186559659152664, 14.666280851944158 ], [ -88.186621298063955, 14.666159248493923 ], [ -88.186675416039819, 14.666043196555961 ], [ -88.186823173475958, 14.665788838346447 ], [ -88.187013969977798, 14.665464427348279 ], [ -88.187087023380386, 14.665359304881456 ], [ -88.1872331596945, 14.665154572864852 ], [ -88.187952507014941, 14.665180300786465 ] ] ] ] } }
]
}
