{
"type": "FeatureCollection",
"name": "PA11AM",
"crs": { "type": "name", "properties": { "name": "urn:ogc:def:crs:OGC:1.3:CRS84" } },
"features": [
{ "type": "Feature", "properties": { "id": 4, "Prop_orig": "Aquilino Madrid", "Comunidad": "El Barreal", "Infr_asoci": "Tanque de Oscilación", "Area (m2)": 7947.98 }, "geometry": { "type": "MultiPolygon", "coordinates": [ [ [ [ -88.174410494472923, 14.688053770513203 ], [ -88.174416107648497, 14.687933831387147 ], [ -88.174449017257913, 14.687909774609736 ], [ -88.174454602268369, 14.687895044651965 ], [ -88.174470088349153, 14.687436457081334 ], [ -88.174479492016928, 14.687076217883803 ], [ -88.174482718162125, 14.686973289667989 ], [ -88.174488057831411, 14.686912618142188 ], [ -88.174478010296028, 14.686798730812292 ], [ -88.174467766526789, 14.686648090224597 ], [ -88.174461504490651, 14.686536021449328 ], [ -88.174459381169413, 14.686491927093565 ], [ -88.174944503451925, 14.686480283534884 ], [ -88.174945337841748, 14.686636484845401 ], [ -88.174942376950952, 14.686789029940192 ], [ -88.174946594353258, 14.686871705638367 ], [ -88.17495477393912, 14.686989277809714 ], [ -88.174953200244374, 14.687048092562328 ], [ -88.174963218594996, 14.68715646686306 ], [ -88.174972854094534, 14.687193172329907 ], [ -88.174977061710777, 14.687274010360962 ], [ -88.174986834660544, 14.687336443098911 ], [ -88.17498693283305, 14.687354819722161 ], [ -88.175015573598841, 14.687503529409973 ], [ -88.175020437382585, 14.687530496182891 ], [ -88.17498352194923, 14.687533554480966 ], [ -88.174944983311065, 14.687564071813036 ], [ -88.174905716712914, 14.687635022488728 ], [ -88.174855172152874, 14.687715218804311 ], [ -88.174781176827054, 14.687823099485074 ], [ -88.174706311126485, 14.687944767391981 ], [ -88.174671597132075, 14.68798445388898 ], [ -88.17457825704922, 14.688005141089967 ], [ -88.174462341377023, 14.688040644186444 ], [ -88.174410494472923, 14.688053770513203 ] ] ] ] } },
{ "type": "Feature", "properties": { "id": 8, "Prop_orig": "Aquilino Madrid", "Comunidad": "El Barreal", "Infr_asoci": "Tunel de conducción", "Area (m2)": 2666.15 }, "geometry": { "type": "MultiPolygon", "coordinates": [ [ [ [ -88.175510182593726, 14.684224355943604 ], [ -88.175433870207158, 14.684417271396452 ], [ -88.175257719960527, 14.684838884446179 ], [ -88.175202212687665, 14.684983885283266 ], [ -88.175074246253729, 14.685281208727336 ], [ -88.174970498856425, 14.685540162148101 ], [ -88.174890843641649, 14.685736970809769 ], [ -88.17486565620996, 14.685792918797855 ], [ -88.174860449756125, 14.686011058627965 ], [ -88.174859516233823, 14.686482436547319 ], [ -88.174759971181473, 14.686484490918277 ], [ -88.174758112429316, 14.686385005433127 ], [ -88.174764215882675, 14.68578800517707 ], [ -88.174901513703361, 14.685448252398864 ], [ -88.175033595523303, 14.685126099084565 ], [ -88.175081840848492, 14.685013180146152 ], [ -88.175124807025981, 14.68490597334511 ], [ -88.175159393975704, 14.684820516930587 ], [ -88.175236462971299, 14.68463664270811 ], [ -88.175318238569034, 14.68443930636764 ], [ -88.175360742626538, 14.684345023287374 ], [ -88.175422974973117, 14.684199988374386 ], [ -88.175510182593726, 14.684224355943604 ] ] ] ] } }
]
}
