{
"type": "FeatureCollection",
"name": "PA11JM",
"crs": { "type": "name", "properties": { "name": "urn:ogc:def:crs:OGC:1.3:CRS84" } },
"features": [
{ "type": "Feature", "properties": { "id": 3, "Prop_orig": "Juan Madrid", "Comunidad": "El Barreal", "Infr_asoci": "Casa de Máquinas", "Area (m2)": 22332.7 }, "geometry": { "type": "MultiPolygon", "coordinates": [ [ [ [ -88.174932444331873, 14.68923668282005 ], [ -88.174911609259183, 14.689223924312763 ], [ -88.174843558315217, 14.689207729393141 ], [ -88.174771834756783, 14.689210849017199 ], [ -88.17473222427202, 14.689217481502965 ], [ -88.174698218436831, 14.689213059343318 ], [ -88.174600729975879, 14.689208269330338 ], [ -88.174542145291468, 14.689197080119538 ], [ -88.174492963055869, 14.68917895189233 ], [ -88.17449942821969, 14.689152272350791 ], [ -88.174502835876567, 14.689083340905027 ], [ -88.174509016418639, 14.689003369154435 ], [ -88.174517994378931, 14.688916951254836 ], [ -88.174528909253638, 14.688839712113186 ], [ -88.174530497759122, 14.688783653856573 ], [ -88.174541108378222, 14.688649447179609 ], [ -88.174565308577556, 14.688408584428773 ], [ -88.17457880001011, 14.68828355173072 ], [ -88.174567389536989, 14.688267988921321 ], [ -88.174529372630928, 14.688219481932835 ], [ -88.174463849567474, 14.688146305006962 ], [ -88.174438187080185, 14.688113356039556 ], [ -88.174399260655306, 14.688071285620282 ], [ -88.174410494472923, 14.688053770513203 ], [ -88.174462341377023, 14.688040644186444 ], [ -88.17457825704922, 14.688005141089967 ], [ -88.174633874700262, 14.6879910767883 ], [ -88.174671597132075, 14.68798445388898 ], [ -88.174706311126485, 14.687944767391981 ], [ -88.174751231537925, 14.687871950416387 ], [ -88.174781176827054, 14.687823099485074 ], [ -88.174855172152874, 14.687715218804311 ], [ -88.174905716712914, 14.687635022488728 ], [ -88.174944983311065, 14.687564071813036 ], [ -88.17498352194923, 14.687533554480966 ], [ -88.175017488253943, 14.687530625969156 ], [ -88.175101132277732, 14.687638627529358 ], [ -88.175123972862067, 14.687673428420213 ], [ -88.175154600453794, 14.687752294968217 ], [ -88.175189043021518, 14.687838493041902 ], [ -88.175189131395129, 14.687855032000909 ], [ -88.175210015443454, 14.68787697880364 ], [ -88.175314622336458, 14.688021628361932 ], [ -88.175375278709652, 14.68806726400085 ], [ -88.175447370183974, 14.688133056539536 ], [ -88.17548527431147, 14.688160430252642 ], [ -88.175531816154418, 14.688214407029543 ], [ -88.175570791922439, 14.68826566554934 ], [ -88.175586081285402, 14.68830050462922 ], [ -88.175628055841145, 14.688382989043731 ], [ -88.175661422166343, 14.688444383369788 ], [ -88.175689120070345, 14.688504887546951 ], [ -88.175740641995006, 14.68860753839742 ], [ -88.175764529869227, 14.688661629872609 ], [ -88.175773127099973, 14.688680652575712 ], [ -88.175781683804871, 14.688692094924315 ], [ -88.175781249914962, 14.688699218253872 ], [ -88.175772791457391, 14.68870615252119 ], [ -88.175706883907253, 14.688737727485634 ], [ -88.175608012721028, 14.688783252237988 ], [ -88.175520453832178, 14.688825963088973 ], [ -88.175418760615415, 14.688873339770421 ], [ -88.175402713921983, 14.688873421036929 ], [ -88.175387645527437, 14.6888799293384 ], [ -88.175350965111733, 14.688904924201658 ], [ -88.175321804156042, 14.68892390841847 ], [ -88.175271038528024, 14.688962757434446 ], [ -88.175179447878662, 14.689045918237989 ], [ -88.175135319124692, 14.689090246757006 ], [ -88.175097788004152, 14.68913270415257 ], [ -88.175051751729185, 14.689173366892314 ], [ -88.175005218927922, 14.689209437858427 ], [ -88.17496568700065, 14.68923077167983 ], [ -88.174932444331873, 14.68923668282005 ] ] ] ] } }
]
}
