{
"type": "FeatureCollection",
"name": "PA11MI",
"crs": { "type": "name", "properties": { "name": "urn:ogc:def:crs:OGC:1.3:CRS84" } },
"features": [
{ "type": "Feature", "properties": { "id": 16, "Prop_orig": "Municipalidad de Intibúca", "Comunidad": "Initbuca, Intibuca", "Infr_asoci": "Tunel de conducción", "Area (m2)": 20079.43 }, "geometry": { "type": "MultiPolygon", "coordinates": [ [ [ [ -88.185965884617801, 14.669418554012269 ], [ -88.185963406632169, 14.669585539691578 ], [ -88.185888321033545, 14.669642260145173 ], [ -88.185807962489704, 14.669705726606834 ], [ -88.185623979879637, 14.669850351253379 ], [ -88.185554200408177, 14.669906527680583 ], [ -88.185485454895783, 14.669957530258646 ], [ -88.185172497365926, 14.670208251087333 ], [ -88.185045585200271, 14.670302966091542 ], [ -88.184868839652665, 14.670411373399789 ], [ -88.184777901242867, 14.670482129469731 ], [ -88.184582315090836, 14.670641284498361 ], [ -88.184467593909602, 14.670732319076722 ], [ -88.184422638810659, 14.670764593290606 ], [ -88.18431215089096, 14.670853021942712 ], [ -88.18422914243564, 14.670917535132343 ], [ -88.184100153038358, 14.671021046805363 ], [ -88.184013450302771, 14.671089713598329 ], [ -88.183916718533126, 14.671169285435351 ], [ -88.183897194263338, 14.67119160971618 ], [ -88.183871893863767, 14.671225851108678 ], [ -88.183811189027452, 14.671291284232808 ], [ -88.183795920374664, 14.671315137391106 ], [ -88.18374792683916, 14.6713748203239 ], [ -88.183694651931162, 14.671439698712305 ], [ -88.183671461233885, 14.671471345059553 ], [ -88.183652492831413, 14.671498318192901 ], [ -88.183608668735459, 14.671543507898926 ], [ -88.183581806071928, 14.67158344263685 ], [ -88.183512181086101, 14.671668561653972 ], [ -88.183387182304514, 14.671823221374931 ], [ -88.183262180573053, 14.67197736419808 ], [ -88.183212054763089, 14.672035507328992 ], [ -88.183133470597141, 14.672133076415435 ], [ -88.1830960255825, 14.6721797841212 ], [ -88.183068604066634, 14.672214553097026 ], [ -88.183030088863404, 14.672259715675802 ], [ -88.182966770574893, 14.672332914756209 ], [ -88.182859205191804, 14.67247146293842 ], [ -88.182756884979256, 14.672598096691091 ], [ -88.182628188176338, 14.672756392882885 ], [ -88.182535360358699, 14.672871090547307 ], [ -88.182454654713268, 14.672969187093289 ], [ -88.182389256777299, 14.673050666318833 ], [ -88.182297979836093, 14.673157603170901 ], [ -88.18224792011975, 14.673228150330266 ], [ -88.182205176660787, 14.673276952301219 ], [ -88.18217617322, 14.673313796661544 ], [ -88.182140292811638, 14.673355327715669 ], [ -88.182111809167836, 14.673390102000461 ], [ -88.182065396395089, 14.673447709171226 ], [ -88.18194407598294, 14.673595630389782 ], [ -88.181892923700048, 14.673660497627967 ], [ -88.181843858994782, 14.673718635108866 ], [ -88.181839681005826, 14.673731577762839 ], [ -88.181787964449882, 14.673790245580454 ], [ -88.181729957289136, 14.673863934211246 ], [ -88.181679861173947, 14.67392776232519 ], [ -88.181611296577032, 14.674012875464738 ], [ -88.181524786056173, 14.674117720390182 ], [ -88.181424582472886, 14.674243309167712 ], [ -88.181366035834813, 14.674315449897142 ], [ -88.181270029521329, 14.674431713864676 ], [ -88.181196191455612, 14.674523572844627 ], [ -88.181145558574158, 14.674586369878266 ], [ -88.181081227079815, 14.674668877081274 ], [ -88.18104375903188, 14.674711449775245 ], [ -88.18099259514365, 14.674774249480327 ], [ -88.180955185286805, 14.674827675843639 ], [ -88.180845947074161, 14.67495175977173 ], [ -88.180809571274153, 14.675000012297971 ], [ -88.180730443013005, 14.675095516036331 ], [ -88.180677182979267, 14.675163494897971 ], [ -88.180637187668694, 14.675229855762046 ], [ -88.180545917316962, 14.675338342562922 ], [ -88.180458355025635, 14.675445259920863 ], [ -88.180373452811963, 14.675553197445652 ], [ -88.180351851224088, 14.675584318582633 ], [ -88.180286396337195, 14.675655460472964 ], [ -88.18025213568616, 14.675702151609636 ], [ -88.180224721612916, 14.675738470831849 ], [ -88.180180954178098, 14.675794513674035 ], [ -88.180127146262578, 14.67585939407584 ], [ -88.180067536935937, 14.675931539926721 ], [ -88.180010560029686, 14.675999537542152 ], [ -88.17993195091816, 14.676092970987412 ], [ -88.179882937808117, 14.676160928121316 ], [ -88.179805937984611, 14.676257454492921 ], [ -88.17972626684579, 14.67635089327341 ], [ -88.17962712311062, 14.676476476010837 ], [ -88.179545361350165, 14.676576127630572 ], [ -88.17947311742148, 14.676668494906822 ], [ -88.17936973152824, 14.676795132805449 ], [ -88.179183010034834, 14.677025048160861 ], [ -88.179105489760815, 14.677123644402908 ], [ -88.179019493951458, 14.677225901641249 ], [ -88.178938262575457, 14.677325550387005 ], [ -88.178805359991514, 14.677492652686395 ], [ -88.178678756394191, 14.677646284690262 ], [ -88.178614425884632, 14.677729308166445 ], [ -88.178480405612078, 14.677886078853341 ], [ -88.17839815063887, 14.677992968621286 ], [ -88.178223027382089, 14.678207835639334 ], [ -88.178058433880352, 14.678406109728817 ], [ -88.177933952979586, 14.678559730619947 ], [ -88.177759874102676, 14.678771490905476 ], [ -88.177725092584396, 14.678820251795186 ], [ -88.177673785867711, 14.678955928360077 ], [ -88.177584644649315, 14.679165190379431 ], [ -88.177484010785861, 14.679409656882255 ], [ -88.177442061513162, 14.679508072299511 ], [ -88.177416985952505, 14.679584694189503 ], [ -88.177354059178057, 14.679731800457587 ], [ -88.177334215488145, 14.679793923835495 ], [ -88.177318464419628, 14.679827082502582 ], [ -88.177224024273301, 14.680038438706642 ], [ -88.177045900427487, 14.680486939327457 ], [ -88.176947389204926, 14.680731394894888 ], [ -88.176776526085689, 14.681147813457866 ], [ -88.176562705753582, 14.681672989459322 ], [ -88.1763708468564, 14.682134997553717 ], [ -88.176302791728673, 14.68231624211665 ], [ -88.176187449124541, 14.682590760387448 ], [ -88.176065806780841, 14.682878748794415 ], [ -88.17595264265411, 14.68316359307229 ], [ -88.175820585273328, 14.683489881515927 ], [ -88.175675856677231, 14.683829672339373 ], [ -88.175644425346718, 14.683909427411747 ], [ -88.175598326392503, 14.684026470424616 ], [ -88.175510182593726, 14.684224355943604 ], [ -88.175422974973117, 14.684199988374386 ], [ -88.175527783202782, 14.68394102943183 ], [ -88.175712278281097, 14.683491463719529 ], [ -88.175850668470716, 14.683157907262496 ], [ -88.176127392433656, 14.682480457315593 ], [ -88.176295116225845, 14.682072324727972 ], [ -88.176450196388657, 14.681682862943243 ], [ -88.176634676936601, 14.681231229322872 ], [ -88.176760532100971, 14.680937017065993 ], [ -88.176831755539965, 14.680752655208103 ], [ -88.176894638685127, 14.680597279567014 ], [ -88.177005770744771, 14.680330018365121 ], [ -88.17713568445663, 14.680000639142444 ], [ -88.177215369105383, 14.679810032028035 ], [ -88.177351686634339, 14.679486822528453 ], [ -88.177445916296847, 14.67923618626469 ], [ -88.177571791533893, 14.678946108423393 ], [ -88.177651464420094, 14.678753433829213 ], [ -88.177786508940272, 14.678589422370361 ], [ -88.177946871976218, 14.678394271045676 ], [ -88.178074527300225, 14.678238566624781 ], [ -88.178159962570533, 14.678130627110527 ], [ -88.178213785438942, 14.678068331304143 ], [ -88.178274980423524, 14.677994627246084 ], [ -88.178358302854249, 14.67788876581446 ], [ -88.178451143193115, 14.677775620075069 ], [ -88.178551344489009, 14.677648998687086 ], [ -88.178607340666431, 14.677595995188632 ], [ -88.178610432138512, 14.677578406385328 ], [ -88.178667390500209, 14.677506791163879 ], [ -88.178734934180738, 14.677428919933428 ], [ -88.178830920953814, 14.677308522108026 ], [ -88.178891037061845, 14.677231722249894 ], [ -88.178968054228505, 14.677138297187753 ], [ -88.179023956046208, 14.677067720967765 ], [ -88.179125224094761, 14.67694212766737 ], [ -88.179256035642979, 14.676781238108791 ], [ -88.179380498040558, 14.676624515576327 ], [ -88.179512365533171, 14.676462586821021 ], [ -88.179597832672727, 14.676360848971298 ], [ -88.179730750623477, 14.676196847350967 ], [ -88.179824612634704, 14.676076459969101 ], [ -88.179981786548964, 14.675881323648989 ], [ -88.180059848020704, 14.675784791837073 ], [ -88.180122098080247, 14.675710048292727 ], [ -88.1802855815952, 14.675503508906434 ], [ -88.180360462807457, 14.675408026880593 ], [ -88.180474393905115, 14.675267896762151 ], [ -88.180521866539607, 14.675209767620021 ], [ -88.180542909429306, 14.675173480748693 ], [ -88.180565058506474, 14.675145457951778 ], [ -88.180626251918937, 14.675071753375132 ], [ -88.180700076542308, 14.674977310339107 ], [ -88.180805573450044, 14.674848593786379 ], [ -88.180919476260058, 14.674703295065852 ], [ -88.181024995095029, 14.674578713165616 ], [ -88.181085126359264, 14.674505013886224 ], [ -88.181170564306385, 14.674398107132273 ], [ -88.181228593977693, 14.674328553355574 ], [ -88.181389985071021, 14.67412822622331 ], [ -88.18164102744656, 14.673814768393674 ], [ -88.18176866649803, 14.673656994907189 ], [ -88.1818076936963, 14.6736082119114 ], [ -88.18188260137515, 14.673517897895463 ], [ -88.181968044115891, 14.673412024580445 ], [ -88.182062993349646, 14.673296799461532 ], [ -88.182112599926114, 14.673240726609437 ], [ -88.182120966956944, 14.673216908661633 ], [ -88.182147396286695, 14.673195066228745 ], [ -88.18219800914963, 14.673128651121866 ], [ -88.182362561810891, 14.672924172480943 ], [ -88.182578810856839, 14.672657407896418 ], [ -88.182669539891265, 14.672547372607291 ], [ -88.182817246781141, 14.672369855952006 ], [ -88.183088321098396, 14.672030452017928 ], [ -88.183324626490432, 14.671741876768397 ], [ -88.183598890316389, 14.6714034897965 ], [ -88.18366639153956, 14.671318381579031 ], [ -88.183667397798729, 14.671308039337266 ], [ -88.183753945136431, 14.671210429530221 ], [ -88.183840420152322, 14.671099381814376 ], [ -88.183947208684316, 14.67101407335149 ], [ -88.184320436973309, 14.670715496094774 ], [ -88.184522411004878, 14.670559409839498 ], [ -88.184917869195345, 14.670248313860951 ], [ -88.1852858413734, 14.669960099130114 ], [ -88.185426473408185, 14.669849808354607 ], [ -88.185552289941043, 14.669748896491937 ], [ -88.185784393154634, 14.669568363320309 ], [ -88.185920277125575, 14.669463781916441 ], [ -88.185965884617801, 14.669418554012269 ] ] ] ] } }
]
}
