{
"type": "FeatureCollection",
"name": "PA11SG",
"crs": { "type": "name", "properties": { "name": "urn:ogc:def:crs:OGC:1.3:CRS84" } },
"features": [
{ "type": "Feature", "properties": { "id": 11, "Prop_orig": "Santiago Gomez", "Comunidad": "La Tejera", "Infr_asoci": "Sitio de Presa lado derecho", "Area (m2)": 11521.45 }, "geometry": { "type": "MultiPolygon", "coordinates": [ [ [ [ -88.186274250839233, 14.671206907636957 ], [ -88.186042198191487, 14.671547637561295 ], [ -88.185806119444905, 14.67187756259359 ], [ -88.185787154070113, 14.671905052724577 ], [ -88.185746057306204, 14.671963667128534 ], [ -88.185730802748751, 14.671990104606481 ], [ -88.18572195534, 14.672023228505241 ], [ -88.185684469856454, 14.672160903347827 ], [ -88.185678791223765, 14.672190909941525 ], [ -88.185645964250185, 14.672306336223118 ], [ -88.185612203439476, 14.672445542615616 ], [ -88.185473860237195, 14.672981193917515 ], [ -88.1850167657214, 14.672889458194449 ], [ -88.18502807311684, 14.672820141883294 ], [ -88.185079068029239, 14.672627611526066 ], [ -88.185087379074318, 14.672593456669992 ], [ -88.185176904895357, 14.672260145059198 ], [ -88.185234120319976, 14.672039672749106 ], [ -88.185351742950786, 14.671797184319775 ], [ -88.185452526379535, 14.67158269195666 ], [ -88.185535692702459, 14.671448918903517 ], [ -88.185545093298273, 14.671419927030982 ], [ -88.185571388481009, 14.671373275866282 ], [ -88.185613421790876, 14.671291398220356 ], [ -88.185639549969082, 14.671213736574465 ], [ -88.185700723889269, 14.67113692979766 ], [ -88.185748144157429, 14.671069496594503 ], [ -88.185812548003938, 14.67100094299653 ], [ -88.185864595077405, 14.670954677232796 ], [ -88.186274250839233, 14.671206907636957 ] ] ] ] } }
]
}
