{
"type": "FeatureCollection",
"name": "PA11BD",
"crs": { "type": "name", "properties": { "name": "urn:ogc:def:crs:OGC:1.3:CRS84" } },
"features": [
{ "type": "Feature", "properties": { "id": 12, "Prop_orig": "Benigno Dominguez", "Comunidad": "La Tejera", "Infr_asoci": "Sitio de Presa lado derecho", "Area (m2)": 24262.56 }, "geometry": { "type": "MultiPolygon", "coordinates": [ [ [ [ -88.186274250839233, 14.671206907636957 ], [ -88.185746768435891, 14.670882488085878 ], [ -88.185811737087178, 14.670765462053524 ], [ -88.185822502204658, 14.670748867739595 ], [ -88.185842703264328, 14.670731765841159 ], [ -88.185853517859471, 14.670724359814676 ], [ -88.185853478274211, 14.670717009183765 ], [ -88.185909357271925, 14.670664808734191 ], [ -88.18597228288624, 14.670606599754578 ], [ -88.186062379420918, 14.670511038478224 ], [ -88.186114962298646, 14.670460233091351 ], [ -88.186114930129136, 14.670454260704172 ], [ -88.186086038353736, 14.670347361686074 ], [ -88.186045965835248, 14.670179875361237 ], [ -88.186028501653482, 14.670091754508357 ], [ -88.185995723285615, 14.669964201089382 ], [ -88.185972598593395, 14.66987656854629 ], [ -88.185960431969548, 14.669808176008669 ], [ -88.185965884617801, 14.669418554012269 ], [ -88.186070348559483, 14.669361970731874 ], [ -88.18616446984548, 14.66931279103564 ], [ -88.186183133748855, 14.669273185036905 ], [ -88.186204601931635, 14.669228511024391 ], [ -88.186239169964324, 14.669162636493668 ], [ -88.186257828893929, 14.669122111661538 ], [ -88.186288685900138, 14.669068201172848 ], [ -88.186323644135484, 14.668987163547413 ], [ -88.186341443345427, 14.668962263618896 ], [ -88.186348413209416, 14.668942013246042 ], [ -88.186404034273465, 14.668842033613245 ], [ -88.186410952155612, 14.668812135536337 ], [ -88.186467084678469, 14.668719504113154 ], [ -88.186489921479705, 14.668666093978549 ], [ -88.186494578766911, 14.668654584523601 ], [ -88.186515224280726, 14.668632426614064 ], [ -88.186632285871596, 14.668549132024109 ], [ -88.186696226338626, 14.668504241095203 ], [ -88.18674323226962, 14.668469544025729 ], [ -88.186769944885739, 14.668347200024188 ], [ -88.186787545948391, 14.668285546918137 ], [ -88.187120477006331, 14.668151531471661 ], [ -88.18714651547235, 14.668079268424478 ], [ -88.187411751493627, 14.668081588765828 ], [ -88.18770577926027, 14.668084680511287 ], [ -88.187715281973155, 14.668096577043904 ], [ -88.18773094435673, 14.668113036363559 ], [ -88.187749477873808, 14.668136831837767 ], [ -88.187750036504113, 14.668152908923382 ], [ -88.187723061836948, 14.66822655509003 ], [ -88.187713339909365, 14.668261521220511 ], [ -88.187689194234281, 14.668334693498791 ], [ -88.187665965124097, 14.668402807395257 ], [ -88.187585592082357, 14.668463403067134 ], [ -88.187242174490038, 14.66875321849583 ], [ -88.187225336571572, 14.66878132956286 ], [ -88.18721665001263, 14.668833289185018 ], [ -88.187171554045889, 14.668872111434444 ], [ -88.187108120171317, 14.668923431882854 ], [ -88.187043749861672, 14.66897613538015 ], [ -88.186993954473664, 14.669018657020088 ], [ -88.186988057987023, 14.669019146566272 ], [ -88.186975448699869, 14.669043790316236 ], [ -88.186954692284075, 14.669089149893335 ], [ -88.186942764866785, 14.669108966175932 ], [ -88.186935525669426, 14.66912301567462 ], [ -88.186934614023585, 14.66912899288161 ], [ -88.186925719400534, 14.669142361695174 ], [ -88.186915418928521, 14.669157575396994 ], [ -88.18690771400064, 14.669172775841224 ], [ -88.18689552957045, 14.669188688305418 ], [ -88.18689014337383, 14.669196296361017 ], [ -88.186877342675089, 14.669229210769805 ], [ -88.186863100222908, 14.669257308558709 ], [ -88.186855848636569, 14.669269060983883 ], [ -88.186838752390571, 14.669293038504591 ], [ -88.186828223374775, 14.669309631651442 ], [ -88.186820742015755, 14.669322533816681 ], [ -88.186809769551601, 14.669344412637869 ], [ -88.186791287251253, 14.669373910358393 ], [ -88.186778441965103, 14.6693985553052 ], [ -88.186766977769452, 14.669416761220367 ], [ -88.186760684863501, 14.669431265308855 ], [ -88.186738931307971, 14.669466752283416 ], [ -88.186725851289935, 14.669491628140191 ], [ -88.18671181753021, 14.669514671159186 ], [ -88.186708311565482, 14.669520891328165 ], [ -88.186701494746529, 14.669525750124425 ], [ -88.186542266114287, 14.669578478487276 ], [ -88.186545649622587, 14.669680913430952 ], [ -88.186556152405231, 14.669878413406835 ], [ -88.186563462290195, 14.670008853343084 ], [ -88.1865793013977, 14.670145681699765 ], [ -88.186599188201626, 14.670333026348256 ], [ -88.186625904745341, 14.670561684536839 ], [ -88.186637948787109, 14.670694856843451 ], [ -88.186640129371611, 14.670705412526903 ], [ -88.186642076471713, 14.670716428829669 ], [ -88.186639542800734, 14.670727927442783 ], [ -88.186274250839233, 14.671206907636957 ] ] ] ] } },
{ "type": "Feature", "properties": { "id": 14, "Prop_orig": "Benigno Domínguez", "Comunidad": "La Tejera", "Infr_asoci": "Embalse lado derecho", "Area (m2)": 4281.19 }, "geometry": { "type": "MultiPolygon", "coordinates": [ [ [ [ -88.188237554046282, 14.664831517003785 ], [ -88.188229168737024, 14.664851774654698 ], [ -88.188217922243069, 14.664866533808448 ], [ -88.188178470298098, 14.664901651929235 ], [ -88.188126862709211, 14.66495796581853 ], [ -88.188075235272535, 14.665010604383808 ], [ -88.188076243509457, 14.665022544331007 ], [ -88.188064102733975, 14.66504649658847 ], [ -88.188024695329474, 14.665089884144107 ], [ -88.188012465351761, 14.665097297484929 ], [ -88.187952507014941, 14.665180300786465 ], [ -88.1872331596945, 14.665154572864852 ], [ -88.187525550403677, 14.664767160497153 ], [ -88.18769235078959, 14.664543945585519 ], [ -88.188237554046282, 14.664831517003785 ] ] ] ] } }
]
}
