{
"type": "FeatureCollection",
"name": "imp_COPINH_TG",
"crs": { "type": "name", "properties": { "name": "urn:ogc:def:crs:OGC:1.3:CRS84" } },
"features": [
{ "type": "Feature", "properties": { "Latitud Origen": 13.97141389, "Longitud Origen": -88.2750806, "Usuario Origen": "Thomas Gómez (Miembro del COPINH)/Thomas Gómez Membreño/Tomasito" }, "geometry": { "type": "Point", "coordinates": [ -88.2750806, 13.97141389 ] } },
{ "type": "Feature", "properties": { "Latitud Origen": 13.99102778, "Longitud Origen": -88.37175, "Usuario Origen": "Thomas Gómez (Miembro del COPINH)/Thomas Gómez Membreño/Tomasito" }, "geometry": { "type": "Point", "coordinates": [ -88.37175, 13.99102778 ] } },
{ "type": "Feature", "properties": { "Latitud Origen": 14.06006111, "Longitud Origen": -87.2195472, "Usuario Origen": "Thomas Gómez (Miembro del COPINH)/Thomas Gómez Membreño/Tomasito" }, "geometry": { "type": "Point", "coordinates": [ -87.2195472, 14.06006111 ] } },
{ "type": "Feature", "properties": { "Latitud Origen": 14.07236817, "Longitud Origen": -88.4862137, "Usuario Origen": "Thomas Gómez (Miembro del COPINH)/Thomas Gómez Membreño/Tomasito" }, "geometry": { "type": "Point", "coordinates": [ -88.4862137, 14.07236817 ] } },
{ "type": "Feature", "properties": { "Latitud Origen": 14.08084444, "Longitud Origen": -87.2321556, "Usuario Origen": "Thomas Gómez (Miembro del COPINH)/Thomas Gómez Membreño/Tomasito" }, "geometry": { "type": "Point", "coordinates": [ -87.2321556, 14.08084444 ] } },
{ "type": "Feature", "properties": { "Latitud Origen": 14.08357778, "Longitud Origen": -87.18925, "Usuario Origen": "Thomas Gómez (Miembro del COPINH)/Thomas Gómez Membreño/Tomasito" }, "geometry": { "type": "Point", "coordinates": [ -87.18925, 14.08357778 ] } },
{ "type": "Feature", "properties": { "Latitud Origen": 14.084691, "Longitud Origen": -87.210356, "Usuario Origen": "Thomas Gómez (Miembro del COPINH)/Thomas Gómez Membreño/Tomasito" }, "geometry": { "type": "Point", "coordinates": [ -87.210356, 14.084691 ] } },
{ "type": "Feature", "properties": { "Latitud Origen": 14.08591534, "Longitud Origen": -87.1850289, "Usuario Origen": "Thomas Gómez (Miembro del COPINH)/Thomas Gómez Membreño/Tomasito" }, "geometry": { "type": "Point", "coordinates": [ -87.1850289, 14.08591534 ] } },
{ "type": "Feature", "properties": { "Latitud Origen": 14.08652318, "Longitud Origen": -87.1939501, "Usuario Origen": "Thomas Gómez (Miembro del COPINH)/Thomas Gómez Membreño/Tomasito" }, "geometry": { "type": "Point", "coordinates": [ -87.1939501, 14.08652318 ] } },
{ "type": "Feature", "properties": { "Latitud Origen": 14.0866075, "Longitud Origen": -87.1878092, "Usuario Origen": "Thomas Gómez (Miembro del COPINH)/Thomas Gómez Membreño/Tomasito" }, "geometry": { "type": "Point", "coordinates": [ -87.1878092, 14.0866075 ] } },
{ "type": "Feature", "properties": { "Latitud Origen": 14.08844167, "Longitud Origen": -87.2020556, "Usuario Origen": "Thomas Gómez (Miembro del COPINH)/Thomas Gómez Membreño/Tomasito" }, "geometry": { "type": "Point", "coordinates": [ -87.2020556, 14.08844167 ] } },
{ "type": "Feature", "properties": { "Latitud Origen": 14.08982778, "Longitud Origen": -87.2076056, "Usuario Origen": "Thomas Gómez (Miembro del COPINH)/Thomas Gómez Membreño/Tomasito" }, "geometry": { "type": "Point", "coordinates": [ -87.2076056, 14.08982778 ] } },
{ "type": "Feature", "properties": { "Latitud Origen": 14.09091255, "Longitud Origen": -87.2282765, "Usuario Origen": "Thomas Gómez (Miembro del COPINH)/Thomas Gómez Membreño/Tomasito" }, "geometry": { "type": "Point", "coordinates": [ -87.2282765, 14.09091255 ] } },
{ "type": "Feature", "properties": { "Latitud Origen": 14.09266667, "Longitud Origen": -87.1955278, "Usuario Origen": "Thomas Gómez (Miembro del COPINH)/Thomas Gómez Membreño/Tomasito" }, "geometry": { "type": "Point", "coordinates": [ -87.1955278, 14.09266667 ] } },
{ "type": "Feature", "properties": { "Latitud Origen": 14.09308039, "Longitud Origen": -87.1916397, "Usuario Origen": "Thomas Gómez (Miembro del COPINH)/Thomas Gómez Membreño/Tomasito" }, "geometry": { "type": "Point", "coordinates": [ -87.1916397, 14.09308039 ] } },
{ "type": "Feature", "properties": { "Latitud Origen": 14.09608917, "Longitud Origen": -87.1943565, "Usuario Origen": "Thomas Gómez (Miembro del COPINH)/Thomas Gómez Membreño/Tomasito" }, "geometry": { "type": "Point", "coordinates": [ -87.1943565, 14.09608917 ] } },
{ "type": "Feature", "properties": { "Latitud Origen": 14.09660935, "Longitud Origen": -87.207985, "Usuario Origen": "Thomas Gómez (Miembro del COPINH)/Thomas Gómez Membreño/Tomasito" }, "geometry": { "type": "Point", "coordinates": [ -87.207985, 14.09660935 ] } },
{ "type": "Feature", "properties": { "Latitud Origen": 14.099, "Longitud Origen": -87.2107778, "Usuario Origen": "Thomas Gómez (Miembro del COPINH)/Thomas Gómez Membreño/Tomasito" }, "geometry": { "type": "Point", "coordinates": [ -87.2107778, 14.099 ] } },
{ "type": "Feature", "properties": { "Latitud Origen": 14.10055556, "Longitud Origen": -87.1948889, "Usuario Origen": "Thomas Gómez (Miembro del COPINH)/Thomas Gómez Membreño/Tomasito" }, "geometry": { "type": "Point", "coordinates": [ -87.1948889, 14.10055556 ] } },
{ "type": "Feature", "properties": { "Latitud Origen": 14.10109097, "Longitud Origen": -87.1782883, "Usuario Origen": "Thomas Gómez (Miembro del COPINH)/Thomas Gómez Membreño/Tomasito" }, "geometry": { "type": "Point", "coordinates": [ -87.1782883, 14.10109097 ] } },
{ "type": "Feature", "properties": { "Latitud Origen": 14.103172, "Longitud Origen": -87.197425, "Usuario Origen": "Thomas Gómez (Miembro del COPINH)/Thomas Gómez Membreño/Tomasito" }, "geometry": { "type": "Point", "coordinates": [ -87.197425, 14.103172 ] } },
{ "type": "Feature", "properties": { "Latitud Origen": 14.103536, "Longitud Origen": -87.204989, "Usuario Origen": "Thomas Gómez (Miembro del COPINH)/Thomas Gómez Membreño/Tomasito" }, "geometry": { "type": "Point", "coordinates": [ -87.204989, 14.103536 ] } },
{ "type": "Feature", "properties": { "Latitud Origen": 14.10427778, "Longitud Origen": -87.1935833, "Usuario Origen": "Thomas Gómez (Miembro del COPINH)/Thomas Gómez Membreño/Tomasito" }, "geometry": { "type": "Point", "coordinates": [ -87.1935833, 14.10427778 ] } },
{ "type": "Feature", "properties": { "Latitud Origen": 14.10480556, "Longitud Origen": -87.2069444, "Usuario Origen": "Thomas Gómez (Miembro del COPINH)/Thomas Gómez Membreño/Tomasito" }, "geometry": { "type": "Point", "coordinates": [ -87.2069444, 14.10480556 ] } },
{ "type": "Feature", "properties": { "Latitud Origen": 14.10491668, "Longitud Origen": -87.2021367, "Usuario Origen": "Thomas Gómez (Miembro del COPINH)/Thomas Gómez Membreño/Tomasito" }, "geometry": { "type": "Point", "coordinates": [ -87.2021367, 14.10491668 ] } },
{ "type": "Feature", "properties": { "Latitud Origen": 14.1053967, "Longitud Origen": -87.1878246, "Usuario Origen": "Thomas Gómez (Miembro del COPINH)/Thomas Gómez Membreño/Tomasito" }, "geometry": { "type": "Point", "coordinates": [ -87.1878246, 14.1053967 ] } },
{ "type": "Feature", "properties": { "Latitud Origen": 14.10752778, "Longitud Origen": -87.2019722, "Usuario Origen": "Thomas Gómez (Miembro del COPINH)/Thomas Gómez Membreño/Tomasito" }, "geometry": { "type": "Point", "coordinates": [ -87.2019722, 14.10752778 ] } },
{ "type": "Feature", "properties": { "Latitud Origen": 14.10971944, "Longitud Origen": -87.1948583, "Usuario Origen": "Thomas Gómez (Miembro del COPINH)/Thomas Gómez Membreño/Tomasito" }, "geometry": { "type": "Point", "coordinates": [ -87.1948583, 14.10971944 ] } },
{ "type": "Feature", "properties": { "Latitud Origen": 14.10997222, "Longitud Origen": -87.2059444, "Usuario Origen": "Thomas Gómez (Miembro del COPINH)/Thomas Gómez Membreño/Tomasito" }, "geometry": { "type": "Point", "coordinates": [ -87.2059444, 14.10997222 ] } },
{ "type": "Feature", "properties": { "Latitud Origen": 14.13805462, "Longitud Origen": -87.2658306, "Usuario Origen": "Thomas Gómez (Miembro del COPINH)/Thomas Gómez Membreño/Tomasito" }, "geometry": { "type": "Point", "coordinates": [ -87.2658306, 14.13805462 ] } },
{ "type": "Feature", "properties": { "Latitud Origen": 14.16888889, "Longitud Origen": -87.3088611, "Usuario Origen": "Thomas Gómez (Miembro del COPINH)/Thomas Gómez Membreño/Tomasito" }, "geometry": { "type": "Point", "coordinates": [ -87.3088611, 14.16888889 ] } },
{ "type": "Feature", "properties": { "Latitud Origen": 14.22055556, "Longitud Origen": -87.3808889, "Usuario Origen": "Thomas Gómez (Miembro del COPINH)/Thomas Gómez Membreño/Tomasito" }, "geometry": { "type": "Point", "coordinates": [ -87.3808889, 14.22055556 ] } },
{ "type": "Feature", "properties": { "Latitud Origen": 14.24546944, "Longitud Origen": -87.3776667, "Usuario Origen": "Thomas Gómez (Miembro del COPINH)/Thomas Gómez Membreño/Tomasito" }, "geometry": { "type": "Point", "coordinates": [ -87.3776667, 14.24546944 ] } },
{ "type": "Feature", "properties": { "Latitud Origen": 14.27491667, "Longitud Origen": -87.4034111, "Usuario Origen": "Thomas Gómez (Miembro del COPINH)/Thomas Gómez Membreño/Tomasito" }, "geometry": { "type": "Point", "coordinates": [ -87.4034111, 14.27491667 ] } },
{ "type": "Feature", "properties": { "Latitud Origen": 14.28363889, "Longitud Origen": -87.4973889, "Usuario Origen": "Thomas Gómez (Miembro del COPINH)/Thomas Gómez Membreño/Tomasito" }, "geometry": { "type": "Point", "coordinates": [ -87.4973889, 14.28363889 ] } },
{ "type": "Feature", "properties": { "Latitud Origen": 14.29133333, "Longitud Origen": -87.4904444, "Usuario Origen": "Thomas Gómez (Miembro del COPINH)/Thomas Gómez Membreño/Tomasito" }, "geometry": { "type": "Point", "coordinates": [ -87.4904444, 14.29133333 ] } },
{ "type": "Feature", "properties": { "Latitud Origen": 14.33036465, "Longitud Origen": -88.2763323, "Usuario Origen": "Thomas Gómez (Miembro del COPINH)/Thomas Gómez Membreño/Tomasito" }, "geometry": { "type": "Point", "coordinates": [ -88.2763323, 14.33036465 ] } },
{ "type": "Feature", "properties": { "Latitud Origen": 14.330963, "Longitud Origen": -87.594207, "Usuario Origen": "Thomas Gómez (Miembro del COPINH)/Thomas Gómez Membreño/Tomasito" }, "geometry": { "type": "Point", "coordinates": [ -87.594207, 14.330963 ] } },
{ "type": "Feature", "properties": { "Latitud Origen": 14.39002778, "Longitud Origen": -87.6156111, "Usuario Origen": "Thomas Gómez (Miembro del COPINH)/Thomas Gómez Membreño/Tomasito" }, "geometry": { "type": "Point", "coordinates": [ -87.6156111, 14.39002778 ] } },
{ "type": "Feature", "properties": { "Latitud Origen": 14.44699722, "Longitud Origen": -87.6334694, "Usuario Origen": "Thomas Gómez (Miembro del COPINH)/Thomas Gómez Membreño/Tomasito" }, "geometry": { "type": "Point", "coordinates": [ -87.6334694, 14.44699722 ] } },
{ "type": "Feature", "properties": { "Latitud Origen": 14.55052688, "Longitud Origen": -87.8249729, "Usuario Origen": "Thomas Gómez (Miembro del COPINH)/Thomas Gómez Membreño/Tomasito" }, "geometry": { "type": "Point", "coordinates": [ -87.8249729, 14.55052688 ] } },
{ "type": "Feature", "properties": { "Latitud Origen": 14.55291667, "Longitud Origen": -88.2971389, "Usuario Origen": "Thomas Gómez (Miembro del COPINH)/Thomas Gómez Membreño/Tomasito" }, "geometry": { "type": "Point", "coordinates": [ -88.2971389, 14.55291667 ] } },
{ "type": "Feature", "properties": { "Latitud Origen": 14.56794444, "Longitud Origen": -87.8972194, "Usuario Origen": "Thomas Gómez (Miembro del COPINH)/Thomas Gómez Membreño/Tomasito" }, "geometry": { "type": "Point", "coordinates": [ -87.8972194, 14.56794444 ] } },
{ "type": "Feature", "properties": { "Latitud Origen": 14.57077778, "Longitud Origen": -87.95125, "Usuario Origen": "Thomas Gómez (Miembro del COPINH)/Thomas Gómez Membreño/Tomasito" }, "geometry": { "type": "Point", "coordinates": [ -87.95125, 14.57077778 ] } },
{ "type": "Feature", "properties": { "Latitud Origen": 14.60086111, "Longitud Origen": -87.8683611, "Usuario Origen": "Thomas Gómez (Miembro del COPINH)/Thomas Gómez Membreño/Tomasito" }, "geometry": { "type": "Point", "coordinates": [ -87.8683611, 14.60086111 ] } },
{ "type": "Feature", "properties": { "Latitud Origen": 14.64725, "Longitud Origen": -87.9065556, "Usuario Origen": "Thomas Gómez (Miembro del COPINH)/Thomas Gómez Membreño/Tomasito" }, "geometry": { "type": "Point", "coordinates": [ -87.9065556, 14.64725 ] } },
{ "type": "Feature", "properties": { "Latitud Origen": 14.65544578, "Longitud Origen": -88.0039698, "Usuario Origen": "Thomas Gómez (Miembro del COPINH)/Thomas Gómez Membreño/Tomasito" }, "geometry": { "type": "Point", "coordinates": [ -88.0039698, 14.65544578 ] } },
{ "type": "Feature", "properties": { "Latitud Origen": 14.65602778, "Longitud Origen": -87.9404722, "Usuario Origen": "Thomas Gómez (Miembro del COPINH)/Thomas Gómez Membreño/Tomasito" }, "geometry": { "type": "Point", "coordinates": [ -87.9404722, 14.65602778 ] } },
{ "type": "Feature", "properties": { "Latitud Origen": 14.66122222, "Longitud Origen": -87.9473611, "Usuario Origen": "Thomas Gómez (Miembro del COPINH)/Thomas Gómez Membreño/Tomasito" }, "geometry": { "type": "Point", "coordinates": [ -87.9473611, 14.66122222 ] } },
{ "type": "Feature", "properties": { "Latitud Origen": 14.70239735, "Longitud Origen": -87.9665036, "Usuario Origen": "Thomas Gómez (Miembro del COPINH)/Thomas Gómez Membreño/Tomasito" }, "geometry": { "type": "Point", "coordinates": [ -87.9665036, 14.70239735 ] } },
{ "type": "Feature", "properties": { "Latitud Origen": 14.72777849, "Longitud Origen": -87.9008372, "Usuario Origen": "Thomas Gómez (Miembro del COPINH)/Thomas Gómez Membreño/Tomasito" }, "geometry": { "type": "Point", "coordinates": [ -87.9008372, 14.72777849 ] } },
{ "type": "Feature", "properties": { "Latitud Origen": 14.72976413, "Longitud Origen": -87.963921, "Usuario Origen": "Thomas Gómez (Miembro del COPINH)/Thomas Gómez Membreño/Tomasito" }, "geometry": { "type": "Point", "coordinates": [ -87.963921, 14.72976413 ] } },
{ "type": "Feature", "properties": { "Latitud Origen": 14.74613709, "Longitud Origen": -88.1907743, "Usuario Origen": "Thomas Gómez (Miembro del COPINH)/Thomas Gómez Membreño/Tomasito" }, "geometry": { "type": "Point", "coordinates": [ -88.1907743, 14.74613709 ] } },
{ "type": "Feature", "properties": { "Latitud Origen": 14.75311111, "Longitud Origen": -87.95725, "Usuario Origen": "Thomas Gómez (Miembro del COPINH)/Thomas Gómez Membreño/Tomasito" }, "geometry": { "type": "Point", "coordinates": [ -87.95725, 14.75311111 ] } },
{ "type": "Feature", "properties": { "Latitud Origen": 14.75658411, "Longitud Origen": -88.1077262, "Usuario Origen": "Thomas Gómez (Miembro del COPINH)/Thomas Gómez Membreño/Tomasito" }, "geometry": { "type": "Point", "coordinates": [ -88.1077262, 14.75658411 ] } },
{ "type": "Feature", "properties": { "Latitud Origen": 14.76572222, "Longitud Origen": -87.9607222, "Usuario Origen": "Thomas Gómez (Miembro del COPINH)/Thomas Gómez Membreño/Tomasito" }, "geometry": { "type": "Point", "coordinates": [ -87.9607222, 14.76572222 ] } },
{ "type": "Feature", "properties": { "Latitud Origen": 14.80358605, "Longitud Origen": -88.0147208, "Usuario Origen": "Thomas Gómez (Miembro del COPINH)/Thomas Gómez Membreño/Tomasito" }, "geometry": { "type": "Point", "coordinates": [ -88.0147208, 14.80358605 ] } },
{ "type": "Feature", "properties": { "Latitud Origen": 14.80408333, "Longitud Origen": -88.156, "Usuario Origen": "Thomas Gómez (Miembro del COPINH)/Thomas Gómez Membreño/Tomasito" }, "geometry": { "type": "Point", "coordinates": [ -88.156, 14.80408333 ] } },
{ "type": "Feature", "properties": { "Latitud Origen": 14.80838536, "Longitud Origen": -88.2027746, "Usuario Origen": "Thomas Gómez (Miembro del COPINH)/Thomas Gómez Membreño/Tomasito" }, "geometry": { "type": "Point", "coordinates": [ -88.2027746, 14.80838536 ] } },
{ "type": "Feature", "properties": { "Latitud Origen": 14.8310818, "Longitud Origen": -88.3559456, "Usuario Origen": "Thomas Gómez (Miembro del COPINH)/Thomas Gómez Membreño/Tomasito" }, "geometry": { "type": "Point", "coordinates": [ -88.3559456, 14.8310818 ] } },
{ "type": "Feature", "properties": { "Latitud Origen": 14.83799722, "Longitud Origen": -87.9517667, "Usuario Origen": "Thomas Gómez (Miembro del COPINH)/Thomas Gómez Membreño/Tomasito" }, "geometry": { "type": "Point", "coordinates": [ -87.9517667, 14.83799722 ] } },
{ "type": "Feature", "properties": { "Latitud Origen": 14.84682898, "Longitud Origen": -88.2946361, "Usuario Origen": "Thomas Gómez (Miembro del COPINH)/Thomas Gómez Membreño/Tomasito" }, "geometry": { "type": "Point", "coordinates": [ -88.2946361, 14.84682898 ] } },
{ "type": "Feature", "properties": { "Latitud Origen": 14.85663889, "Longitud Origen": -87.9545556, "Usuario Origen": "Thomas Gómez (Miembro del COPINH)/Thomas Gómez Membreño/Tomasito" }, "geometry": { "type": "Point", "coordinates": [ -87.9545556, 14.85663889 ] } },
{ "type": "Feature", "properties": { "Latitud Origen": 14.876, "Longitud Origen": -88.0724722, "Usuario Origen": "Thomas Gómez (Miembro del COPINH)/Thomas Gómez Membreño/Tomasito" }, "geometry": { "type": "Point", "coordinates": [ -88.0724722, 14.876 ] } },
{ "type": "Feature", "properties": { "Latitud Origen": 14.88744444, "Longitud Origen": -87.9397222, "Usuario Origen": "Thomas Gómez (Miembro del COPINH)/Thomas Gómez Membreño/Tomasito" }, "geometry": { "type": "Point", "coordinates": [ -87.9397222, 14.88744444 ] } },
{ "type": "Feature", "properties": { "Latitud Origen": 14.919182, "Longitud Origen": -88.23618, "Usuario Origen": "Thomas Gómez (Miembro del COPINH)/Thomas Gómez Membreño/Tomasito" }, "geometry": { "type": "Point", "coordinates": [ -88.23618, 14.919182 ] } },
{ "type": "Feature", "properties": { "Latitud Origen": 14.92613889, "Longitud Origen": -88.2408333, "Usuario Origen": "Thomas Gómez (Miembro del COPINH)/Thomas Gómez Membreño/Tomasito" }, "geometry": { "type": "Point", "coordinates": [ -88.2408333, 14.92613889 ] } },
{ "type": "Feature", "properties": { "Latitud Origen": 14.95741667, "Longitud Origen": -88.2317222, "Usuario Origen": "Thomas Gómez (Miembro del COPINH)/Thomas Gómez Membreño/Tomasito" }, "geometry": { "type": "Point", "coordinates": [ -88.2317222, 14.95741667 ] } },
{ "type": "Feature", "properties": { "Latitud Origen": 14.98194378, "Longitud Origen": -87.9772212, "Usuario Origen": "Thomas Gómez (Miembro del COPINH)/Thomas Gómez Membreño/Tomasito" }, "geometry": { "type": "Point", "coordinates": [ -87.9772212, 14.98194378 ] } },
{ "type": "Feature", "properties": { "Latitud Origen": 14.99122222, "Longitud Origen": -88.32575, "Usuario Origen": "Thomas Gómez (Miembro del COPINH)/Thomas Gómez Membreño/Tomasito" }, "geometry": { "type": "Point", "coordinates": [ -88.32575, 14.99122222 ] } },
{ "type": "Feature", "properties": { "Latitud Origen": 15.01836111, "Longitud Origen": -88.0, "Usuario Origen": "Thomas Gómez (Miembro del COPINH)/Thomas Gómez Membreño/Tomasito" }, "geometry": { "type": "Point", "coordinates": [ -88.0, 15.01836111 ] } },
{ "type": "Feature", "properties": { "Latitud Origen": 15.04139081, "Longitud Origen": -87.9866372, "Usuario Origen": "Thomas Gómez (Miembro del COPINH)/Thomas Gómez Membreño/Tomasito" }, "geometry": { "type": "Point", "coordinates": [ -87.9866372, 15.04139081 ] } },
{ "type": "Feature", "properties": { "Latitud Origen": 15.13325, "Longitud Origen": -87.909, "Usuario Origen": "Thomas Gómez (Miembro del COPINH)/Thomas Gómez Membreño/Tomasito" }, "geometry": { "type": "Point", "coordinates": [ -87.909, 15.13325 ] } },
{ "type": "Feature", "properties": { "Latitud Origen": 15.16185602, "Longitud Origen": -88.3498883, "Usuario Origen": "Thomas Gómez (Miembro del COPINH)/Thomas Gómez Membreño/Tomasito" }, "geometry": { "type": "Point", "coordinates": [ -88.3498883, 15.16185602 ] } },
{ "type": "Feature", "properties": { "Latitud Origen": 15.16419444, "Longitud Origen": -87.9520278, "Usuario Origen": "Thomas Gómez (Miembro del COPINH)/Thomas Gómez Membreño/Tomasito" }, "geometry": { "type": "Point", "coordinates": [ -87.9520278, 15.16419444 ] } },
{ "type": "Feature", "properties": { "Latitud Origen": 15.42666351, "Longitud Origen": -87.9295832, "Usuario Origen": "Thomas Gómez (Miembro del COPINH)/Thomas Gómez Membreño/Tomasito" }, "geometry": { "type": "Point", "coordinates": [ -87.9295832, 15.42666351 ] } },
{ "type": "Feature", "properties": { "Latitud Origen": 15.45614281, "Longitud Origen": -87.9273377, "Usuario Origen": "Thomas Gómez (Miembro del COPINH)/Thomas Gómez Membreño/Tomasito" }, "geometry": { "type": "Point", "coordinates": [ -87.9273377, 15.45614281 ] } },
{ "type": "Feature", "properties": { "Latitud Origen": 15.77327872, "Longitud Origen": -86.7826379, "Usuario Origen": "Thomas Gómez (Miembro del COPINH)/Thomas Gómez Membreño/Tomasito" }, "geometry": { "type": "Point", "coordinates": [ -86.7826379, 15.77327872 ] } }
]
}
