{
"type": "FeatureCollection",
"name": "imp_EJE_HJHR",
"crs": { "type": "name", "properties": { "name": "urn:ogc:def:crs:OGC:1.3:CRS84" } },
"features": [
{ "type": "Feature", "properties": { "Latitud Origen": 14.047391, "Longitud Origen": -87.242588, "Usuario Origen": "Henry Javier Hernandez Rodriguez/dago/Cuñado T" }, "geometry": { "type": "Point", "coordinates": [ -87.242588, 14.047391 ] } },
{ "type": "Feature", "properties": { "Latitud Origen": 14.051596, "Longitud Origen": -87.233136, "Usuario Origen": "Henry Javier Hernandez Rodriguez/dago/Cuñado T" }, "geometry": { "type": "Point", "coordinates": [ -87.233136, 14.051596 ] } },
{ "type": "Feature", "properties": { "Latitud Origen": 14.054172, "Longitud Origen": -87.252339, "Usuario Origen": "Henry Javier Hernandez Rodriguez/dago/Cuñado T" }, "geometry": { "type": "Point", "coordinates": [ -87.252339, 14.054172 ] } },
{ "type": "Feature", "properties": { "Latitud Origen": 14.061299, "Longitud Origen": -87.221994, "Usuario Origen": "Henry Javier Hernandez Rodriguez/dago/Cuñado T" }, "geometry": { "type": "Point", "coordinates": [ -87.221994, 14.061299 ] } },
{ "type": "Feature", "properties": { "Latitud Origen": 14.06838698, "Longitud Origen": -87.2132199, "Usuario Origen": "Henrry Javier Hernandez Rodriguez" }, "geometry": { "type": "Point", "coordinates": [ -87.2132199, 14.06838698 ] } },
{ "type": "Feature", "properties": { "Latitud Origen": 14.070026, "Longitud Origen": -87.273244, "Usuario Origen": "Henry Javier Hernandez Rodriguez/Luis Alfonso Suares" }, "geometry": { "type": "Point", "coordinates": [ -87.273244, 14.070026 ] } },
{ "type": "Feature", "properties": { "Latitud Origen": 14.070028, "Longitud Origen": -87.27325, "Usuario Origen": "Henry Javier Hernandez Rodriguez/Luis Alfonso Suares" }, "geometry": { "type": "Point", "coordinates": [ -87.27325, 14.070028 ] } },
{ "type": "Feature", "properties": { "Latitud Origen": 14.07122222, "Longitud Origen": -87.2078889, "Usuario Origen": "Henrry Javier Hernandez Rodriguez" }, "geometry": { "type": "Point", "coordinates": [ -87.2078889, 14.07122222 ] } },
{ "type": "Feature", "properties": { "Latitud Origen": 14.07136111, "Longitud Origen": -87.2014167, "Usuario Origen": "Henry Javier Hernandez Rodriguez/dago/Cuñado T" }, "geometry": { "type": "Point", "coordinates": [ -87.2014167, 14.07136111 ] } },
{ "type": "Feature", "properties": { "Latitud Origen": 14.07272828, "Longitud Origen": -87.2195235, "Usuario Origen": "Henrry Javier Hernandez Rodriguez" }, "geometry": { "type": "Point", "coordinates": [ -87.2195235, 14.07272828 ] } },
{ "type": "Feature", "properties": { "Latitud Origen": 14.07313889, "Longitud Origen": -87.2015, "Usuario Origen": "Henry Javier Hernandez Rodriguez/dago/Cuñado T" }, "geometry": { "type": "Point", "coordinates": [ -87.2015, 14.07313889 ] } },
{ "type": "Feature", "properties": { "Latitud Origen": 14.07391667, "Longitud Origen": -87.2036389, "Usuario Origen": "Henry Javier Hernandez Rodriguez/dago/Cuñado T" }, "geometry": { "type": "Point", "coordinates": [ -87.2036389, 14.07391667 ] } },
{ "type": "Feature", "properties": { "Latitud Origen": 14.07436413, "Longitud Origen": -87.2126974, "Usuario Origen": "Henrry Javier Hernandez Rodriguez" }, "geometry": { "type": "Point", "coordinates": [ -87.2126974, 14.07436413 ] } },
{ "type": "Feature", "properties": { "Latitud Origen": 14.07623333, "Longitud Origen": -87.2011889, "Usuario Origen": "Henry Javier Hernandez Rodriguez/dago/Cuñado T" }, "geometry": { "type": "Point", "coordinates": [ -87.2011889, 14.07623333 ] } },
{ "type": "Feature", "properties": { "Latitud Origen": 14.07817005, "Longitud Origen": -87.2005577, "Usuario Origen": "Henry Javier Hernandez Rodriguez/dago/Cuñado T" }, "geometry": { "type": "Point", "coordinates": [ -87.2005577, 14.07817005 ] } },
{ "type": "Feature", "properties": { "Latitud Origen": 14.07872268, "Longitud Origen": -87.2098862, "Usuario Origen": "Henry Javier Hernandez Rodriguez/dago/Cuñado T" }, "geometry": { "type": "Point", "coordinates": [ -87.2098862, 14.07872268 ] } },
{ "type": "Feature", "properties": { "Latitud Origen": 14.07896944, "Longitud Origen": -87.2137472, "Usuario Origen": "Henrry Javier Hernandez Rodriguez" }, "geometry": { "type": "Point", "coordinates": [ -87.2137472, 14.07896944 ] } },
{ "type": "Feature", "properties": { "Latitud Origen": 14.08084444, "Longitud Origen": -87.2321556, "Usuario Origen": "Henry Javier Hernandez Rodriguez/dago/Cuñado T" }, "geometry": { "type": "Point", "coordinates": [ -87.2321556, 14.08084444 ] } },
{ "type": "Feature", "properties": { "Latitud Origen": 14.08277778, "Longitud Origen": -87.2105, "Usuario Origen": "Henry Javier Hernandez Rodriguez/dago/Cuñado T" }, "geometry": { "type": "Point", "coordinates": [ -87.2105, 14.08277778 ] } },
{ "type": "Feature", "properties": { "Latitud Origen": 14.08357778, "Longitud Origen": -87.18925, "Usuario Origen": "Henry Javier Hernandez Rodriguez/dago/Cuñado T" }, "geometry": { "type": "Point", "coordinates": [ -87.18925, 14.08357778 ] } },
{ "type": "Feature", "properties": { "Latitud Origen": 14.0866075, "Longitud Origen": -87.1878092, "Usuario Origen": "Henry Javier Hernandez Rodriguez/dago/Cuñado T" }, "geometry": { "type": "Point", "coordinates": [ -87.1878092, 14.0866075 ] } },
{ "type": "Feature", "properties": { "Latitud Origen": 14.08934098, "Longitud Origen": -87.1956114, "Usuario Origen": "Henry Javier Hernandez Rodriguez/dago/Cuñado T" }, "geometry": { "type": "Point", "coordinates": [ -87.1956114, 14.08934098 ] } },
{ "type": "Feature", "properties": { "Latitud Origen": 14.08982778, "Longitud Origen": -87.2076056, "Usuario Origen": "Henry Javier Hernandez Rodriguez/dago/Cuñado T" }, "geometry": { "type": "Point", "coordinates": [ -87.2076056, 14.08982778 ] } },
{ "type": "Feature", "properties": { "Latitud Origen": 14.09075, "Longitud Origen": -87.1873861, "Usuario Origen": "Henry Javier Hernandez Rodriguez/dago/Cuñado T" }, "geometry": { "type": "Point", "coordinates": [ -87.1873861, 14.09075 ] } },
{ "type": "Feature", "properties": { "Latitud Origen": 14.09091255, "Longitud Origen": -87.2282765, "Usuario Origen": "Henry Javier Hernandez Rodriguez/dago/Cuñado T" }, "geometry": { "type": "Point", "coordinates": [ -87.2282765, 14.09091255 ] } },
{ "type": "Feature", "properties": { "Latitud Origen": 14.09266667, "Longitud Origen": -87.1955278, "Usuario Origen": "Henry Javier Hernandez Rodriguez/dago/Cuñado T" }, "geometry": { "type": "Point", "coordinates": [ -87.1955278, 14.09266667 ] } },
{ "type": "Feature", "properties": { "Latitud Origen": 14.09283056, "Longitud Origen": -87.2104694, "Usuario Origen": "Henry Javier Hernandez Rodriguez/dago/Cuñado T" }, "geometry": { "type": "Point", "coordinates": [ -87.2104694, 14.09283056 ] } },
{ "type": "Feature", "properties": { "Latitud Origen": 14.09308039, "Longitud Origen": -87.1916397, "Usuario Origen": "Henry Javier Hernandez Rodriguez/dago/Cuñado T" }, "geometry": { "type": "Point", "coordinates": [ -87.1916397, 14.09308039 ] } },
{ "type": "Feature", "properties": { "Latitud Origen": 14.09608917, "Longitud Origen": -87.1943565, "Usuario Origen": "Henry Javier Hernandez Rodriguez/dago/Cuñado T" }, "geometry": { "type": "Point", "coordinates": [ -87.1943565, 14.09608917 ] } },
{ "type": "Feature", "properties": { "Latitud Origen": 14.09630556, "Longitud Origen": -87.2169417, "Usuario Origen": "Henry Javier Hernandez Rodriguez/dago/Cuñado T" }, "geometry": { "type": "Point", "coordinates": [ -87.2169417, 14.09630556 ] } },
{ "type": "Feature", "properties": { "Latitud Origen": 14.09660935, "Longitud Origen": -87.207985, "Usuario Origen": "Henry Javier Hernandez Rodriguez/dago/Cuñado T" }, "geometry": { "type": "Point", "coordinates": [ -87.207985, 14.09660935 ] } },
{ "type": "Feature", "properties": { "Latitud Origen": 14.09763509, "Longitud Origen": -87.2137203, "Usuario Origen": "Henry Javier Hernandez Rodriguez/dago/Cuñado T" }, "geometry": { "type": "Point", "coordinates": [ -87.2137203, 14.09763509 ] } },
{ "type": "Feature", "properties": { "Latitud Origen": 14.09891194, "Longitud Origen": -87.2032524, "Usuario Origen": "Henry Javier Hernandez Rodriguez/dago/Cuñado T" }, "geometry": { "type": "Point", "coordinates": [ -87.2032524, 14.09891194 ] } },
{ "type": "Feature", "properties": { "Latitud Origen": 14.099, "Longitud Origen": -87.2107778, "Usuario Origen": "Henry Javier Hernandez Rodriguez/dago/Cuñado T" }, "geometry": { "type": "Point", "coordinates": [ -87.2107778, 14.099 ] } },
{ "type": "Feature", "properties": { "Latitud Origen": 14.0998355, "Longitud Origen": -87.199502, "Usuario Origen": "Henry Javier Hernandez Rodriguez/dago/Cuñado T" }, "geometry": { "type": "Point", "coordinates": [ -87.199502, 14.0998355 ] } },
{ "type": "Feature", "properties": { "Latitud Origen": 14.10371944, "Longitud Origen": -87.2439444, "Usuario Origen": "Henry Javier Hernandez Rodriguez/dago/Cuñado T" }, "geometry": { "type": "Point", "coordinates": [ -87.2439444, 14.10371944 ] } },
{ "type": "Feature", "properties": { "Latitud Origen": 14.10791667, "Longitud Origen": -87.2456389, "Usuario Origen": "Henry Javier Hernandez Rodriguez/dago/Cuñado T" }, "geometry": { "type": "Point", "coordinates": [ -87.2456389, 14.10791667 ] } },
{ "type": "Feature", "properties": { "Latitud Origen": 14.11130556, "Longitud Origen": -87.2338889, "Usuario Origen": "Henry Javier Hernandez Rodriguez/dago/Cuñado T" }, "geometry": { "type": "Point", "coordinates": [ -87.2338889, 14.11130556 ] } },
{ "type": "Feature", "properties": { "Latitud Origen": 14.12688889, "Longitud Origen": -87.2484167, "Usuario Origen": "Henry Javier Hernandez Rodriguez/dago/Cuñado T" }, "geometry": { "type": "Point", "coordinates": [ -87.2484167, 14.12688889 ] } },
{ "type": "Feature", "properties": { "Latitud Origen": 14.13805462, "Longitud Origen": -87.2658306, "Usuario Origen": "Henry Javier Hernandez Rodriguez/dago/Cuñado T" }, "geometry": { "type": "Point", "coordinates": [ -87.2658306, 14.13805462 ] } },
{ "type": "Feature", "properties": { "Latitud Origen": 14.15822222, "Longitud Origen": -87.2848833, "Usuario Origen": "Henry Javier Hernandez Rodriguez/dago/Cuñado T" }, "geometry": { "type": "Point", "coordinates": [ -87.2848833, 14.15822222 ] } },
{ "type": "Feature", "properties": { "Latitud Origen": 14.19172222, "Longitud Origen": -87.3768611, "Usuario Origen": "Henry Javier Hernandez Rodriguez/dago/Cuñado T" }, "geometry": { "type": "Point", "coordinates": [ -87.3768611, 14.19172222 ] } },
{ "type": "Feature", "properties": { "Latitud Origen": 14.27491667, "Longitud Origen": -87.4034111, "Usuario Origen": "Henry Javier Hernandez Rodriguez/dago/Cuñado T" }, "geometry": { "type": "Point", "coordinates": [ -87.4034111, 14.27491667 ] } },
{ "type": "Feature", "properties": { "Latitud Origen": 14.2755, "Longitud Origen": -87.5168611, "Usuario Origen": "Henry Javier Hernandez Rodriguez/dago/Cuñado T" }, "geometry": { "type": "Point", "coordinates": [ -87.5168611, 14.2755 ] } },
{ "type": "Feature", "properties": { "Latitud Origen": 14.27916773, "Longitud Origen": -87.3694445, "Usuario Origen": "Henry Javier Hernandez Rodriguez/dago/Cuñado T" }, "geometry": { "type": "Point", "coordinates": [ -87.3694445, 14.27916773 ] } },
{ "type": "Feature", "properties": { "Latitud Origen": 14.28363889, "Longitud Origen": -87.4973889, "Usuario Origen": "Henry Javier Hernandez Rodriguez/dago/Cuñado T" }, "geometry": { "type": "Point", "coordinates": [ -87.4973889, 14.28363889 ] } },
{ "type": "Feature", "properties": { "Latitud Origen": 14.28516667, "Longitud Origen": -87.4657778, "Usuario Origen": "Henry Javier Hernandez Rodriguez/dago/Cuñado T" }, "geometry": { "type": "Point", "coordinates": [ -87.4657778, 14.28516667 ] } },
{ "type": "Feature", "properties": { "Latitud Origen": 14.30663462, "Longitud Origen": -88.2172527, "Usuario Origen": "Henry Javier Hernandez Rodriguez/Luis Alfonso Suares" }, "geometry": { "type": "Point", "coordinates": [ -88.2172527, 14.30663462 ] } },
{ "type": "Feature", "properties": { "Latitud Origen": 14.308898, "Longitud Origen": -88.164935, "Usuario Origen": "Henry Javier Hernandez Rodriguez/Luis Alfonso Suares" }, "geometry": { "type": "Point", "coordinates": [ -88.164935, 14.308898 ] } },
{ "type": "Feature", "properties": { "Latitud Origen": 14.309009, "Longitud Origen": -88.168697, "Usuario Origen": "Henry Javier Hernandez Rodriguez/dago/Cuñado T" }, "geometry": { "type": "Point", "coordinates": [ -88.168697, 14.309009 ] } },
{ "type": "Feature", "properties": { "Latitud Origen": 14.309009, "Longitud Origen": -88.168697, "Usuario Origen": "Henry Javier Hernandez Rodriguez/Luis Alfonso Suares" }, "geometry": { "type": "Point", "coordinates": [ -88.168697, 14.309009 ] } },
{ "type": "Feature", "properties": { "Latitud Origen": 14.30947222, "Longitud Origen": -88.168275, "Usuario Origen": "Henry Javier Hernandez Rodriguez/Luis Alfonso Suares" }, "geometry": { "type": "Point", "coordinates": [ -88.168275, 14.30947222 ] } },
{ "type": "Feature", "properties": { "Latitud Origen": 14.30991944, "Longitud Origen": -88.17665, "Usuario Origen": "Henry Javier Hernandez Rodriguez/dago/Cuñado T" }, "geometry": { "type": "Point", "coordinates": [ -88.17665, 14.30991944 ] } },
{ "type": "Feature", "properties": { "Latitud Origen": 14.30991944, "Longitud Origen": -88.17665, "Usuario Origen": "Henry Javier Hernandez Rodriguez/Luis Alfonso Suares" }, "geometry": { "type": "Point", "coordinates": [ -88.17665, 14.30991944 ] } },
{ "type": "Feature", "properties": { "Latitud Origen": 14.31186111, "Longitud Origen": -88.1861111, "Usuario Origen": "Henry Javier Hernandez Rodriguez/Luis Alfonso Suares" }, "geometry": { "type": "Point", "coordinates": [ -88.1861111, 14.31186111 ] } },
{ "type": "Feature", "properties": { "Latitud Origen": 14.31247222, "Longitud Origen": -88.1611389, "Usuario Origen": "Henry Javier Hernandez Rodriguez/Luis Alfonso Suares" }, "geometry": { "type": "Point", "coordinates": [ -88.1611389, 14.31247222 ] } },
{ "type": "Feature", "properties": { "Latitud Origen": 14.31805, "Longitud Origen": -87.584168, "Usuario Origen": "Henry Javier Hernandez Rodriguez/Luis Alfonso Suares" }, "geometry": { "type": "Point", "coordinates": [ -87.584168, 14.31805 ] } },
{ "type": "Feature", "properties": { "Latitud Origen": 14.330963, "Longitud Origen": -87.594207, "Usuario Origen": "Henrry Javier Hernandez Rodriguez" }, "geometry": { "type": "Point", "coordinates": [ -87.594207, 14.330963 ] } },
{ "type": "Feature", "properties": { "Latitud Origen": 14.4511, "Longitud Origen": -87.637399, "Usuario Origen": "Henry Javier Hernandez Rodriguez/Luis Alfonso Suares" }, "geometry": { "type": "Point", "coordinates": [ -87.637399, 14.4511 ] } },
{ "type": "Feature", "properties": { "Latitud Origen": 14.4856427, "Longitud Origen": -87.9927964, "Usuario Origen": "Henry Javier Hernandez Rodriguez/Luis Alfonso Suares" }, "geometry": { "type": "Point", "coordinates": [ -87.9927964, 14.4856427 ] } },
{ "type": "Feature", "properties": { "Latitud Origen": 14.53044444, "Longitud Origen": -87.7908333, "Usuario Origen": "Henry Javier Hernandez Rodriguez/dago/Cuñado T" }, "geometry": { "type": "Point", "coordinates": [ -87.7908333, 14.53044444 ] } },
{ "type": "Feature", "properties": { "Latitud Origen": 14.53336111, "Longitud Origen": -87.8016667, "Usuario Origen": "Henry Javier Hernandez Rodriguez/dago/Cuñado T" }, "geometry": { "type": "Point", "coordinates": [ -87.8016667, 14.53336111 ] } },
{ "type": "Feature", "properties": { "Latitud Origen": 14.55052688, "Longitud Origen": -87.8249729, "Usuario Origen": "Henry Javier Hernandez Rodriguez/dago/Cuñado T" }, "geometry": { "type": "Point", "coordinates": [ -87.8249729, 14.55052688 ] } },
{ "type": "Feature", "properties": { "Latitud Origen": 14.56502778, "Longitud Origen": -87.9497778, "Usuario Origen": "Henry Javier Hernandez Rodriguez/Luis Alfonso Suares" }, "geometry": { "type": "Point", "coordinates": [ -87.9497778, 14.56502778 ] } },
{ "type": "Feature", "properties": { "Latitud Origen": 14.58680556, "Longitud Origen": -87.8546111, "Usuario Origen": "Henry Javier Hernandez Rodriguez/Luis Alfonso Suares" }, "geometry": { "type": "Point", "coordinates": [ -87.8546111, 14.58680556 ] } },
{ "type": "Feature", "properties": { "Latitud Origen": 14.60086111, "Longitud Origen": -87.8683611, "Usuario Origen": "Henry Javier Hernandez Rodriguez/dago/Cuñado T" }, "geometry": { "type": "Point", "coordinates": [ -87.8683611, 14.60086111 ] } },
{ "type": "Feature", "properties": { "Latitud Origen": 14.60086111, "Longitud Origen": -87.8683611, "Usuario Origen": "Henry Javier Hernandez Rodriguez/Luis Alfonso Suares" }, "geometry": { "type": "Point", "coordinates": [ -87.8683611, 14.60086111 ] } },
{ "type": "Feature", "properties": { "Latitud Origen": 14.64725, "Longitud Origen": -87.9065556, "Usuario Origen": "Henry Javier Hernandez Rodriguez/Luis Alfonso Suares" }, "geometry": { "type": "Point", "coordinates": [ -87.9065556, 14.64725 ] } },
{ "type": "Feature", "properties": { "Latitud Origen": 14.65544578, "Longitud Origen": -88.0039698, "Usuario Origen": "Henry Javier Hernandez Rodriguez/dago/Cuñado T" }, "geometry": { "type": "Point", "coordinates": [ -88.0039698, 14.65544578 ] } },
{ "type": "Feature", "properties": { "Latitud Origen": 14.72777849, "Longitud Origen": -87.9008372, "Usuario Origen": "Henrry Javier Hernandez Rodriguez" }, "geometry": { "type": "Point", "coordinates": [ -87.9008372, 14.72777849 ] } },
{ "type": "Feature", "properties": { "Latitud Origen": 14.72777849, "Longitud Origen": -87.9008372, "Usuario Origen": "Henry Javier Hernandez Rodriguez/dago/Cuñado T" }, "geometry": { "type": "Point", "coordinates": [ -87.9008372, 14.72777849 ] } },
{ "type": "Feature", "properties": { "Latitud Origen": 14.72777849, "Longitud Origen": -87.9008372, "Usuario Origen": "Henry Javier Hernandez Rodriguez/Luis Alfonso Suares" }, "geometry": { "type": "Point", "coordinates": [ -87.9008372, 14.72777849 ] } },
{ "type": "Feature", "properties": { "Latitud Origen": 14.72976413, "Longitud Origen": -87.963921, "Usuario Origen": "Henry Javier Hernandez Rodriguez/dago/Cuñado T" }, "geometry": { "type": "Point", "coordinates": [ -87.963921, 14.72976413 ] } },
{ "type": "Feature", "properties": { "Latitud Origen": 14.80358605, "Longitud Origen": -88.0147208, "Usuario Origen": "Henry Javier Hernandez Rodriguez/dago/Cuñado T" }, "geometry": { "type": "Point", "coordinates": [ -88.0147208, 14.80358605 ] } },
{ "type": "Feature", "properties": { "Latitud Origen": 14.83799722, "Longitud Origen": -87.9517667, "Usuario Origen": "Henry Javier Hernandez Rodriguez/Luis Alfonso Suares" }, "geometry": { "type": "Point", "coordinates": [ -87.9517667, 14.83799722 ] } },
{ "type": "Feature", "properties": { "Latitud Origen": 14.90146826, "Longitud Origen": -87.9337497, "Usuario Origen": "Henry Javier Hernandez Rodriguez/dago/Cuñado T" }, "geometry": { "type": "Point", "coordinates": [ -87.9337497, 14.90146826 ] } },
{ "type": "Feature", "properties": { "Latitud Origen": 14.92944836, "Longitud Origen": -87.9566701, "Usuario Origen": "Henry Javier Hernandez Rodriguez/dago/Cuñado T" }, "geometry": { "type": "Point", "coordinates": [ -87.9566701, 14.92944836 ] } },
{ "type": "Feature", "properties": { "Latitud Origen": 14.98194378, "Longitud Origen": -87.9772212, "Usuario Origen": "Henry Javier Hernandez Rodriguez/Luis Alfonso Suares" }, "geometry": { "type": "Point", "coordinates": [ -87.9772212, 14.98194378 ] } },
{ "type": "Feature", "properties": { "Latitud Origen": 15.00963889, "Longitud Origen": -87.9281389, "Usuario Origen": "Henry Javier Hernandez Rodriguez/dago/Cuñado T" }, "geometry": { "type": "Point", "coordinates": [ -87.9281389, 15.00963889 ] } },
{ "type": "Feature", "properties": { "Latitud Origen": 15.0439435, "Longitud Origen": -87.9323319, "Usuario Origen": "Henry Javier Hernandez Rodriguez/Luis Alfonso Suares" }, "geometry": { "type": "Point", "coordinates": [ -87.9323319, 15.0439435 ] } },
{ "type": "Feature", "properties": { "Latitud Origen": 15.20625, "Longitud Origen": -87.8819167, "Usuario Origen": "Henry Javier Hernandez Rodriguez/Luis Alfonso Suares" }, "geometry": { "type": "Point", "coordinates": [ -87.8819167, 15.20625 ] } },
{ "type": "Feature", "properties": { "Latitud Origen": 15.28930556, "Longitud Origen": -87.9776944, "Usuario Origen": "Henry Javier Hernandez Rodriguez/dago/Cuñado T" }, "geometry": { "type": "Point", "coordinates": [ -87.9776944, 15.28930556 ] } },
{ "type": "Feature", "properties": { "Latitud Origen": 15.31491332, "Longitud Origen": -87.9964212, "Usuario Origen": "Henry Javier Hernandez Rodriguez/dago/Cuñado T" }, "geometry": { "type": "Point", "coordinates": [ -87.9964212, 15.31491332 ] } },
{ "type": "Feature", "properties": { "Latitud Origen": 15.31744444, "Longitud Origen": -87.9918889, "Usuario Origen": "Henry Javier Hernandez Rodriguez/dago/Cuñado T" }, "geometry": { "type": "Point", "coordinates": [ -87.9918889, 15.31744444 ] } },
{ "type": "Feature", "properties": { "Latitud Origen": 15.36802778, "Longitud Origen": -87.9859444, "Usuario Origen": "Henry Javier Hernandez Rodriguez/dago/Cuñado T" }, "geometry": { "type": "Point", "coordinates": [ -87.9859444, 15.36802778 ] } },
{ "type": "Feature", "properties": { "Latitud Origen": 15.397, "Longitud Origen": -87.9671667, "Usuario Origen": "Henry Javier Hernandez Rodriguez/dago/Cuñado T" }, "geometry": { "type": "Point", "coordinates": [ -87.9671667, 15.397 ] } },
{ "type": "Feature", "properties": { "Latitud Origen": 15.40077778, "Longitud Origen": -87.8065833, "Usuario Origen": "Henry Javier Hernandez Rodriguez/dago/Cuñado T" }, "geometry": { "type": "Point", "coordinates": [ -87.8065833, 15.40077778 ] } },
{ "type": "Feature", "properties": { "Latitud Origen": 15.40208333, "Longitud Origen": -87.8141667, "Usuario Origen": "Henry Javier Hernandez Rodriguez/dago/Cuñado T" }, "geometry": { "type": "Point", "coordinates": [ -87.8141667, 15.40208333 ] } },
{ "type": "Feature", "properties": { "Latitud Origen": 15.40208333, "Longitud Origen": -87.8141667, "Usuario Origen": "Henry Javier Hernandez Rodriguez/Luis Alfonso Suares" }, "geometry": { "type": "Point", "coordinates": [ -87.8141667, 15.40208333 ] } },
{ "type": "Feature", "properties": { "Latitud Origen": 15.40261, "Longitud Origen": -87.81189, "Usuario Origen": "Henry Javier Hernandez Rodriguez/dago/Cuñado T" }, "geometry": { "type": "Point", "coordinates": [ -87.81189, 15.40261 ] } },
{ "type": "Feature", "properties": { "Latitud Origen": 15.40975, "Longitud Origen": -87.8038889, "Usuario Origen": "Henry Javier Hernandez Rodriguez/Luis Alfonso Suares" }, "geometry": { "type": "Point", "coordinates": [ -87.8038889, 15.40975 ] } },
{ "type": "Feature", "properties": { "Latitud Origen": 15.41916667, "Longitud Origen": -87.8016667, "Usuario Origen": "Henry Javier Hernandez Rodriguez/dago/Cuñado T" }, "geometry": { "type": "Point", "coordinates": [ -87.8016667, 15.41916667 ] } },
{ "type": "Feature", "properties": { "Latitud Origen": 15.427, "Longitud Origen": -87.9202778, "Usuario Origen": "Henry Javier Hernandez Rodriguez/dago/Cuñado T" }, "geometry": { "type": "Point", "coordinates": [ -87.9202778, 15.427 ] } },
{ "type": "Feature", "properties": { "Latitud Origen": 15.43097569, "Longitud Origen": -88.0201128, "Usuario Origen": "Henry Javier Hernandez Rodriguez/Luis Alfonso Suares" }, "geometry": { "type": "Point", "coordinates": [ -88.0201128, 15.43097569 ] } },
{ "type": "Feature", "properties": { "Latitud Origen": 15.46152667, "Longitud Origen": -87.7464575, "Usuario Origen": "Henry Javier Hernandez Rodriguez/Luis Alfonso Suares" }, "geometry": { "type": "Point", "coordinates": [ -87.7464575, 15.46152667 ] } },
{ "type": "Feature", "properties": { "Latitud Origen": 15.46297222, "Longitud Origen": -87.7844722, "Usuario Origen": "Henry Javier Hernandez Rodriguez/dago/Cuñado T" }, "geometry": { "type": "Point", "coordinates": [ -87.7844722, 15.46297222 ] } },
{ "type": "Feature", "properties": { "Latitud Origen": 15.46941, "Longitud Origen": -88.03432, "Usuario Origen": "Henrry Javier Hernandez Rodriguez" }, "geometry": { "type": "Point", "coordinates": [ -88.03432, 15.46941 ] } },
{ "type": "Feature", "properties": { "Latitud Origen": 15.46941, "Longitud Origen": -88.03432, "Usuario Origen": "Henry Javier Hernandez Rodriguez/dago/Cuñado T" }, "geometry": { "type": "Point", "coordinates": [ -88.03432, 15.46941 ] } },
{ "type": "Feature", "properties": { "Latitud Origen": 15.46941, "Longitud Origen": -88.03432, "Usuario Origen": "Henry Javier Hernandez Rodriguez/Luis Alfonso Suares" }, "geometry": { "type": "Point", "coordinates": [ -88.03432, 15.46941 ] } },
{ "type": "Feature", "properties": { "Latitud Origen": 15.470933, "Longitud Origen": -88.028387, "Usuario Origen": "Henrry Javier Hernandez Rodriguez" }, "geometry": { "type": "Point", "coordinates": [ -88.028387, 15.470933 ] } },
{ "type": "Feature", "properties": { "Latitud Origen": 15.470933, "Longitud Origen": -88.028387, "Usuario Origen": "Henry Javier Hernandez Rodriguez/dago/Cuñado T" }, "geometry": { "type": "Point", "coordinates": [ -88.028387, 15.470933 ] } },
{ "type": "Feature", "properties": { "Latitud Origen": 15.470933, "Longitud Origen": -88.028387, "Usuario Origen": "Henry Javier Hernandez Rodriguez/Luis Alfonso Suares" }, "geometry": { "type": "Point", "coordinates": [ -88.028387, 15.470933 ] } },
{ "type": "Feature", "properties": { "Latitud Origen": 15.47191667, "Longitud Origen": -87.9896111, "Usuario Origen": "Henry Javier Hernandez Rodriguez/dago/Cuñado T" }, "geometry": { "type": "Point", "coordinates": [ -87.9896111, 15.47191667 ] } },
{ "type": "Feature", "properties": { "Latitud Origen": 15.4739384, "Longitud Origen": -88.001271, "Usuario Origen": "Henry Javier Hernandez Rodriguez/Luis Alfonso Suares" }, "geometry": { "type": "Point", "coordinates": [ -88.001271, 15.4739384 ] } },
{ "type": "Feature", "properties": { "Latitud Origen": 15.47597222, "Longitud Origen": -88.01875, "Usuario Origen": "Henry Javier Hernandez Rodriguez/dago/Cuñado T" }, "geometry": { "type": "Point", "coordinates": [ -88.01875, 15.47597222 ] } },
{ "type": "Feature", "properties": { "Latitud Origen": 15.47597222, "Longitud Origen": -88.01875, "Usuario Origen": "Henry Javier Hernandez Rodriguez/Luis Alfonso Suares" }, "geometry": { "type": "Point", "coordinates": [ -88.01875, 15.47597222 ] } },
{ "type": "Feature", "properties": { "Latitud Origen": 15.47669444, "Longitud Origen": -88.02425, "Usuario Origen": "Henry Javier Hernandez Rodriguez/Luis Alfonso Suares" }, "geometry": { "type": "Point", "coordinates": [ -88.02425, 15.47669444 ] } },
{ "type": "Feature", "properties": { "Latitud Origen": 15.47924938, "Longitud Origen": -88.0356091, "Usuario Origen": "Henry Javier Hernandez Rodriguez/dago/Cuñado T" }, "geometry": { "type": "Point", "coordinates": [ -88.0356091, 15.47924938 ] } },
{ "type": "Feature", "properties": { "Latitud Origen": 15.47924938, "Longitud Origen": -88.0356091, "Usuario Origen": "Henry Javier Hernandez Rodriguez/Luis Alfonso Suares" }, "geometry": { "type": "Point", "coordinates": [ -88.0356091, 15.47924938 ] } },
{ "type": "Feature", "properties": { "Latitud Origen": 15.47944545, "Longitud Origen": -88.0300257, "Usuario Origen": "Henrry Javier Hernandez Rodriguez" }, "geometry": { "type": "Point", "coordinates": [ -88.0300257, 15.47944545 ] } },
{ "type": "Feature", "properties": { "Latitud Origen": 15.47944545, "Longitud Origen": -88.0300257, "Usuario Origen": "Henry Javier Hernandez Rodriguez/dago/Cuñado T" }, "geometry": { "type": "Point", "coordinates": [ -88.0300257, 15.47944545 ] } },
{ "type": "Feature", "properties": { "Latitud Origen": 15.47944545, "Longitud Origen": -88.0300257, "Usuario Origen": "Henry Javier Hernandez Rodriguez/Luis Alfonso Suares" }, "geometry": { "type": "Point", "coordinates": [ -88.0300257, 15.47944545 ] } },
{ "type": "Feature", "properties": { "Latitud Origen": 15.49369444, "Longitud Origen": -87.9865, "Usuario Origen": "Henry Javier Hernandez Rodriguez/dago/Cuñado T" }, "geometry": { "type": "Point", "coordinates": [ -87.9865, 15.49369444 ] } },
{ "type": "Feature", "properties": { "Latitud Origen": 15.49369444, "Longitud Origen": -87.9865, "Usuario Origen": "Henry Javier Hernandez Rodriguez/Luis Alfonso Suares" }, "geometry": { "type": "Point", "coordinates": [ -87.9865, 15.49369444 ] } },
{ "type": "Feature", "properties": { "Latitud Origen": 15.49787122, "Longitud Origen": -88.0239464, "Usuario Origen": "Henrry Javier Hernandez Rodriguez" }, "geometry": { "type": "Point", "coordinates": [ -88.0239464, 15.49787122 ] } },
{ "type": "Feature", "properties": { "Latitud Origen": 15.49872283, "Longitud Origen": -87.6863643, "Usuario Origen": "Henry Javier Hernandez Rodriguez/dago/Cuñado T" }, "geometry": { "type": "Point", "coordinates": [ -87.6863643, 15.49872283 ] } },
{ "type": "Feature", "properties": { "Latitud Origen": 15.49969444, "Longitud Origen": -87.7164167, "Usuario Origen": "Henry Javier Hernandez Rodriguez/dago/Cuñado T" }, "geometry": { "type": "Point", "coordinates": [ -87.7164167, 15.49969444 ] } },
{ "type": "Feature", "properties": { "Latitud Origen": 15.49986111, "Longitud Origen": -88.0266944, "Usuario Origen": "Henry Javier Hernandez Rodriguez/dago/Cuñado T" }, "geometry": { "type": "Point", "coordinates": [ -88.0266944, 15.49986111 ] } },
{ "type": "Feature", "properties": { "Latitud Origen": 15.50088889, "Longitud Origen": -88.0215556, "Usuario Origen": "Henrry Javier Hernandez Rodriguez" }, "geometry": { "type": "Point", "coordinates": [ -88.0215556, 15.50088889 ] } },
{ "type": "Feature", "properties": { "Latitud Origen": 15.50236473, "Longitud Origen": -88.0354167, "Usuario Origen": "Henry Javier Hernandez Rodriguez/dago/Cuñado T" }, "geometry": { "type": "Point", "coordinates": [ -88.0354167, 15.50236473 ] } },
{ "type": "Feature", "properties": { "Latitud Origen": 15.50266588, "Longitud Origen": -88.0290042, "Usuario Origen": "Henry Javier Hernandez Rodriguez/dago/Cuñado T" }, "geometry": { "type": "Point", "coordinates": [ -88.0290042, 15.50266588 ] } },
{ "type": "Feature", "properties": { "Latitud Origen": 15.50411111, "Longitud Origen": -88.0241389, "Usuario Origen": "Henry Javier Hernandez Rodriguez/dago/Cuñado T" }, "geometry": { "type": "Point", "coordinates": [ -88.0241389, 15.50411111 ] } },
{ "type": "Feature", "properties": { "Latitud Origen": 15.50813889, "Longitud Origen": -88.0011111, "Usuario Origen": "Henry Javier Hernandez Rodriguez/dago/Cuñado T" }, "geometry": { "type": "Point", "coordinates": [ -88.0011111, 15.50813889 ] } },
{ "type": "Feature", "properties": { "Latitud Origen": 15.51908333, "Longitud Origen": -86.2272222, "Usuario Origen": "Henry Javier Hernandez Rodriguez/Luis Alfonso Suares" }, "geometry": { "type": "Point", "coordinates": [ -86.2272222, 15.51908333 ] } },
{ "type": "Feature", "properties": { "Latitud Origen": 15.519227, "Longitud Origen": -86.228944, "Usuario Origen": "Henry Javier Hernandez Rodriguez/dago/Cuñado T" }, "geometry": { "type": "Point", "coordinates": [ -86.228944, 15.519227 ] } },
{ "type": "Feature", "properties": { "Latitud Origen": 15.52594, "Longitud Origen": -86.28357, "Usuario Origen": "Henry Javier Hernandez Rodriguez/Luis Alfonso Suares" }, "geometry": { "type": "Point", "coordinates": [ -86.28357, 15.52594 ] } },
{ "type": "Feature", "properties": { "Latitud Origen": 15.54919444, "Longitud Origen": -87.6412778, "Usuario Origen": "Henry Javier Hernandez Rodriguez/dago/Cuñado T" }, "geometry": { "type": "Point", "coordinates": [ -87.6412778, 15.54919444 ] } },
{ "type": "Feature", "properties": { "Latitud Origen": 15.570725, "Longitud Origen": -86.3248333, "Usuario Origen": "Henry Javier Hernandez Rodriguez/dago/Cuñado T" }, "geometry": { "type": "Point", "coordinates": [ -86.3248333, 15.570725 ] } },
{ "type": "Feature", "properties": { "Latitud Origen": 15.58477778, "Longitud Origen": -86.3238889, "Usuario Origen": "Henrry Javier Hernandez Rodriguez" }, "geometry": { "type": "Point", "coordinates": [ -86.3238889, 15.58477778 ] } },
{ "type": "Feature", "properties": { "Latitud Origen": 15.58477778, "Longitud Origen": -86.3238889, "Usuario Origen": "Henry Javier Hernandez Rodriguez/dago/Cuñado T" }, "geometry": { "type": "Point", "coordinates": [ -86.3238889, 15.58477778 ] } },
{ "type": "Feature", "properties": { "Latitud Origen": 15.58477778, "Longitud Origen": -86.3238889, "Usuario Origen": "Henry Javier Hernandez Rodriguez/Luis Alfonso Suares" }, "geometry": { "type": "Point", "coordinates": [ -86.3238889, 15.58477778 ] } },
{ "type": "Feature", "properties": { "Latitud Origen": 15.58672222, "Longitud Origen": -86.1252778, "Usuario Origen": "Henrry Javier Hernandez Rodriguez" }, "geometry": { "type": "Point", "coordinates": [ -86.1252778, 15.58672222 ] } },
{ "type": "Feature", "properties": { "Latitud Origen": 15.58672222, "Longitud Origen": -86.1252778, "Usuario Origen": "Henry Javier Hernandez Rodriguez/dago/Cuñado T" }, "geometry": { "type": "Point", "coordinates": [ -86.1252778, 15.58672222 ] } },
{ "type": "Feature", "properties": { "Latitud Origen": 15.58758333, "Longitud Origen": -88.3631111, "Usuario Origen": "Henrry Javier Hernandez Rodriguez" }, "geometry": { "type": "Point", "coordinates": [ -88.3631111, 15.58758333 ] } },
{ "type": "Feature", "properties": { "Latitud Origen": 15.59161111, "Longitud Origen": -88.3186944, "Usuario Origen": "Henrry Javier Hernandez Rodriguez" }, "geometry": { "type": "Point", "coordinates": [ -88.3186944, 15.59161111 ] } },
{ "type": "Feature", "properties": { "Latitud Origen": 15.59560703, "Longitud Origen": -86.3774411, "Usuario Origen": "Henry Javier Hernandez Rodriguez/dago/Cuñado T" }, "geometry": { "type": "Point", "coordinates": [ -86.3774411, 15.59560703 ] } },
{ "type": "Feature", "properties": { "Latitud Origen": 15.59560703, "Longitud Origen": -86.3774411, "Usuario Origen": "Henry Javier Hernandez Rodriguez/Luis Alfonso Suares" }, "geometry": { "type": "Point", "coordinates": [ -86.3774411, 15.59560703 ] } },
{ "type": "Feature", "properties": { "Latitud Origen": 15.60120833, "Longitud Origen": -87.2126306, "Usuario Origen": "Henry Javier Hernandez Rodriguez/dago/Cuñado T" }, "geometry": { "type": "Point", "coordinates": [ -87.2126306, 15.60120833 ] } },
{ "type": "Feature", "properties": { "Latitud Origen": 15.60380666, "Longitud Origen": -86.0429195, "Usuario Origen": "Henrry Javier Hernandez Rodriguez" }, "geometry": { "type": "Point", "coordinates": [ -86.0429195, 15.60380666 ] } },
{ "type": "Feature", "properties": { "Latitud Origen": 15.60380666, "Longitud Origen": -86.0429195, "Usuario Origen": "Henry Javier Hernandez Rodriguez/dago/Cuñado T" }, "geometry": { "type": "Point", "coordinates": [ -86.0429195, 15.60380666 ] } },
{ "type": "Feature", "properties": { "Latitud Origen": 15.60608333, "Longitud Origen": -87.1749167, "Usuario Origen": "Henry Javier Hernandez Rodriguez/dago/Cuñado T" }, "geometry": { "type": "Point", "coordinates": [ -87.1749167, 15.60608333 ] } },
{ "type": "Feature", "properties": { "Latitud Origen": 15.60708333, "Longitud Origen": -87.9582222, "Usuario Origen": "Henry Javier Hernandez Rodriguez/dago/Cuñado T" }, "geometry": { "type": "Point", "coordinates": [ -87.9582222, 15.60708333 ] } },
{ "type": "Feature", "properties": { "Latitud Origen": 15.62088889, "Longitud Origen": -87.0948333, "Usuario Origen": "Henry Javier Hernandez Rodriguez/dago/Cuñado T" }, "geometry": { "type": "Point", "coordinates": [ -87.0948333, 15.62088889 ] } },
{ "type": "Feature", "properties": { "Latitud Origen": 15.63594444, "Longitud Origen": -88.2559444, "Usuario Origen": "Henrry Javier Hernandez Rodriguez" }, "geometry": { "type": "Point", "coordinates": [ -88.2559444, 15.63594444 ] } },
{ "type": "Feature", "properties": { "Latitud Origen": 15.63969678, "Longitud Origen": -87.0998099, "Usuario Origen": "Henry Javier Hernandez Rodriguez/dago/Cuñado T" }, "geometry": { "type": "Point", "coordinates": [ -87.0998099, 15.63969678 ] } },
{ "type": "Feature", "properties": { "Latitud Origen": 15.64188889, "Longitud Origen": -87.0544167, "Usuario Origen": "Henry Javier Hernandez Rodriguez/dago/Cuñado T" }, "geometry": { "type": "Point", "coordinates": [ -87.0544167, 15.64188889 ] } },
{ "type": "Feature", "properties": { "Latitud Origen": 15.64383578, "Longitud Origen": -86.008692, "Usuario Origen": "Henry Javier Hernandez Rodriguez/dago/Cuñado T" }, "geometry": { "type": "Point", "coordinates": [ -86.008692, 15.64383578 ] } },
{ "type": "Feature", "properties": { "Latitud Origen": 15.65302778, "Longitud Origen": -86.0084444, "Usuario Origen": "Henrry Javier Hernandez Rodriguez" }, "geometry": { "type": "Point", "coordinates": [ -86.0084444, 15.65302778 ] } },
{ "type": "Feature", "properties": { "Latitud Origen": 15.65302778, "Longitud Origen": -86.0084444, "Usuario Origen": "Henry Javier Hernandez Rodriguez/dago/Cuñado T" }, "geometry": { "type": "Point", "coordinates": [ -86.0084444, 15.65302778 ] } },
{ "type": "Feature", "properties": { "Latitud Origen": 15.65302778, "Longitud Origen": -86.0084444, "Usuario Origen": "Henry Javier Hernandez Rodriguez/Luis Alfonso Suares" }, "geometry": { "type": "Point", "coordinates": [ -86.0084444, 15.65302778 ] } },
{ "type": "Feature", "properties": { "Latitud Origen": 15.65305556, "Longitud Origen": -87.9480278, "Usuario Origen": "Henry Javier Hernandez Rodriguez/dago/Cuñado T" }, "geometry": { "type": "Point", "coordinates": [ -87.9480278, 15.65305556 ] } },
{ "type": "Feature", "properties": { "Latitud Origen": 15.655398, "Longitud Origen": -86.002421, "Usuario Origen": "Henrry Javier Hernandez Rodriguez" }, "geometry": { "type": "Point", "coordinates": [ -86.002421, 15.655398 ] } },
{ "type": "Feature", "properties": { "Latitud Origen": 15.655398, "Longitud Origen": -86.002421, "Usuario Origen": "Henry Javier Hernandez Rodriguez/dago/Cuñado T" }, "geometry": { "type": "Point", "coordinates": [ -86.002421, 15.655398 ] } },
{ "type": "Feature", "properties": { "Latitud Origen": 15.65558333, "Longitud Origen": -85.9991111, "Usuario Origen": "Henrry Javier Hernandez Rodriguez" }, "geometry": { "type": "Point", "coordinates": [ -85.9991111, 15.65558333 ] } },
{ "type": "Feature", "properties": { "Latitud Origen": 15.65558333, "Longitud Origen": -85.9991111, "Usuario Origen": "Henry Javier Hernandez Rodriguez/dago/Cuñado T" }, "geometry": { "type": "Point", "coordinates": [ -85.9991111, 15.65558333 ] } },
{ "type": "Feature", "properties": { "Latitud Origen": 15.65558333, "Longitud Origen": -85.9991111, "Usuario Origen": "Henry Javier Hernandez Rodriguez/Luis Alfonso Suares" }, "geometry": { "type": "Point", "coordinates": [ -85.9991111, 15.65558333 ] } },
{ "type": "Feature", "properties": { "Latitud Origen": 15.65563889, "Longitud Origen": -85.9901111, "Usuario Origen": "Henry Javier Hernandez Rodriguez/dago/Cuñado T" }, "geometry": { "type": "Point", "coordinates": [ -85.9901111, 15.65563889 ] } },
{ "type": "Feature", "properties": { "Latitud Origen": 15.65615743, "Longitud Origen": -88.185827, "Usuario Origen": "Henrry Javier Hernandez Rodriguez" }, "geometry": { "type": "Point", "coordinates": [ -88.185827, 15.65615743 ] } },
{ "type": "Feature", "properties": { "Latitud Origen": 15.65877707, "Longitud Origen": -86.0071977, "Usuario Origen": "Henrry Javier Hernandez Rodriguez" }, "geometry": { "type": "Point", "coordinates": [ -86.0071977, 15.65877707 ] } },
{ "type": "Feature", "properties": { "Latitud Origen": 15.65877707, "Longitud Origen": -86.0071977, "Usuario Origen": "Henry Javier Hernandez Rodriguez/dago/Cuñado T" }, "geometry": { "type": "Point", "coordinates": [ -86.0071977, 15.65877707 ] } },
{ "type": "Feature", "properties": { "Latitud Origen": 15.65877707, "Longitud Origen": -86.0071977, "Usuario Origen": "Henry Javier Hernandez Rodriguez/Luis Alfonso Suares" }, "geometry": { "type": "Point", "coordinates": [ -86.0071977, 15.65877707 ] } },
{ "type": "Feature", "properties": { "Latitud Origen": 15.6600872, "Longitud Origen": -85.9944419, "Usuario Origen": "Henrry Javier Hernandez Rodriguez" }, "geometry": { "type": "Point", "coordinates": [ -85.9944419, 15.6600872 ] } },
{ "type": "Feature", "properties": { "Latitud Origen": 15.6600872, "Longitud Origen": -85.9944419, "Usuario Origen": "Henry Javier Hernandez Rodriguez/dago/Cuñado T" }, "geometry": { "type": "Point", "coordinates": [ -85.9944419, 15.6600872 ] } },
{ "type": "Feature", "properties": { "Latitud Origen": 15.66013889, "Longitud Origen": -87.33675, "Usuario Origen": "Henry Javier Hernandez Rodriguez/dago/Cuñado T" }, "geometry": { "type": "Point", "coordinates": [ -87.33675, 15.66013889 ] } },
{ "type": "Feature", "properties": { "Latitud Origen": 15.66519444, "Longitud Origen": -86.0021111, "Usuario Origen": "Henrry Javier Hernandez Rodriguez" }, "geometry": { "type": "Point", "coordinates": [ -86.0021111, 15.66519444 ] } },
{ "type": "Feature", "properties": { "Latitud Origen": 15.66519444, "Longitud Origen": -86.0021111, "Usuario Origen": "Henry Javier Hernandez Rodriguez/dago/Cuñado T" }, "geometry": { "type": "Point", "coordinates": [ -86.0021111, 15.66519444 ] } },
{ "type": "Feature", "properties": { "Latitud Origen": 15.66928486, "Longitud Origen": -87.6402206, "Usuario Origen": "Henry Javier Hernandez Rodriguez/dago/Cuñado T" }, "geometry": { "type": "Point", "coordinates": [ -87.6402206, 15.66928486 ] } },
{ "type": "Feature", "properties": { "Latitud Origen": 15.66928486, "Longitud Origen": -87.6402206, "Usuario Origen": "Henry Javier Hernandez Rodriguez/Luis Alfonso Suares" }, "geometry": { "type": "Point", "coordinates": [ -87.6402206, 15.66928486 ] } },
{ "type": "Feature", "properties": { "Latitud Origen": 15.67333389, "Longitud Origen": -86.9841644, "Usuario Origen": "Henry Javier Hernandez Rodriguez/dago/Cuñado T" }, "geometry": { "type": "Point", "coordinates": [ -86.9841644, 15.67333389 ] } },
{ "type": "Feature", "properties": { "Latitud Origen": 15.67660776, "Longitud Origen": -88.1251412, "Usuario Origen": "Henrry Javier Hernandez Rodriguez" }, "geometry": { "type": "Point", "coordinates": [ -88.1251412, 15.67660776 ] } },
{ "type": "Feature", "properties": { "Latitud Origen": 15.68541342, "Longitud Origen": -87.3263876, "Usuario Origen": "Henrry Javier Hernandez Rodriguez" }, "geometry": { "type": "Point", "coordinates": [ -87.3263876, 15.68541342 ] } },
{ "type": "Feature", "properties": { "Latitud Origen": 15.68602778, "Longitud Origen": -85.9424167, "Usuario Origen": "Henrry Javier Hernandez Rodriguez" }, "geometry": { "type": "Point", "coordinates": [ -85.9424167, 15.68602778 ] } },
{ "type": "Feature", "properties": { "Latitud Origen": 15.68602778, "Longitud Origen": -85.9424167, "Usuario Origen": "Henry Javier Hernandez Rodriguez/dago/Cuñado T" }, "geometry": { "type": "Point", "coordinates": [ -85.9424167, 15.68602778 ] } },
{ "type": "Feature", "properties": { "Latitud Origen": 15.70541667, "Longitud Origen": -86.9476111, "Usuario Origen": "Henry Javier Hernandez Rodriguez/dago/Cuñado T" }, "geometry": { "type": "Point", "coordinates": [ -86.9476111, 15.70541667 ] } },
{ "type": "Feature", "properties": { "Latitud Origen": 15.70889109, "Longitud Origen": -87.9427783, "Usuario Origen": "Henrry Javier Hernandez Rodriguez" }, "geometry": { "type": "Point", "coordinates": [ -87.9427783, 15.70889109 ] } },
{ "type": "Feature", "properties": { "Latitud Origen": 15.71130556, "Longitud Origen": -86.9074444, "Usuario Origen": "Henry Javier Hernandez Rodriguez/dago/Cuñado T" }, "geometry": { "type": "Point", "coordinates": [ -86.9074444, 15.71130556 ] } },
{ "type": "Feature", "properties": { "Latitud Origen": 15.71527485, "Longitud Origen": -85.8867222, "Usuario Origen": "Henrry Javier Hernandez Rodriguez" }, "geometry": { "type": "Point", "coordinates": [ -85.8867222, 15.71527485 ] } },
{ "type": "Feature", "properties": { "Latitud Origen": 15.71527485, "Longitud Origen": -85.8867222, "Usuario Origen": "Henry Javier Hernandez Rodriguez/dago/Cuñado T" }, "geometry": { "type": "Point", "coordinates": [ -85.8867222, 15.71527485 ] } },
{ "type": "Feature", "properties": { "Latitud Origen": 15.73019444, "Longitud Origen": -87.5815, "Usuario Origen": "Henrry Javier Hernandez Rodriguez" }, "geometry": { "type": "Point", "coordinates": [ -87.5815, 15.73019444 ] } },
{ "type": "Feature", "properties": { "Latitud Origen": 15.73132943, "Longitud Origen": -86.4878931, "Usuario Origen": "Henry Javier Hernandez Rodriguez/dago/Cuñado T" }, "geometry": { "type": "Point", "coordinates": [ -86.4878931, 15.73132943 ] } },
{ "type": "Feature", "properties": { "Latitud Origen": 15.7321434, "Longitud Origen": -87.5143363, "Usuario Origen": "Henry Javier Hernandez Rodriguez/dago/Cuñado T" }, "geometry": { "type": "Point", "coordinates": [ -87.5143363, 15.7321434 ] } },
{ "type": "Feature", "properties": { "Latitud Origen": 15.73227778, "Longitud Origen": -87.9004444, "Usuario Origen": "Henry Javier Hernandez Rodriguez/dago/Cuñado T" }, "geometry": { "type": "Point", "coordinates": [ -87.9004444, 15.73227778 ] } },
{ "type": "Feature", "properties": { "Latitud Origen": 15.73580556, "Longitud Origen": -85.7225833, "Usuario Origen": "Henry Javier Hernandez Rodriguez/dago/Cuñado T" }, "geometry": { "type": "Point", "coordinates": [ -85.7225833, 15.73580556 ] } },
{ "type": "Feature", "properties": { "Latitud Origen": 15.74015867, "Longitud Origen": -87.3291631, "Usuario Origen": "Henry Javier Hernandez Rodriguez/dago/Cuñado T" }, "geometry": { "type": "Point", "coordinates": [ -87.3291631, 15.74015867 ] } },
{ "type": "Feature", "properties": { "Latitud Origen": 15.74413889, "Longitud Origen": -86.51425, "Usuario Origen": "Henry Javier Hernandez Rodriguez/Luis Alfonso Suares" }, "geometry": { "type": "Point", "coordinates": [ -86.51425, 15.74413889 ] } },
{ "type": "Feature", "properties": { "Latitud Origen": 15.74780756, "Longitud Origen": -85.8215294, "Usuario Origen": "Henry Javier Hernandez Rodriguez/dago/Cuñado T" }, "geometry": { "type": "Point", "coordinates": [ -85.8215294, 15.74780756 ] } },
{ "type": "Feature", "properties": { "Latitud Origen": 15.74998, "Longitud Origen": -86.84303, "Usuario Origen": "Henry Javier Hernandez Rodriguez/dago/Cuñado T" }, "geometry": { "type": "Point", "coordinates": [ -86.84303, 15.74998 ] } },
{ "type": "Feature", "properties": { "Latitud Origen": 15.749988, "Longitud Origen": -86.843023, "Usuario Origen": "Henry Javier Hernandez Rodriguez/dago/Cuñado T" }, "geometry": { "type": "Point", "coordinates": [ -86.843023, 15.749988 ] } },
{ "type": "Feature", "properties": { "Latitud Origen": 15.75427778, "Longitud Origen": -86.8411111, "Usuario Origen": "Henry Javier Hernandez Rodriguez/dago/Cuñado T" }, "geometry": { "type": "Point", "coordinates": [ -86.8411111, 15.75427778 ] } },
{ "type": "Feature", "properties": { "Latitud Origen": 15.75427778, "Longitud Origen": -86.8411111, "Usuario Origen": "Henry Javier Hernandez Rodriguez/Luis Alfonso Suares" }, "geometry": { "type": "Point", "coordinates": [ -86.8411111, 15.75427778 ] } },
{ "type": "Feature", "properties": { "Latitud Origen": 15.75622222, "Longitud Origen": -86.7890278, "Usuario Origen": "Henry Javier Hernandez Rodriguez/dago/Cuñado T" }, "geometry": { "type": "Point", "coordinates": [ -86.7890278, 15.75622222 ] } },
{ "type": "Feature", "properties": { "Latitud Origen": 15.75761131, "Longitud Origen": -85.7511352, "Usuario Origen": "Henry Javier Hernandez Rodriguez/dago/Cuñado T" }, "geometry": { "type": "Point", "coordinates": [ -85.7511352, 15.75761131 ] } },
{ "type": "Feature", "properties": { "Latitud Origen": 15.76044444, "Longitud Origen": -86.7610556, "Usuario Origen": "Henrry Javier Hernandez Rodriguez" }, "geometry": { "type": "Point", "coordinates": [ -86.7610556, 15.76044444 ] } },
{ "type": "Feature", "properties": { "Latitud Origen": 15.76044444, "Longitud Origen": -86.7610556, "Usuario Origen": "Henry Javier Hernandez Rodriguez/dago/Cuñado T" }, "geometry": { "type": "Point", "coordinates": [ -86.7610556, 15.76044444 ] } },
{ "type": "Feature", "properties": { "Latitud Origen": 15.76044444, "Longitud Origen": -86.7610556, "Usuario Origen": "Henry Javier Hernandez Rodriguez/Luis Alfonso Suares" }, "geometry": { "type": "Point", "coordinates": [ -86.7610556, 15.76044444 ] } },
{ "type": "Feature", "properties": { "Latitud Origen": 15.76105398, "Longitud Origen": -86.8095558, "Usuario Origen": "Henry Javier Hernandez Rodriguez/dago/Cuñado T" }, "geometry": { "type": "Point", "coordinates": [ -86.8095558, 15.76105398 ] } },
{ "type": "Feature", "properties": { "Latitud Origen": 15.76224908, "Longitud Origen": -86.8200824, "Usuario Origen": "Henrry Javier Hernandez Rodriguez" }, "geometry": { "type": "Point", "coordinates": [ -86.8200824, 15.76224908 ] } },
{ "type": "Feature", "properties": { "Latitud Origen": 15.76224908, "Longitud Origen": -86.8200824, "Usuario Origen": "Henry Javier Hernandez Rodriguez/dago/Cuñado T" }, "geometry": { "type": "Point", "coordinates": [ -86.8200824, 15.76224908 ] } },
{ "type": "Feature", "properties": { "Latitud Origen": 15.762472, "Longitud Origen": -86.788549, "Usuario Origen": "Henry Javier Hernandez Rodriguez/Luis Alfonso Suares" }, "geometry": { "type": "Point", "coordinates": [ -86.788549, 15.762472 ] } },
{ "type": "Feature", "properties": { "Latitud Origen": 15.7636, "Longitud Origen": -86.78868, "Usuario Origen": "Henry Javier Hernandez Rodriguez/dago/Cuñado T" }, "geometry": { "type": "Point", "coordinates": [ -86.78868, 15.7636 ] } },
{ "type": "Feature", "properties": { "Latitud Origen": 15.76375169, "Longitud Origen": -87.4812194, "Usuario Origen": "Henrry Javier Hernandez Rodriguez" }, "geometry": { "type": "Point", "coordinates": [ -87.4812194, 15.76375169 ] } },
{ "type": "Feature", "properties": { "Latitud Origen": 15.76375169, "Longitud Origen": -87.4812194, "Usuario Origen": "Henry Javier Hernandez Rodriguez/dago/Cuñado T" }, "geometry": { "type": "Point", "coordinates": [ -87.4812194, 15.76375169 ] } },
{ "type": "Feature", "properties": { "Latitud Origen": 15.7665274, "Longitud Origen": -86.775662, "Usuario Origen": "Henrry Javier Hernandez Rodriguez" }, "geometry": { "type": "Point", "coordinates": [ -86.775662, 15.7665274 ] } },
{ "type": "Feature", "properties": { "Latitud Origen": 15.7665274, "Longitud Origen": -86.775662, "Usuario Origen": "Henry Javier Hernandez Rodriguez/dago/Cuñado T" }, "geometry": { "type": "Point", "coordinates": [ -86.775662, 15.7665274 ] } },
{ "type": "Feature", "properties": { "Latitud Origen": 15.7665274, "Longitud Origen": -86.775662, "Usuario Origen": "Henry Javier Hernandez Rodriguez/Luis Alfonso Suares" }, "geometry": { "type": "Point", "coordinates": [ -86.775662, 15.7665274 ] } },
{ "type": "Feature", "properties": { "Latitud Origen": 15.76717, "Longitud Origen": -86.76979, "Usuario Origen": "Henrry Javier Hernandez Rodriguez" }, "geometry": { "type": "Point", "coordinates": [ -86.76979, 15.76717 ] } },
{ "type": "Feature", "properties": { "Latitud Origen": 15.767172, "Longitud Origen": -86.769789, "Usuario Origen": "Henry Javier Hernandez Rodriguez/dago/Cuñado T" }, "geometry": { "type": "Point", "coordinates": [ -86.769789, 15.767172 ] } },
{ "type": "Feature", "properties": { "Latitud Origen": 15.76869444, "Longitud Origen": -86.7411667, "Usuario Origen": "Henrry Javier Hernandez Rodriguez" }, "geometry": { "type": "Point", "coordinates": [ -86.7411667, 15.76869444 ] } },
{ "type": "Feature", "properties": { "Latitud Origen": 15.769583, "Longitud Origen": -86.798, "Usuario Origen": "Henry Javier Hernandez Rodriguez/dago/Cuñado T" }, "geometry": { "type": "Point", "coordinates": [ -86.798, 15.769583 ] } },
{ "type": "Feature", "properties": { "Latitud Origen": 15.76966796, "Longitud Origen": -87.4409687, "Usuario Origen": "Henrry Javier Hernandez Rodriguez" }, "geometry": { "type": "Point", "coordinates": [ -87.4409687, 15.76966796 ] } },
{ "type": "Feature", "properties": { "Latitud Origen": 15.76966796, "Longitud Origen": -87.4409687, "Usuario Origen": "Henry Javier Hernandez Rodriguez/dago/Cuñado T" }, "geometry": { "type": "Point", "coordinates": [ -87.4409687, 15.76966796 ] } },
{ "type": "Feature", "properties": { "Latitud Origen": 15.76966796, "Longitud Origen": -87.4409687, "Usuario Origen": "Henry Javier Hernandez Rodriguez/Luis Alfonso Suares" }, "geometry": { "type": "Point", "coordinates": [ -87.4409687, 15.76966796 ] } },
{ "type": "Feature", "properties": { "Latitud Origen": 15.7698164, "Longitud Origen": -86.7898648, "Usuario Origen": "Henry Javier Hernandez Rodriguez/dago/Cuñado T" }, "geometry": { "type": "Point", "coordinates": [ -86.7898648, 15.7698164 ] } },
{ "type": "Feature", "properties": { "Latitud Origen": 15.7698164, "Longitud Origen": -86.7898648, "Usuario Origen": "Henry Javier Hernandez Rodriguez/Luis Alfonso Suares" }, "geometry": { "type": "Point", "coordinates": [ -86.7898648, 15.7698164 ] } },
{ "type": "Feature", "properties": { "Latitud Origen": 15.771551, "Longitud Origen": -86.79142, "Usuario Origen": "Henry Javier Hernandez Rodriguez/dago/Cuñado T" }, "geometry": { "type": "Point", "coordinates": [ -86.79142, 15.771551 ] } },
{ "type": "Feature", "properties": { "Latitud Origen": 15.77161044, "Longitud Origen": -86.8062503, "Usuario Origen": "Henry Javier Hernandez Rodriguez/dago/Cuñado T" }, "geometry": { "type": "Point", "coordinates": [ -86.8062503, 15.77161044 ] } },
{ "type": "Feature", "properties": { "Latitud Origen": 15.77327872, "Longitud Origen": -86.7826379, "Usuario Origen": "Henrry Javier Hernandez Rodriguez" }, "geometry": { "type": "Point", "coordinates": [ -86.7826379, 15.77327872 ] } },
{ "type": "Feature", "properties": { "Latitud Origen": 15.77327872, "Longitud Origen": -86.7826379, "Usuario Origen": "Henry Javier Hernandez Rodriguez/dago/Cuñado T" }, "geometry": { "type": "Point", "coordinates": [ -86.7826379, 15.77327872 ] } },
{ "type": "Feature", "properties": { "Latitud Origen": 15.77327872, "Longitud Origen": -86.7826379, "Usuario Origen": "Henry Javier Hernandez Rodriguez/Luis Alfonso Suares" }, "geometry": { "type": "Point", "coordinates": [ -86.7826379, 15.77327872 ] } },
{ "type": "Feature", "properties": { "Latitud Origen": 15.774301, "Longitud Origen": -86.774598, "Usuario Origen": "Henrry Javier Hernandez Rodriguez" }, "geometry": { "type": "Point", "coordinates": [ -86.774598, 15.774301 ] } },
{ "type": "Feature", "properties": { "Latitud Origen": 15.77433581, "Longitud Origen": -86.7984961, "Usuario Origen": "Henry Javier Hernandez Rodriguez/dago/Cuñado T" }, "geometry": { "type": "Point", "coordinates": [ -86.7984961, 15.77433581 ] } },
{ "type": "Feature", "properties": { "Latitud Origen": 15.775247, "Longitud Origen": -86.774667, "Usuario Origen": "Henry Javier Hernandez Rodriguez/dago/Cuñado T" }, "geometry": { "type": "Point", "coordinates": [ -86.774667, 15.775247 ] } },
{ "type": "Feature", "properties": { "Latitud Origen": 15.77586111, "Longitud Origen": -86.793, "Usuario Origen": "Henry Javier Hernandez Rodriguez/dago/Cuñado T" }, "geometry": { "type": "Point", "coordinates": [ -86.793, 15.77586111 ] } },
{ "type": "Feature", "properties": { "Latitud Origen": 15.77608333, "Longitud Origen": -86.8091667, "Usuario Origen": "Henry Javier Hernandez Rodriguez/dago/Cuñado T" }, "geometry": { "type": "Point", "coordinates": [ -86.8091667, 15.77608333 ] } },
{ "type": "Feature", "properties": { "Latitud Origen": 15.77724722, "Longitud Origen": -86.8015556, "Usuario Origen": "Henry Javier Hernandez Rodriguez/dago/Cuñado T" }, "geometry": { "type": "Point", "coordinates": [ -86.8015556, 15.77724722 ] } },
{ "type": "Feature", "properties": { "Latitud Origen": 15.7775, "Longitud Origen": -86.7823333, "Usuario Origen": "Henry Javier Hernandez Rodriguez/dago/Cuñado T" }, "geometry": { "type": "Point", "coordinates": [ -86.7823333, 15.7775 ] } },
{ "type": "Feature", "properties": { "Latitud Origen": 15.777558, "Longitud Origen": -86.785994, "Usuario Origen": "Henry Javier Hernandez Rodriguez/Luis Alfonso Suares" }, "geometry": { "type": "Point", "coordinates": [ -86.785994, 15.777558 ] } },
{ "type": "Feature", "properties": { "Latitud Origen": 15.777806, "Longitud Origen": -86.769802, "Usuario Origen": "Henrry Javier Hernandez Rodriguez" }, "geometry": { "type": "Point", "coordinates": [ -86.769802, 15.777806 ] } },
{ "type": "Feature", "properties": { "Latitud Origen": 15.777806, "Longitud Origen": -86.769802, "Usuario Origen": "Henry Javier Hernandez Rodriguez/Luis Alfonso Suares" }, "geometry": { "type": "Point", "coordinates": [ -86.769802, 15.777806 ] } },
{ "type": "Feature", "properties": { "Latitud Origen": 15.77780628, "Longitud Origen": -86.7698024, "Usuario Origen": "Henry Javier Hernandez Rodriguez/dago/Cuñado T" }, "geometry": { "type": "Point", "coordinates": [ -86.7698024, 15.77780628 ] } },
{ "type": "Feature", "properties": { "Latitud Origen": 15.77780628, "Longitud Origen": -86.7698024, "Usuario Origen": "Henry Javier Hernandez Rodriguez/Luis Alfonso Suares" }, "geometry": { "type": "Point", "coordinates": [ -86.7698024, 15.77780628 ] } },
{ "type": "Feature", "properties": { "Latitud Origen": 15.77803063, "Longitud Origen": -85.7880306, "Usuario Origen": "Henrry Javier Hernandez Rodriguez" }, "geometry": { "type": "Point", "coordinates": [ -85.7880306, 15.77803063 ] } },
{ "type": "Feature", "properties": { "Latitud Origen": 15.77803063, "Longitud Origen": -85.7880306, "Usuario Origen": "Henry Javier Hernandez Rodriguez/dago/Cuñado T" }, "geometry": { "type": "Point", "coordinates": [ -85.7880306, 15.77803063 ] } },
{ "type": "Feature", "properties": { "Latitud Origen": 15.77803063, "Longitud Origen": -85.7880306, "Usuario Origen": "Henry Javier Hernandez Rodriguez/Luis Alfonso Suares" }, "geometry": { "type": "Point", "coordinates": [ -85.7880306, 15.77803063 ] } },
{ "type": "Feature", "properties": { "Latitud Origen": 15.77810833, "Longitud Origen": -87.3947167, "Usuario Origen": "Henry Javier Hernandez Rodriguez/dago/Cuñado T" }, "geometry": { "type": "Point", "coordinates": [ -87.3947167, 15.77810833 ] } },
{ "type": "Feature", "properties": { "Latitud Origen": 15.77810833, "Longitud Origen": -87.3947167, "Usuario Origen": "Henry Javier Hernandez Rodriguez/Luis Alfonso Suares" }, "geometry": { "type": "Point", "coordinates": [ -87.3947167, 15.77810833 ] } },
{ "type": "Feature", "properties": { "Latitud Origen": 15.77861111, "Longitud Origen": -86.7874444, "Usuario Origen": "Henry Javier Hernandez Rodriguez/dago/Cuñado T" }, "geometry": { "type": "Point", "coordinates": [ -86.7874444, 15.77861111 ] } },
{ "type": "Feature", "properties": { "Latitud Origen": 15.779779, "Longitud Origen": -86.79103, "Usuario Origen": "Henry Javier Hernandez Rodriguez/dago/Cuñado T" }, "geometry": { "type": "Point", "coordinates": [ -86.79103, 15.779779 ] } },
{ "type": "Feature", "properties": { "Latitud Origen": 15.78138889, "Longitud Origen": -87.4511111, "Usuario Origen": "Henrry Javier Hernandez Rodriguez" }, "geometry": { "type": "Point", "coordinates": [ -87.4511111, 15.78138889 ] } },
{ "type": "Feature", "properties": { "Latitud Origen": 15.78269444, "Longitud Origen": -86.7915833, "Usuario Origen": "Henry Javier Hernandez Rodriguez/dago/Cuñado T" }, "geometry": { "type": "Point", "coordinates": [ -86.7915833, 15.78269444 ] } },
{ "type": "Feature", "properties": { "Latitud Origen": 15.78269594, "Longitud Origen": -86.6545044, "Usuario Origen": "Henry Javier Hernandez Rodriguez/dago/Cuñado T" }, "geometry": { "type": "Point", "coordinates": [ -86.6545044, 15.78269594 ] } },
{ "type": "Feature", "properties": { "Latitud Origen": 15.78269594, "Longitud Origen": -86.6545044, "Usuario Origen": "Henry Javier Hernandez Rodriguez/Luis Alfonso Suares" }, "geometry": { "type": "Point", "coordinates": [ -86.6545044, 15.78269594 ] } },
{ "type": "Feature", "properties": { "Latitud Origen": 15.78461111, "Longitud Origen": -86.7912778, "Usuario Origen": "Henry Javier Hernandez Rodriguez/dago/Cuñado T" }, "geometry": { "type": "Point", "coordinates": [ -86.7912778, 15.78461111 ] } },
{ "type": "Feature", "properties": { "Latitud Origen": 15.78536111, "Longitud Origen": -86.78625, "Usuario Origen": "Henry Javier Hernandez Rodriguez/dago/Cuñado T" }, "geometry": { "type": "Point", "coordinates": [ -86.78625, 15.78536111 ] } },
{ "type": "Feature", "properties": { "Latitud Origen": 15.78647222, "Longitud Origen": -85.9841667, "Usuario Origen": "Henry Javier Hernandez Rodriguez/dago/Cuñado T" }, "geometry": { "type": "Point", "coordinates": [ -85.9841667, 15.78647222 ] } },
{ "type": "Feature", "properties": { "Latitud Origen": 15.7865, "Longitud Origen": -86.7944167, "Usuario Origen": "Henry Javier Hernandez Rodriguez/dago/Cuñado T" }, "geometry": { "type": "Point", "coordinates": [ -86.7944167, 15.7865 ] } },
{ "type": "Feature", "properties": { "Latitud Origen": 15.787062, "Longitud Origen": -86.784984, "Usuario Origen": "Henry Javier Hernandez Rodriguez/dago/Cuñado T" }, "geometry": { "type": "Point", "coordinates": [ -86.784984, 15.787062 ] } },
{ "type": "Feature", "properties": { "Latitud Origen": 15.78772617, "Longitud Origen": -86.7900239, "Usuario Origen": "Henry Javier Hernandez Rodriguez/dago/Cuñado T" }, "geometry": { "type": "Point", "coordinates": [ -86.7900239, 15.78772617 ] } },
{ "type": "Feature", "properties": { "Latitud Origen": 15.78777752, "Longitud Origen": -86.5808272, "Usuario Origen": "Henry Javier Hernandez Rodriguez/dago/Cuñado T" }, "geometry": { "type": "Point", "coordinates": [ -86.5808272, 15.78777752 ] } },
{ "type": "Feature", "properties": { "Latitud Origen": 15.79338889, "Longitud Origen": -86.7866667, "Usuario Origen": "Henry Javier Hernandez Rodriguez/dago/Cuñado T" }, "geometry": { "type": "Point", "coordinates": [ -86.7866667, 15.79338889 ] } },
{ "type": "Feature", "properties": { "Latitud Origen": 15.81027778, "Longitud Origen": -85.1043611, "Usuario Origen": "Henrry Javier Hernandez Rodriguez" }, "geometry": { "type": "Point", "coordinates": [ -85.1043611, 15.81027778 ] } },
{ "type": "Feature", "properties": { "Latitud Origen": 15.81227778, "Longitud Origen": -85.4332222, "Usuario Origen": "Henrry Javier Hernandez Rodriguez" }, "geometry": { "type": "Point", "coordinates": [ -85.4332222, 15.81227778 ] } },
{ "type": "Feature", "properties": { "Latitud Origen": 15.81733333, "Longitud Origen": -85.3743889, "Usuario Origen": "Henrry Javier Hernandez Rodriguez" }, "geometry": { "type": "Point", "coordinates": [ -85.3743889, 15.81733333 ] } },
{ "type": "Feature", "properties": { "Latitud Origen": 15.84758333, "Longitud Origen": -85.8755833, "Usuario Origen": "Henry Javier Hernandez Rodriguez/dago/Cuñado T" }, "geometry": { "type": "Point", "coordinates": [ -85.8755833, 15.84758333 ] } },
{ "type": "Feature", "properties": { "Latitud Origen": 15.86327778, "Longitud Origen": -85.81525, "Usuario Origen": "Henrry Javier Hernandez Rodriguez" }, "geometry": { "type": "Point", "coordinates": [ -85.81525, 15.86327778 ] } },
{ "type": "Feature", "properties": { "Latitud Origen": 15.86327778, "Longitud Origen": -85.81525, "Usuario Origen": "Henry Javier Hernandez Rodriguez/dago/Cuñado T" }, "geometry": { "type": "Point", "coordinates": [ -85.81525, 15.86327778 ] } },
{ "type": "Feature", "properties": { "Latitud Origen": 15.86327778, "Longitud Origen": -85.81525, "Usuario Origen": "Henry Javier Hernandez Rodriguez/Luis Alfonso Suares" }, "geometry": { "type": "Point", "coordinates": [ -85.81525, 15.86327778 ] } },
{ "type": "Feature", "properties": { "Latitud Origen": 15.87188951, "Longitud Origen": -85.9578588, "Usuario Origen": "Henry Javier Hernandez Rodriguez/dago/Cuñado T" }, "geometry": { "type": "Point", "coordinates": [ -85.9578588, 15.87188951 ] } },
{ "type": "Feature", "properties": { "Latitud Origen": 15.87530556, "Longitud Origen": -85.1359444, "Usuario Origen": "Henrry Javier Hernandez Rodriguez" }, "geometry": { "type": "Point", "coordinates": [ -85.1359444, 15.87530556 ] } },
{ "type": "Feature", "properties": { "Latitud Origen": 15.892169, "Longitud Origen": -86.063396, "Usuario Origen": "Henry Javier Hernandez Rodriguez/dago/Cuñado T" }, "geometry": { "type": "Point", "coordinates": [ -86.063396, 15.892169 ] } },
{ "type": "Feature", "properties": { "Latitud Origen": 15.90352778, "Longitud Origen": -85.7373333, "Usuario Origen": "Henry Javier Hernandez Rodriguez/dago/Cuñado T" }, "geometry": { "type": "Point", "coordinates": [ -85.7373333, 15.90352778 ] } },
{ "type": "Feature", "properties": { "Latitud Origen": 15.91309, "Longitud Origen": -85.95362, "Usuario Origen": "Henrry Javier Hernandez Rodriguez" }, "geometry": { "type": "Point", "coordinates": [ -85.95362, 15.91309 ] } },
{ "type": "Feature", "properties": { "Latitud Origen": 15.91309, "Longitud Origen": -85.95362, "Usuario Origen": "Henry Javier Hernandez Rodriguez/dago/Cuñado T" }, "geometry": { "type": "Point", "coordinates": [ -85.95362, 15.91309 ] } },
{ "type": "Feature", "properties": { "Latitud Origen": 15.91969444, "Longitud Origen": -85.94675, "Usuario Origen": "Henry Javier Hernandez Rodriguez/dago/Cuñado T" }, "geometry": { "type": "Point", "coordinates": [ -85.94675, 15.91969444 ] } },
{ "type": "Feature", "properties": { "Latitud Origen": 15.92029, "Longitud Origen": -85.95526, "Usuario Origen": "Henry Javier Hernandez Rodriguez/dago/Cuñado T" }, "geometry": { "type": "Point", "coordinates": [ -85.95526, 15.92029 ] } },
{ "type": "Feature", "properties": { "Latitud Origen": 15.92091667, "Longitud Origen": -85.8637222, "Usuario Origen": "Henrry Javier Hernandez Rodriguez" }, "geometry": { "type": "Point", "coordinates": [ -85.8637222, 15.92091667 ] } },
{ "type": "Feature", "properties": { "Latitud Origen": 15.92091667, "Longitud Origen": -85.8637222, "Usuario Origen": "Henry Javier Hernandez Rodriguez/dago/Cuñado T" }, "geometry": { "type": "Point", "coordinates": [ -85.8637222, 15.92091667 ] } },
{ "type": "Feature", "properties": { "Latitud Origen": 15.92091667, "Longitud Origen": -85.8637222, "Usuario Origen": "Henry Javier Hernandez Rodriguez/Luis Alfonso Suares" }, "geometry": { "type": "Point", "coordinates": [ -85.8637222, 15.92091667 ] } },
{ "type": "Feature", "properties": { "Latitud Origen": 15.95119444, "Longitud Origen": -85.6984167, "Usuario Origen": "Henry Javier Hernandez Rodriguez/dago/Cuñado T" }, "geometry": { "type": "Point", "coordinates": [ -85.6984167, 15.95119444 ] } },
{ "type": "Feature", "properties": { "Latitud Origen": 16.01044444, "Longitud Origen": -85.9516389, "Usuario Origen": "Henry Javier Hernandez Rodriguez/dago/Cuñado T" }, "geometry": { "type": "Point", "coordinates": [ -85.9516389, 16.01044444 ] } }
]
}
