{
"type": "FeatureCollection",
"name": "prueba",
"crs": { "type": "name", "properties": { "name": "urn:ogc:def:crs:OGC:1.3:CRS84" } },
"features": [
{ "type": "Feature", "properties": { "id": 1 }, "geometry": { "type": "MultiLineString", "coordinates": [ [ [ -88.196962161784512, 14.651462366985637 ], [ -88.196953155404657, 14.651465142393791 ], [ -88.196944199971412, 14.651468069898105 ], [ -88.196935298194333, 14.651471148612821 ], [ -88.196926452766789, 14.651474377606437 ], [ -88.196917666365039, 14.651477755901992 ], [ -88.196908941647564, 14.651481282477338 ], [ -88.196900281254088, 14.651484956265467 ], [ -88.19689168780495, 14.651488776154848 ], [ -88.196883163900168, 14.651492740989712 ], [ -88.196874712118799, 14.651496849570455 ], [ -88.196866335018001, 14.651501100653988 ], [ -88.196858035132379, 14.651505492954085 ], [ -88.196849814973191, 14.65151002514181 ], [ -88.196841677027521, 14.651514695845893 ], [ -88.196833623757612, 14.65151950365316 ], [ -88.196825657600101, 14.651524447108965 ], [ -88.196817780965233, 14.651529524717578 ], [ -88.196809996236183, 14.651534734942727 ], [ -88.196802305768344, 14.651540076208002 ], [ -88.196794711888558, 14.651545546897326 ], [ -88.19678721689445, 14.651551145355482 ], [ -88.196779823053717, 14.651556869888598 ], [ -88.196772532603475, 14.651562718764628 ], [ -88.196765347749562, 14.651568690213937 ], [ -88.196758270665839, 14.651574782429797 ], [ -88.196751303493585, 14.651580993568919 ], [ -88.196744448340795, 14.651587321752046 ], [ -88.196737707281599, 14.651593765064531 ], [ -88.196731082355583, 14.651600321556856 ], [ -88.196724575567259, 14.651606989245273 ], [ -88.196718188885285, 14.651613766112392 ], [ -88.196711924242095, 14.651620650107796 ], [ -88.196705783533133, 14.65162763914863 ], [ -88.196699768616327, 14.651634731120293 ], [ -88.196693881311631, 14.65164192387701 ], [ -88.196688123400278, 14.651649215242516 ], [ -88.196682496624462, 14.651656603010736 ], [ -88.196677002686627, 14.651664084946391 ], [ -88.196671643249061, 14.651671658785739 ], [ -88.196666419933308, 14.651679322237207 ], [ -88.196661334319813, 14.651687072982137 ], [ -88.196656387947257, 14.651694908675429 ], [ -88.196651582312285, 14.651702826946295 ], [ -88.196646918868908, 14.651710825398972 ], [ -88.196642399028121, 14.65171890161341 ], [ -88.196638024157465, 14.651727053146065 ], [ -88.196633795580652, 14.651735277530571 ], [ -88.196629714577099, 14.651743572278541 ], [ -88.196625782381602, 14.651751934880288 ], [ -88.196622000183879, 14.6517603628056 ], [ -88.196618369128345, 14.651768853504503 ], [ -88.196614890313612, 14.651777404408019 ], [ -88.196611564792263, 14.651786012928957 ], [ -88.196608393570486, 14.651794676462705 ], [ -88.196605377607824, 14.651803392387995 ], [ -88.196602517816785, 14.65181215806771 ], [ -88.196599815062697, 14.651820970849661 ], [ -88.196597270163295, 14.65182982806744 ], [ -88.196594883888594, 14.651838727041177 ], [ -88.196592656960618, 14.651847665078366 ], [ -88.196590590053191, 14.651856639474678 ], [ -88.196588683791688, 14.651865647514802 ], [ -88.196586938752915, 14.651874686473223 ], [ -88.196585355464833, 14.651883753615087 ], [ -88.196583934406547, 14.651892846197001 ], [ -88.19658267600802, 14.651901961467889 ], [ -88.196581580650033, 14.651911096669796 ], [ -88.196580648663996, 14.651920249038744 ], [ -88.196579880331953, 14.651929415805553 ], [ -88.19657927588635, 14.651938594196702 ], [ -88.19657883551011, 14.651947781435133 ], [ -88.196578559336515, 14.651956974741131 ], [ -88.196578447449127, 14.651966171333115 ], [ -88.196578499881809, 14.651975368428552 ], [ -88.196578716618745, 14.651984563244708 ], [ -88.196579097594352, 14.651993752999585 ], [ -88.196579642693393, 14.652002934912678 ], [ -88.196580351750967, 14.652012106205879 ], [ -88.196581224552546, 14.652021264104276 ], [ -88.196582260834077, 14.652030405837031 ], [ -88.196583460282042, 14.652039528638168 ], [ -88.196584822533552, 14.652048629747469 ], [ -88.196586347176464, 14.65205770641125 ], [ -88.196588033749464, 14.652066755883247 ], [ -88.196589881742312, 14.652075775425406 ], [ -88.196591890595869, 14.652084762308741 ], [ -88.196594059702363, 14.652093713814137 ], [ -88.19659638840551, 14.652102627233189 ], [ -88.196598876000735, 14.65211149986901 ], [ -88.196601521735403, 14.652120329037063 ], [ -88.196604324809044, 14.652129112065941 ], [ -88.196607284373556, 14.652137846298233 ], [ -88.196610399533498, 14.652146529091253 ], [ -88.196613669346348, 14.6521551578179 ], [ -88.196617092822791, 14.652163729867421 ], [ -88.196620668927025, 14.652172242646234 ], [ -88.196624396577079, 14.652180693578648 ], [ -88.196628274645079, 14.65218908010773 ], [ -88.196632301957706, 14.652197399696004 ], [ -88.196636477296437, 14.65220564982625 ], [ -88.196640799397969, 14.652213828002274 ], [ -88.196645266954633, 14.652221931749651 ], [ -88.196649878614693, 14.652229958616463 ], [ -88.196654632982842, 14.652237906174072 ], [ -88.1966595286206, 14.652245772017821 ], [ -88.196664564046714, 14.652253553767769 ], [ -88.196669737737665, 14.652261249069461 ], [ -88.1966750481281, 14.652268855594539 ], [ -88.196680493611254, 14.65227637104155 ], [ -88.196686072539578, 14.652283793136574 ], [ -88.196691783225063, 14.652291119633952 ], [ -88.196697623939869, 14.652298348316933 ], [ -88.196703592916819, 14.65230547699838 ], [ -88.196727840005082, 14.652332828126244 ], [ -88.196751597910307, 14.65236058318253 ], [ -88.1967748595345, 14.652388733875215 ], [ -88.196797617927913, 14.652417271794127 ], [ -88.19681986629115, 14.65244618841335 ], [ -88.196841597977212, 14.652475475093869 ], [ -88.196862806493399, 14.652505123086081 ], [ -88.196883485503335, 14.652535123532441 ], [ -88.196903628828821, 14.65256546747012 ], [ -88.196923230451688, 14.652596145833634 ], [ -88.196942284515615, 14.652627149457627 ], [ -88.196960785327832, 14.652658469079517 ], [ -88.196978727360872, 14.652690095342351 ], [ -88.196996105254172, 14.652722018797537 ], [ -88.197012913815755, 14.652754229907712 ], [ -88.197029148023674, 14.652786719049555 ], [ -88.197044803027595, 14.652819476516679 ], [ -88.197059874150227, 14.652852492522527 ], [ -88.197074356888677, 14.652885757203315 ], [ -88.197088246915868, 14.652919260620934 ], [ -88.197101540081775, 14.652952992765965 ], [ -88.197114232414705, 14.652986943560659 ], [ -88.197126320122422, 14.65302110286191 ], [ -88.197137799593349, 14.653055460464344 ], [ -88.197148667397641, 14.653090006103316 ], [ -88.197158920288118, 14.653124729458019 ], [ -88.197168555201415, 14.653159620154529 ], [ -88.19717756925867, 14.653194667768938 ], [ -88.197185959766585, 14.653229861830441 ], [ -88.197193724218138, 14.65326519182449 ], [ -88.197200860293293, 14.653300647195895 ], [ -88.197207365859796, 14.653336217352038 ], [ -88.197213238973774, 14.65337189166598 ], [ -88.197218477880213, 14.653407659479662 ], [ -88.197223081013689, 14.653443510107088 ], [ -88.19722704699862, 14.653479432837518 ], [ -88.197230374649834, 14.653515416938673 ], [ -88.197233062972856, 14.65355145165991 ], [ -88.197235111164204, 14.653587526235487 ], [ -88.197236518611646, 14.653623629887722 ], [ -88.197237284894371, 14.65365975183026 ], [ -88.197237409783142, 14.653695881271272 ], [ -88.197236893240301, 14.653732007416675 ], [ -88.197235735419909, 14.653768119473389 ], [ -88.197233936667516, 14.653804206652502 ], [ -88.197231497520221, 14.653840258172565 ], [ -88.197228418706416, 14.653876263262752 ], [ -88.197224701145643, 14.653912211166118 ], [ -88.197220345948253, 14.653948091142784 ], [ -88.197215354415093, 14.65398389247318 ], [ -88.197209728037109, 14.654019604461194 ], [ -88.19720346849499, 14.654055216437451 ], [ -88.197196577658488, 14.654090717762397 ], [ -88.197189057586073, 14.654126097829572 ], [ -88.197180910524111, 14.65416134606871 ], [ -88.197172138906353, 14.654196451948945 ], [ -88.197162745353168, 14.654231404981921 ], [ -88.197152732670645, 14.65426619472496 ], [ -88.197142103849956, 14.654300810784154 ], [ -88.197130862066288, 14.654335242817471 ], [ -88.197119010677994, 14.654369480537873 ], [ -88.197106553225552, 14.654403513716352 ], [ -88.197093493430501, 14.654437332185021 ], [ -88.197079835194387, 14.654470925840128 ], [ -88.197065582597489, 14.654504284645082 ], [ -88.197050739897719, 14.654537398633456 ], [ -88.197035311529277, 14.654570257911946 ], [ -88.197019302101339, 14.654602852663368 ], [ -88.197002716396696, 14.654635173149542 ], [ -88.196985559370333, 14.654667209714225 ], [ -88.196967836147905, 14.654698952786015 ], [ -88.196949552024222, 14.654730392881172 ], [ -88.196930712461736, 14.654761520606483 ], [ -88.196911323088798, 14.654792326662033 ], [ -88.196891389698038, 14.654822801844038 ], [ -88.196870918244656, 14.654852937047544 ], [ -88.196849914844606, 14.654882723269166 ], [ -88.196828385772733, 14.654912151609789 ], [ -88.196806337461013, 14.654941213277208 ], [ -88.196783776496503, 14.654969899588766 ], [ -88.196760709619454, 14.654998201973957 ], [ -88.196737143721279, 14.655026111976952 ], [ -88.196713085842489, 14.655053621259169 ], [ -88.196688543170595, 14.655080721601733 ], [ -88.196663523037927, 14.655107404907952 ], [ -88.196638032919509, 14.655133663205721 ], [ -88.196612080430768, 14.655159488649909 ], [ -88.196585673325302, 14.655184873524712 ], [ -88.196558819492509, 14.655209810245942 ], [ -88.196531526955283, 14.655234291363312 ], [ -88.196452511750778, 14.65528452726457 ], [ -88.196374392010057, 14.655336073530659 ], [ -88.196297190657589, 14.655388915035722 ], [ -88.196220930348431, 14.65544303627382 ], [ -88.196145633461498, 14.655498421363458 ], [ -88.196071322093061, 14.655555054052249 ], [ -88.19599801805029, 14.655612917721704 ], [ -88.195925742844778, 14.655671995392073 ], [ -88.195854517686257, 14.655732269727361 ], [ -88.195784363476378, 14.655793723040388 ], [ -88.195715300802618, 14.655856337298005 ], [ -88.195647349932145, 14.655920094126344 ], [ -88.195580530805984, 14.655984974816263 ], [ -88.195514863033054, 14.656050960328775 ], [ -88.195450365884497, 14.656118031300695 ], [ -88.195387058288006, 14.656186168050274 ], [ -88.195324958822212, 14.65625535058299 ], [ -88.195264085711287, 14.656325558597423 ], [ -88.195204456819638, 14.656396771491204 ], [ -88.195146089646528, 14.656468968367061 ], [ -88.195089001321065, 14.656542128038939 ], [ -88.195033208597152, 14.656616229038239 ], [ -88.194978727848493, 14.656691249620099 ], [ -88.194925575063877, 14.656767167769775 ], [ -88.194873765842445, 14.656843961209125 ], [ -88.194823315389129, 14.656921607403099 ], [ -88.194774238510178, 14.657000083566411 ], [ -88.194784559147379, 14.657017169464886 ], [ -88.194794575412601, 14.657034426200653 ], [ -88.194804284323141, 14.657051848634993 ], [ -88.194813682987785, 14.657069431579826 ], [ -88.194822768607722, 14.657087169799293 ], [ -88.194831538477345, 14.657105058011279 ], [ -88.194839989985098, 14.657123090889018 ], [ -88.194848120614182, 14.657141263062657 ], [ -88.194855927943394, 14.657159569120861 ], [ -88.194863409647766, 14.657178003612426 ], [ -88.194870563499293, 14.6571965610479 ], [ -88.194877387367654, 14.657215235901235 ], [ -88.194883879220697, 14.657234022611389 ], [ -88.194890037125219, 14.657252915584037 ], [ -88.19489585924741, 14.657271909193195 ], [ -88.194901343853473, 14.657290997782907 ], [ -88.194906489310085, 14.657310175668938 ], [ -88.194911294084946, 14.65732943714046 ], [ -88.194915756747221, 14.65734877646177 ], [ -88.194919875967884, 14.657368187873944 ], [ -88.194923650520238, 14.657387665596627 ], [ -88.194927079280177, 14.657407203829688 ], [ -88.194930161226594, 14.657426796754988 ], [ -88.194932895441653, 14.657446438538111 ], [ -88.194935281111071, 14.657466123330076 ], [ -88.194937317524335, 14.657485845269084 ], [ -88.194939004074939, 14.657505598482299 ], [ -88.194940340260544, 14.657525377087559 ], [ -88.194941325683217, 14.657545175195118 ], [ -88.194941960049377, 14.657564986909458 ], [ -88.194942243170061, 14.657584806330988 ], [ -88.194942174960815, 14.657604627557816 ], [ -88.194941755441903, 14.657624444687521 ], [ -88.194940984738139, 14.657644251818891 ], [ -88.194939863078929, 14.657664043053703 ], [ -88.1949383907982, 14.657683812498449 ], [ -88.194936568334256, 14.657703554266126 ], [ -88.194934396229712, 14.657723262477958 ], [ -88.194931875131303, 14.657742931265174 ], [ -88.19492900578966, 14.657762554770713 ], [ -88.194925789059141, 14.657782127151028 ], [ -88.194922225897542, 14.657801642577786 ], [ -88.194918317365833, 14.6578210952396 ], [ -88.194914064627781, 14.657840479343779 ], [ -88.194909468949731, 14.657859789118051 ], [ -88.194904531700089, 14.657879018812274 ], [ -88.194899254349011, 14.657898162700146 ], [ -88.194893638467917, 14.657917215080925 ], [ -88.194887685729029, 14.657936170281104 ], [ -88.194881397904908, 14.657955022656122 ], [ -88.194874776867863, 14.657973766592038 ], [ -88.194867824589465, 14.657992396507188 ], [ -88.194860543139896, 14.658010906853876 ], [ -88.19485293468739, 14.658029292120007 ], [ -88.194845001497541, 14.658047546830719 ], [ -88.194836745932633, 14.658065665550048 ], [ -88.194828170450975, 14.658083642882497 ], [ -88.194819277606157, 14.658101473474693 ], [ -88.194810070046245, 14.658119152016946 ], [ -88.194800550513023, 14.658136673244851 ], [ -88.194790721841187, 14.65815403194085 ], [ -88.194780586957521, 14.658171222935763 ], [ -88.194712184017746, 14.65824722263428 ], [ -88.194645137980658, 14.658324359891861 ], [ -88.194579468803553, 14.658402611749212 ], [ -88.19451519603399, 14.658481954915247 ], [ -88.194452338803941, 14.658562365774028 ], [ -88.194390915824144, 14.658643820391804 ], [ -88.194330945378482, 14.658726294524124 ], [ -88.19427244531856, 14.65880976362304 ], [ -88.194215433058417, 14.658894202844436 ], [ -88.194159925569281, 14.658979587055404 ], [ -88.194105939374538, 14.659065890841742 ], [ -88.194053490544889, 14.659153088515493 ], [ -88.19400259469343, 14.659241154122615 ], [ -88.193953266971121, 14.659330061450678 ], [ -88.193905522062181, 14.659419784036713 ], [ -88.193859374179794, 14.659510295175011 ], [ -88.193814837061836, 14.659601567925151 ], [ -88.193771923966793, 14.659693575119967 ], [ -88.193730647669796, 14.659786289373653 ], [ -88.193691020458843, 14.659879683089917 ], [ -88.193653054131119, 14.659973728470179 ], [ -88.19361675998951, 14.660068397521853 ], [ -88.19358214883917, 14.660163662066671 ], [ -88.193549230984416, 14.660259493749104 ], [ -88.193518016225539, 14.660355864044744 ], [ -88.193488513855954, 14.660452744268847 ], [ -88.193460732659403, 14.660550105584832 ], [ -88.193434680907359, 14.6606479190129 ], [ -88.193410366356559, 14.660746155438604 ], [ -88.193387796246682, 14.660844785621594 ], [ -88.193366977298155, 14.66094378020424 ], [ -88.193347915710248, 14.661043109720428 ], [ -88.193330617159148, 14.661142744604296 ], [ -88.193315086796247, 14.661242655199068 ], [ -88.193301329246694, 14.66134281176582 ], [ -88.193289348607934, 14.661443184492411 ], [ -88.193279148448525, 14.661543743502307 ], [ -88.19327073180709, 14.661644458863474 ], [ -88.193264101191332, 14.661745300597298 ], [ -88.193259258577385, 14.661846238687533 ], [ -88.193256205409156, 14.66194724308918 ], [ -88.193254942597903, 14.662048283737466 ], [ -88.19325547052199, 14.66214933055681 ], [ -88.193257789026745, 14.662250353469737 ], [ -88.193261897424478, 14.66235132240584 ], [ -88.193265711091726, 14.662387539636525 ], [ -88.193268876547137, 14.662423816012719 ], [ -88.193271392830965, 14.662460140539544 ], [ -88.193273259180231, 14.662496502207528 ], [ -88.193274475028957, 14.662532889995957 ], [ -88.193275040008302, 14.662569292876166 ], [ -88.193274953946741, 14.662605699814918 ], [ -88.193274216869995, 14.662642099777759 ], [ -88.193272829001174, 14.662678481732316 ], [ -88.193270790760565, 14.662714834651688 ], [ -88.193268102765629, 14.662751147517765 ], [ -88.193264765830733, 14.662787409324574 ], [ -88.193260780966952, 14.662823609081594 ], [ -88.193256149381725, 14.662859735817136 ], [ -88.193250872478487, 14.662895778581603 ], [ -88.193244951856315, 14.662931726450868 ], [ -88.193238389309343, 14.662967568529552 ], [ -88.19323118682631, 14.663003293954333 ], [ -88.193223346589861, 14.663038891897253 ], [ -88.193214870975979, 14.663074351568959 ], [ -88.193205762553205, 14.663109662222036 ], [ -88.193196024081928, 14.663144813154194 ], [ -88.193185658513443, 14.663179793711576 ], [ -88.193174668989144, 14.663214593291942 ], [ -88.193163058839531, 14.663249201347904 ], [ -88.193150831583225, 14.663283607390122 ], [ -88.193137990925891, 14.663317800990477 ], [ -88.193124540759101, 14.663351771785216 ], [ -88.193110485159181, 14.663385509478156 ], [ -88.193095828385978, 14.6634190038437 ], [ -88.193080574881506, 14.663452244730047 ], [ -88.193064729268698, 14.663485222062192 ], [ -88.193048296349929, 14.663517925845001 ], [ -88.193031281105604, 14.663550346166272 ], [ -88.193013688692602, 14.663582473199694 ], [ -88.192995524442807, 14.663614297207845 ], [ -88.192976793861348, 14.663645808545137 ], [ -88.192957502625049, 14.663676997660763 ], [ -88.192937656580682, 14.663707855101562 ], [ -88.19291726174319, 14.663738371514887 ], [ -88.192896324293827, 14.66376853765148 ], [ -88.19287485057832, 14.663798344368216 ], [ -88.192852847104973, 14.663827782630904 ], [ -88.192830320542626, 14.663856843517042 ], [ -88.192807277718686, 14.663885518218496 ], [ -88.192783725617062, 14.663913798044163 ], [ -88.192759671375995, 14.663941674422647 ], [ -88.192735122285981, 14.663969138904807 ], [ -88.192710085787439, 14.663996183166354 ], [ -88.192684569468554, 14.664022799010349 ], [ -88.192658581063, 14.664048978369715 ], [ -88.192632128447471, 14.664074713309665 ], [ -88.192601839373296, 14.664087634874932 ], [ -88.192571785014422, 14.664101065830691 ], [ -88.192541974408954, 14.664115002137937 ], [ -88.192512416521737, 14.664129439605709 ], [ -88.192483120241576, 14.664144373892325 ], [ -88.192454094378647, 14.664159800506695 ], [ -88.192425347661796, 14.664175714809677 ], [ -88.192396888735928, 14.664192112015455 ], [ -88.192368726159415, 14.664208987193009 ], [ -88.192340868401473, 14.66422633526758 ], [ -88.192313323839741, 14.664244151022183 ], [ -88.192286100757627, 14.664262429099194 ], [ -88.192259207341849, 14.664281164001947 ], [ -88.192232651680044, 14.664300350096404 ], [ -88.192206441758231, 14.664319981612842 ], [ -88.192180585458516, 14.66434005264759 ], [ -88.192155090556639, 14.664360557164791 ], [ -88.192129964719641, 14.664381488998224 ], [ -88.192105215503659, 14.664402841853175 ], [ -88.192080850351488, 14.664424609308297 ], [ -88.192056876590499, 14.664446784817594 ], [ -88.192033301430328, 14.664469361712305 ], [ -88.192010131960757, 14.664492333203002 ], [ -88.191987375149608, 14.664515692381574 ], [ -88.191965037840561, 14.664539432223316 ], [ -88.19194312675117, 14.664563545589049 ], [ -88.191921648470824, 14.664588025227262 ], [ -88.191900609458756, 14.664612863776297 ], [ -88.19188001604212, 14.664638053766549 ], [ -88.191859874414035, 14.664663587622742 ], [ -88.191840190631837, 14.664689457666162 ], [ -88.191820970615083, 14.664715656117009 ], [ -88.191802220143941, 14.664742175096714 ], [ -88.191783944857377, 14.664769006630312 ], [ -88.191766150251425, 14.664796142648846 ], [ -88.191748841677594, 14.664823574991782 ], [ -88.191732024341235, 14.664851295409477 ], [ -88.191715703299963, 14.664879295565644 ], [ -88.191699883462178, 14.664907567039869 ], [ -88.191684569585547, 14.664936101330159 ], [ -88.191669766275552, 14.664964889855451 ], [ -88.191655477984199, 14.664993923958248 ], [ -88.191641709008564, 14.665023194907176 ], [ -88.191628463489593, 14.665052693899664 ], [ -88.191615745410814, 14.665082412064519 ], [ -88.191603558597095, 14.665112340464653 ], [ -88.191591906713626, 14.665142470099759 ], [ -88.191580793264663, 14.665172791908983 ], [ -88.191570221592556, 14.665203296773701 ], [ -88.191560194876772, 14.665233975520225 ], [ -88.191550716132852, 14.665264818922561 ], [ -88.191541788211552, 14.665295817705211 ], [ -88.191533413798027, 14.665326962545929 ], [ -88.191525595410923, 14.665358244078563 ], [ -88.191518335401724, 14.665389652895826 ], [ -88.191511635953944, 14.665421179552171 ], [ -88.191505499082567, 14.665452814566583 ], [ -88.191499926633398, 14.665484548425482 ], [ -88.191494920282437, 14.665516371585529 ], [ -88.191490481535538, 14.665548274476572 ], [ -88.191486611727797, 14.665580247504428 ], [ -88.191483312023237, 14.665612281053843 ], [ -88.191480583414418, 14.665644365491355 ], [ -88.191478426722185, 14.665676491168179 ], [ -88.191476842595378, 14.665708648423157 ], [ -88.191475831510616, 14.665740827585596 ], [ -88.191475393772251, 14.665773018978239 ], [ -88.191475529512147, 14.665805212920118 ], [ -88.191476238689745, 14.665837399729513 ], [ -88.191476745699219, 14.665890421564622 ], [ -88.19147632626904, 14.665943444124629 ], [ -88.191474980519885, 14.665996452069086 ], [ -88.191472708840408, 14.666049430061765 ], [ -88.19146951188722, 14.666102362775082 ], [ -88.191465390584554, 14.666155234894555 ], [ -88.191460346124146, 14.666208031123213 ], [ -88.191454379964796, 14.666260736186025 ], [ -88.191447493831959, 14.666313334834346 ], [ -88.191439689717257, 14.666365811850287 ], [ -88.191430969877942, 14.666418152051143 ], [ -88.191421336836186, 14.666470340293797 ], [ -88.191410793378367, 14.666522361479061 ], [ -88.191399342554277, 14.666574200556086 ], [ -88.191386987676253, 14.666625842526701 ], [ -88.191373732318198, 14.666677272449736 ], [ -88.191359580314511, 14.666728475445389 ], [ -88.191344535759058, 14.666779436699469 ], [ -88.191328603003939, 14.666830141467733 ], [ -88.191311786658247, 14.666880575080132 ], [ -88.191294091586713, 14.666930722945059 ], [ -88.191275522908313, 14.666980570553564 ], [ -88.191256085994794, 14.667030103483571 ], [ -88.191235786469122, 14.667079307404018 ], [ -88.191214630203831, 14.667128168079044 ], [ -88.191192623319353, 14.66717667137207 ], [ -88.191169772182235, 14.667224803249924 ], [ -88.191146083403297, 14.667272549786851 ], [ -88.191121563835736, 14.667319897168612 ], [ -88.191096220573087, 14.667366831696425 ], [ -88.191070060947283, 14.667413339790956 ], [ -88.1910430925264, 14.667459407996212 ], [ -88.19101532311258, 14.667505022983503 ], [ -88.190938730045005, 14.667628387859322 ], [ -88.190860022162923, 14.667750484686264 ], [ -88.190779221608778, 14.667871279109759 ], [ -88.190696351113957, 14.667990737141634 ], [ -88.190611433992359, 14.668108825169648 ], [ -88.190524494133882, 14.668225509967019 ], [ -88.190435555997681, 14.668340758701696 ], [ -88.190344644605275, 14.668454538945674 ], [ -88.190251785533547, 14.668566818684054 ], [ -88.190157004907505, 14.668677566324106 ], [ -88.190060329392949, 14.668786750704117 ], [ -88.189961786189031, 14.668894341102188 ], [ -88.189861403020487, 14.669000307244884 ], [ -88.1897592081299, 14.669104619315728 ], [ -88.189655230269807, 14.669207247963614 ], [ -88.189549498694504, 14.669308164311074 ], [ -88.189442043151899, 14.669407339962365 ], [ -88.189332893875118, 14.669504747011521 ], [ -88.189222081573945, 14.669600358050157 ], [ -88.189186034198741, 14.669628468150959 ], [ -88.18915049567471, 14.669657185740286 ], [ -88.189115476803153, 14.669686502090089 ], [ -88.189080988227516, 14.66971640829038 ], [ -88.189047040429998, 14.669746895251865 ], [ -88.189013643728543, 14.669777953708742 ], [ -88.188980808273527, 14.669809574221523 ], [ -88.188948544044862, 14.669841747179881 ], [ -88.188916860848764, 14.669874462805579 ], [ -88.188885768314918, 14.669907711155444 ], [ -88.18885527589353, 14.669941482124393 ], [ -88.188825392852351, 14.669975765448511 ], [ -88.188796128274021, 14.670010550708112 ], [ -88.188767491053156, 14.670045827330998 ], [ -88.188739489893763, 14.670081584595618 ], [ -88.188712133306538, 14.670117811634324 ], [ -88.188685429606224, 14.67015449743668 ], [ -88.188659386909237, 14.670191630852816 ], [ -88.188634013131065, 14.670229200596824 ], [ -88.188609315983868, 14.670267195250169 ], [ -88.188585302974232, 14.670305603265161 ], [ -88.188561981400795, 14.670344412968483 ], [ -88.188539358352031, 14.670383612564702 ], [ -88.188517440704189, 14.670423190139914 ], [ -88.188496235119104, 14.670463133665297 ], [ -88.188475748042165, 14.670503431000808 ], [ -88.188455985700429, 14.670544069898877 ], [ -88.188436954100723, 14.670585038008101 ], [ -88.188418659027732, 14.670626322877002 ], [ -88.188401106042349, 14.67066791195785 ], [ -88.188384300479882, 14.670709792610424 ], [ -88.188368247448537, 14.670751952105894 ], [ -88.188352951827753, 14.670794377630648 ], [ -88.188338418266824, 14.670837056290248 ], [ -88.188324651183393, 14.670879975113285 ], [ -88.188311654762202, 14.670923121055345 ], [ -88.188299432953741, 14.670966481003004 ], [ -88.188287989473082, 14.671010041777759 ], [ -88.18827732779873, 14.671053790140085 ], [ -88.188267451171626, 14.671097712793415 ], [ -88.188258362594027, 14.671141796388207 ], [ -88.188250064828779, 14.671186027525998 ], [ -88.188242560398308, 14.671230392763476 ], [ -88.188235851583968, 14.671274878616561 ], [ -88.188229940425273, 14.671319471564498 ], [ -88.188224828719314, 14.671364158053985 ], [ -88.188220518020188, 14.671408924503272 ], [ -88.188217009638592, 14.671453757306308 ], [ -88.188213480364283, 14.671939584496293 ], [ -88.188218429515857, 14.672425399924835 ], [ -88.188231855721028, 14.672911063378729 ], [ -88.18825375516073, 14.673396434687684 ], [ -88.188284121570234, 14.673881373764845 ], [ -88.188322946240888, 14.674365740647218 ], [ -88.188370218022484, 14.674849395536036 ], [ -88.188425923326548, 14.675332198837172 ], [ -88.188429803887686, 14.675393008549921 ], [ -88.188434767279347, 14.675453743596361 ], [ -88.188440812009262, 14.675514385705284 ], [ -88.188447936259848, 14.675574916633412 ], [ -88.18845613788875, 14.675635318170904 ], [ -88.188465414429515, 14.675695572146831 ], [ -88.188475763092285, 14.675755660434628 ], [ -88.188487180764696, 14.67581556495759 ], [ -88.188499664012738, 14.67587526769425 ], [ -88.188513209081862, 14.675934750683854 ], [ -88.188527811898027, 14.675993996031732 ], [ -88.188543468069042, 14.676052985914701 ], [ -88.188560172885744, 14.6761117025864 ], [ -88.188577921323514, 14.676170128382674 ], [ -88.188596708043789, 14.676228245726826 ], [ -88.188616527395595, 14.676286037134975 ], [ -88.188637373417293, 14.676343485221267 ], [ -88.188659239838387, 14.676400572703104 ], [ -88.188682120081381, 14.676457282406394 ], [ -88.188706007263775, 14.676513597270658 ], [ -88.188730894200091, 14.676569500354194 ], [ -88.188756773404094, 14.67662497483917 ], [ -88.188783637091049, 14.676680004036681 ], [ -88.188811477179968, 14.676734571391783 ], [ -88.188840285296138, 14.676788660488434 ], [ -88.188870052773609, 14.676842255054487 ], [ -88.188900770657781, 14.676895338966553 ], [ -88.188932429708117, 14.676947896254847 ], [ -88.188965020400929, 14.676999911108021 ], [ -88.188998532932217, 14.67705136787789 ], [ -88.189032957220647, 14.677102251084161 ], [ -88.189068282910569, 14.677152545419084 ], [ -88.189104499375105, 14.677202235752059 ], [ -88.189141595719406, 14.677251307134179 ], [ -88.18917956078387, 14.677299744802735 ], [ -88.189218383147548, 14.677347534185675 ], [ -88.18925805113156, 14.677394660905954 ], [ -88.189298552802569, 14.677441110785871 ], [ -88.189339875976444, 14.677486869851359 ], [ -88.189383507659358, 14.677516561801662 ], [ -88.189426611542402, 14.677546975521727 ], [ -88.189469175027426, 14.677578102122538 ], [ -88.18951118567422, 14.677609932506686 ], [ -88.189552631204123, 14.677642457371089 ], [ -88.189593499503644, 14.677675667209686 ], [ -88.189633778627993, 14.677709552316218 ], [ -88.189673456804528, 14.677744102787042 ], [ -88.189712522436253, 14.677779308524073 ], [ -88.189750964105173, 14.67781515923769 ], [ -88.189788770575646, 14.677851644449763 ], [ -88.189825930797696, 14.677888753496719 ], [ -88.18986243391015, 14.677926475532649 ], [ -88.189898269243898, 14.677964799532472 ], [ -88.189933426325041, 14.678003714295183 ], [ -88.189967894877796, 14.678043208447104 ], [ -88.190001664827676, 14.6780832704452 ], [ -88.190034726304333, 14.678123888580494 ], [ -88.190067069644471, 14.678165050981418 ], [ -88.190098685394688, 14.678206745617382 ], [ -88.190129564314176, 14.678248960302174 ], [ -88.19015969737751, 14.678291682697626 ], [ -88.190189075777212, 14.678334900317148 ], [ -88.190217690926403, 14.678378600529415 ], [ -88.190245534461184, 14.678422770562051 ], [ -88.19027259824324, 14.678467397505345 ], [ -88.190298874362114, 14.678512468316049 ], [ -88.190324355137534, 14.678557969821165 ], [ -88.190349033121677, 14.67860388872182 ], [ -88.19037290110137, 14.678650211597139 ], [ -88.190395952100118, 14.678696924908163 ], [ -88.190418179380245, 14.678744015001817 ], [ -88.190426028647309, 14.678754441330069 ], [ -88.190433691052021, 14.678764998558622 ], [ -88.190441164291201, 14.678775683514244 ], [ -88.19044844611858, 14.67878649298531 ], [ -88.190455534345404, 14.678797423722761 ], [ -88.19046242684108, 14.6788084724411 ], [ -88.19046912153388, 14.678819635819359 ], [ -88.190475616411533, 14.678830910502096 ], [ -88.190481909521793, 14.678842293100439 ], [ -88.190487998973097, 14.678853780193059 ], [ -88.190493882935058, 14.678865368327227 ], [ -88.190499559639093, 14.678877054019837 ], [ -88.190505027378876, 14.678888833758458 ], [ -88.190510284510921, 14.678900704002396 ], [ -88.190515329455039, 14.678912661183762 ], [ -88.190520160694803, 14.67892470170851 ], [ -88.190524776778034, 14.67893682195756 ], [ -88.190529176317213, 14.678949018287875 ], [ -88.190533357989906, 14.67896128703353 ], [ -88.190537320539178, 14.678973624506842 ], [ -88.190541062773931, 14.678986026999478 ], [ -88.190544583569348, 14.678998490783547 ], [ -88.190547881867076, 14.679011012112737 ], [ -88.190550956675722, 14.679023587223465 ], [ -88.190553807071026, 14.679036212335932 ], [ -88.190556432196189, 14.67904888365536 ], [ -88.190558831262123, 14.679061597373039 ], [ -88.190561003547714, 14.679074349667541 ], [ -88.190562948399958, 14.679087136705851 ], [ -88.190564665234234, 14.679099954644476 ], [ -88.190566153534476, 14.67911279963066 ], [ -88.190567412853312, 14.679125667803509 ], [ -88.190568442812165, 14.679138555295157 ], [ -88.190569243101422, 14.679151458231939 ], [ -88.190569813480479, 14.679164372735535 ], [ -88.190570153777855, 14.679177294924159 ], [ -88.19057026389126, 14.679190220913704 ], [ -88.190570143787511, 14.679203146818933 ], [ -88.190569793502689, 14.67921606875462 ], [ -88.190569213142027, 14.679228982836738 ], [ -88.190568402879947, 14.679241885183618 ], [ -88.190567362959953, 14.679254771917124 ], [ -88.190566093694557, 14.679267639163797 ], [ -88.190564595465261, 14.679280483056054 ], [ -88.190562868722324, 14.679293299733313 ], [ -88.190560913984754, 14.679306085343198 ], [ -88.190558731840042, 14.679318836042627 ], [ -88.190556322944033, 14.679331547999064 ], [ -88.190553688020785, 14.679344217391566 ], [ -88.190550827862253, 14.679356840412012 ], [ -88.190547743328054, 14.679369413266233 ], [ -88.19054443534533, 14.679381932175096 ], [ -88.190540904908318, 14.679394393375715 ], [ -88.190537153078168, 14.679406793122535 ], [ -88.190533180982555, 14.679419127688483 ], [ -88.190528989815334, 14.679431393366066 ], [ -88.190524580836282, 14.679443586468491 ], [ -88.190519955370547, 14.679455703330806 ], [ -88.190515114808449, 14.679467740310949 ], [ -88.190510060604907, 14.679479693790874 ], [ -88.19050479427905, 14.679491560177636 ], [ -88.190499317413781, 14.679503335904464 ], [ -88.190493631655301, 14.679515017431845 ], [ -88.190487738712562, 14.679526601248567 ], [ -88.19048164035685, 14.679538083872798 ], [ -88.190475338421152, 14.679549461853121 ], [ -88.190468834799645, 14.679560731769563 ], [ -88.190462131447148, 14.679571890234639 ], [ -88.190455230378504, 14.679582933894352 ], [ -88.190448133667999, 14.679593859429238 ], [ -88.190440843448712, 14.679604663555308 ], [ -88.190433361911886, 14.679615343025095 ], [ -88.190425691306288, 14.679625894628566 ], [ -88.190417833937502, 14.679636315194157 ], [ -88.190409792167245, 14.679646601589665 ], [ -88.190401568412682, 14.67965675072322 ], [ -88.190393165145665, 14.679666759544226 ], [ -88.190384584891987, 14.679676625044236 ], [ -88.190375830230693, 14.679686344257904 ], [ -88.190366903793191, 14.67969591426383 ], [ -88.190357808262576, 14.67970533218549 ], [ -88.190348546372746, 14.679714595192053 ], [ -88.190339120907566, 14.679723700499261 ], [ -88.19032953470014, 14.679732645370253 ], [ -88.190205989706456, 14.679817914976523 ], [ -88.190080971037801, 14.679901124371824 ], [ -88.189954514944375, 14.679982249427471 ], [ -88.189826658093267, 14.680061266619155 ], [ -88.189697437557868, 14.680138153033765 ], [ -88.189566890807185, 14.680212886376015 ], [ -88.189435055694872, 14.680285444974915 ], [ -88.189301970448327, 14.680355807790081 ], [ -88.189167673657536, 14.680423954417805 ], [ -88.189032204263953, 14.680489865096996 ], [ -88.188895601549177, 14.680553520714914 ], [ -88.188757905123524, 14.680614902812705 ], [ -88.188619154914633, 14.680673993590727 ], [ -88.188479391155752, 14.680730775913787 ], [ -88.188338654374178, 14.680785233316039 ], [ -88.188196985379491, 14.680837350005799 ], [ -88.188054425251622, 14.680887110870119 ], [ -88.187911015329078, 14.680934501479147 ], [ -88.187774073696445, 14.681079205096982 ], [ -88.187639635627164, 14.681226116581611 ], [ -88.187507738684261, 14.681375194890983 ], [ -88.187378419721028, 14.681526398377599 ], [ -88.18725171487084, 14.681679684800169 ], [ -88.187127659536955, 14.681835011335368 ], [ -88.187006288382676, 14.681992334589824 ], [ -88.186887635321625, 14.682151610612239 ], [ -88.186771733508323, 14.682312794905654 ], [ -88.186720763861516, 14.682447237124702 ], [ -88.186672125405067, 14.682582495213781 ], [ -88.186625831916558, 14.682718530871353 ], [ -88.186581896509566, 14.682855305575606 ], [ -88.186540331630056, 14.682992780595363 ], [ -88.186501149052702, 14.683130917001076 ], [ -88.186464359877689, 14.683269675675819 ], [ -88.186429974527471, 14.683409017326383 ], [ -88.186398002743871, 14.683548902494394 ], [ -88.186368453585246, 14.683689291567491 ], [ -88.186341335424018, 14.683830144790532 ], [ -88.186316655944225, 14.683971422276871 ], [ -88.186294422139326, 14.684113084019629 ], [ -88.186274640310316, 14.684255089903045 ], [ -88.186309856850386, 14.684330327175205 ], [ -88.186343740195369, 14.684406142359927 ], [ -88.186376280340099, 14.684482513073322 ], [ -88.186407467675977, 14.68455941676743 ], [ -88.186437292993759, 14.684636830736927 ], [ -88.186465747486324, 14.684714732125824 ], [ -88.186492822751219, 14.684793097934181 ], [ -88.186518510793206, 14.68487190502494 ], [ -88.186542804026573, 14.684951130130711 ], [ -88.186565695277395, 14.68503074986068 ], [ -88.186587177785654, 14.685110740707493 ], [ -88.186607245207199, 14.685191079054212 ], [ -88.186625891615719, 14.685271741181266 ], [ -88.186643111504381, 14.685352703273461 ], [ -88.186658899787503, 14.68543394142703 ], [ -88.186673251802119, 14.685515431656667 ], [ -88.186686163309247, 14.685597149902614 ], [ -88.186697630495203, 14.685679072037773 ], [ -88.186707649972732, 14.685761173874811 ], [ -88.186716218781982, 14.685843431173328 ], [ -88.186723334391445, 14.68592581964699 ], [ -88.186728994698584, 14.686008314970708 ], [ -88.186733198030609, 14.686090892787815 ], [ -88.186735943144811, 14.686173528717269 ], [ -88.186737229229081, 14.686256198360837 ], [ -88.186737055902071, 14.686338877310314 ], [ -88.186669041966084, 14.686520948241808 ], [ -88.186604196541822, 14.686704111347492 ], [ -88.186542538134091, 14.686888314381411 ], [ -88.186484084338787, 14.687073504800864 ], [ -88.186428851837832, 14.687259629781357 ], [ -88.186376856394403, 14.68744663623167 ], [ -88.186328112848429, 14.687634470809005 ], [ -88.186282635112363, 14.687823079934217 ], [ -88.186240436167139, 14.688012409807058 ], [ -88.186201528058561, 14.688202406421558 ], [ -88.186165921893817, 14.688393015581426 ], [ -88.186133627838231, 14.688584182915472 ], [ -88.186104655112487, 14.688775853893167 ], [ -88.186079011989847, 14.688967973840157 ], [ -88.186056705793888, 14.689160487953881 ], [ -88.18601707540347, 14.689269836465803 ], [ -88.185975612491021, 14.689378539224391 ], [ -88.185932328152219, 14.689486567132978 ], [ -88.18588723397032, 14.68959389127547 ], [ -88.18584034201308, 14.689700482924112 ], [ -88.185791664829537, 14.68980631354718 ], [ -88.185741215446583, 14.689911354816612 ], [ -88.185689007365625, 14.69001557861557 ], [ -88.185635054558816, 14.690118957046019 ], [ -88.185579371465394, 14.690221462436133 ], [ -88.185521972987857, 14.69032306734775 ], [ -88.185462874487868, 14.690423744583718 ], [ -88.185402091782251, 14.690523467195124 ], [ -88.185339641138725, 14.690622208488568 ], [ -88.185275539271487, 14.690719942033279 ], [ -88.185135925051441, 14.690985798458176 ], [ -88.184991915446517, 14.691249424092005 ], [ -88.184843548048619, 14.69151075008835 ], [ -88.184690861588152, 14.691769708201086 ], [ -88.184533895923835, 14.692026230802194 ], [ -88.184372692032312, 14.692280250899433 ], [ -88.184207291997538, 14.692531702153838 ], [ -88.184037738999734, 14.692780518897059 ], [ -88.183864077304136, 14.693026636148513 ], [ -88.183686352249467, 14.693269989632348 ], [ -88.183504610236056, 14.693510515794262 ], [ -88.18344294923682, 14.693595496061912 ], [ -88.183379779217745, 14.693679419635961 ], [ -88.183315119285183, 14.693762261130436 ], [ -88.183248988996297, 14.693843995486667 ], [ -88.183181408353036, 14.693924597980853 ], [ -88.183112397796165, 14.694004044231523 ], [ -88.183041978199029, 14.694082310206932 ], [ -88.182970170861296, 14.694159372232324 ], [ -88.182896997502425, 14.694235206997103 ], [ -88.182822480255211, 14.694309791561878 ], [ -88.182746641658994, 14.694383103365382 ], [ -88.182669504652907, 14.694455120231353 ], [ -88.182591092568899, 14.694525820375196 ], [ -88.182511429124702, 14.694595182410577 ], [ -88.182430538416639, 14.694663185355916 ], [ -88.182348444912321, 14.694729808640728 ], [ -88.182265173443298, 14.69479503211182 ], [ -88.182180749197514, 14.69485883603944 ], [ -88.182095197711661, 14.69492120112319 ], [ -88.182008544863535, 14.694982108497904 ], [ -88.181958979801266, 14.695000938235438 ], [ -88.181909746542601, 14.695020575437013 ], [ -88.181860858969785, 14.695041014565632 ], [ -88.181812330867601, 14.695062249858191 ], [ -88.181764175919497, 14.695084275327057 ], [ -88.181716407703689, 14.695107084761835 ], [ -88.181669039689382, 14.695130671731029 ], [ -88.181622085232974, 14.69515502958394 ], [ -88.181575557574206, 14.695180151452474 ], [ -88.181529469832526, 14.695206030253123 ], [ -88.181483835003377, 14.695232658688937 ], [ -88.18143866595446, 14.695260029251587 ], [ -88.181393975422196, 14.695288134223496 ], [ -88.181349776008105, 14.695316965679998 ], [ -88.181306080175176, 14.695346515491563 ], [ -88.181262900244491, 14.69537677532613 ], [ -88.181220248391654, 14.695407736651411 ], [ -88.181178136643354, 14.695439390737317 ], [ -88.181136576874067, 14.69547172865842 ], [ -88.181095580802605, 14.695504741296473 ], [ -88.18105515998883, 14.695538419342965 ], [ -88.181015325830472, 14.695572753301761 ], [ -88.180672431822288, 14.695556816647622 ], [ -88.180329308689636, 14.69554656670973 ], [ -88.179986055955183, 14.695542006463057 ], [ -88.176351896383949, 14.695376850947609 ] ] ] } }
]
}
