{
"type": "FeatureCollection",
"name": "TMK",
"crs": { "type": "name", "properties": { "name": "urn:ogc:def:crs:OGC:1.3:CRS84" } },
"features": [
{ "type": "Feature", "properties": { "fid": 2, "id": 2, "etnia_id": 39, "etnia": "Miskito(Miskitu)" }, "geometry": { "type": "MultiPolygon", "coordinates": [ [ [ [ -84.794593812026079, 15.966299984076212 ], [ -84.787615538640352, 15.963740001522819 ], [ -84.781944282930922, 15.961659498958728 ], [ -84.755790703001864, 15.952150400729108 ], [ -84.72817230690606, 15.945856139048409 ], [ -84.697273259043527, 15.934443448841336 ], [ -84.678199750292805, 15.932391124192673 ], [ -84.671531675805539, 15.931394532538754 ], [ -84.659645069107285, 15.927109771136108 ], [ -84.645828247007586, 15.925573252155937 ], [ -84.638832096407228, 15.941330825817458 ], [ -84.599243177462725, 15.977201516223671 ], [ -84.555244428966333, 15.972759109580867 ], [ -84.525260925120165, 15.955841973739311 ], [ -84.513206494868555, 15.941495790666098 ], [ -84.522766128196267, 15.899255635442612 ], [ -84.516586313604776, 15.89779863588153 ], [ -84.50663758006111, 15.891680752932086 ], [ -84.449020392106306, 15.882233524262713 ], [ -84.414497390857889, 15.876743344948157 ], [ -84.353935273237681, 15.874163716385789 ], [ -84.303405725960332, 15.871230130622415 ], [ -84.283882107708379, 15.868215534431137 ], [ -84.269638055839337, 15.863418576743817 ], [ -84.254524247548659, 15.852145162479593 ], [ -84.232139612555088, 15.832466099878403 ], [ -84.226966861725572, 15.826859457174704 ], [ -84.219390832785422, 15.822606131734489 ], [ -84.176002473935284, 15.78741640361533 ], [ -84.163764951925089, 15.776174575794357 ], [ -84.140624963459061, 15.760172894865267 ], [ -84.10668945400856, 15.732483795068003 ], [ -84.051811189177045, 15.687425653535851 ], [ -84.035797091136203, 15.674281059553875 ], [ -84.021690385432748, 15.661162323698168 ], [ -83.979393030790945, 15.621340753054145 ], [ -83.955177294482056, 15.600231190852959 ], [ -83.934982280708027, 15.580560692812249 ], [ -83.919959990347365, 15.566040005498474 ], [ -83.891235348012998, 15.54440022600796 ], [ -83.876678500005013, 15.531268113385218 ], [ -83.855735791242324, 15.514813375444955 ], [ -83.838783297006145, 15.50256916076275 ], [ -83.82274627579497, 15.493106804107835 ], [ -83.81521609434121, 15.487459186440137 ], [ -83.807189936616822, 15.483188627141786 ], [ -83.797775269433998, 15.476128514259608 ], [ -83.776519796792627, 15.465664852844238 ], [ -83.753333997442439, 15.457016870507095 ], [ -83.737220749391682, 15.453087806284751 ], [ -83.712959319823838, 15.452267589865817 ], [ -83.691131626840075, 15.448249774385395 ], [ -83.675346376713392, 15.438781712467389 ], [ -83.666435266588451, 15.430801354478289 ], [ -83.657043434352943, 15.422814314393666 ], [ -83.648086591436552, 15.417601546209884 ], [ -83.636291520284843, 15.411423727330131 ], [ -83.628295828539351, 15.40576362697688 ], [ -83.614616424646002, 15.398632084962234 ], [ -83.608024632943639, 15.394377678979465 ], [ -83.594322173527786, 15.388629953906797 ], [ -83.585342405437558, 15.385261575834589 ], [ -83.569717419872092, 15.380867045033403 ], [ -83.547012385649026, 15.373131777793303 ], [ -83.533783005429896, 15.367849339867153 ], [ -83.529502891301846, 15.367782536334831 ], [ -83.498260521442049, 15.358986829827726 ], [ -83.474365170557931, 15.351687377289899 ], [ -83.44599912215601, 15.342006631187861 ], [ -83.409133897665541, 15.328956637611332 ], [ -83.382705622578911, 15.317455302676995 ], [ -83.360992466083118, 15.308335353867626 ], [ -83.345970204001787, 15.297476769685508 ], [ -83.333335904499279, 15.28619568183222 ], [ -83.322189268271529, 15.271247809045921 ], [ -83.313873277663205, 15.257268879966595 ], [ -83.303222602208905, 15.241404553043768 ], [ -83.297721811020423, 15.229779202286068 ], [ -83.291824391515746, 15.213993966834215 ], [ -83.289611858866138, 15.204729975013123 ], [ -83.286590591120515, 15.187147170858049 ], [ -83.282524068173814, 15.175083178381378 ], [ -83.27523809846555, 15.157429748523349 ], [ -83.267410341733424, 15.14345835727527 ], [ -83.257713331161582, 15.127610218866403 ], [ -83.243247994100741, 15.113067676666207 ], [ -83.230133012710411, 15.102698355610315 ], [ -83.216766373099532, 15.093247355249845 ], [ -83.206428481384748, 15.087077075380453 ], [ -83.188987798094715, 15.079863574456084 ], [ -83.16964714986122, 15.073078192589595 ], [ -83.161613442415756, 15.070634852586858 ], [ -83.145103499252514, 15.06481842535808 ], [ -83.134262140973092, 15.060481971784695 ], [ -83.122436504518845, 15.058433574591577 ], [ -83.102272071039621, 15.044710088480008 ], [ -83.088874801101682, 15.024642872732281 ], [ -83.077919070328051, 15.005160362985837 ], [ -83.12882805171148, 14.995493521896952 ], [ -83.136595684353935, 14.992157671745984 ], [ -83.148716620037234, 14.992259961574161 ], [ -83.160125183003927, 14.989869875685336 ], [ -83.171188207784596, 14.984990571244861 ], [ -83.186004154579535, 14.988678733862127 ], [ -83.19809020631395, 14.991741906226942 ], [ -83.203306227672229, 14.992017632346643 ], [ -83.205995304802755, 14.991805781735971 ], [ -83.213205801421822, 14.989974565050174 ], [ -83.2264638054627, 14.984836376612709 ], [ -83.234900229753677, 14.980076486947604 ], [ -83.236739042816424, 14.979533657830183 ], [ -83.239953052618816, 14.979936262822539 ], [ -83.253950779861867, 14.984713372449534 ], [ -83.266191789553858, 14.986452995248577 ], [ -83.273535778793473, 14.985620507798476 ], [ -83.276512981180318, 14.985165705901405 ], [ -83.277781880183028, 14.984079375456639 ], [ -83.278932043921941, 14.982139489915062 ], [ -83.280221422843994, 14.97861712772313 ], [ -83.281380691369108, 14.975581030225896 ], [ -83.285168236616116, 14.974636132978535 ], [ -83.288314630037107, 14.975025956016941 ], [ -83.291323042901752, 14.976876539096173 ], [ -83.292442708448704, 14.978590469254756 ], [ -83.29202729859459, 14.983094126585629 ], [ -83.289864325326761, 14.985635325506854 ], [ -83.284285431447458, 14.98985513185872 ], [ -83.27996913937956, 14.99371919683578 ], [ -83.277682956949349, 14.995893980121235 ], [ -83.276530662099589, 14.998077480200941 ], [ -83.278280371291899, 14.999796402990505 ], [ -83.283439960600546, 15.000567496354929 ], [ -83.288734865291559, 15.000243401842139 ], [ -83.29104155506721, 14.998976207102727 ], [ -83.298840121081966, 14.995502369965804 ], [ -83.301762568846868, 14.99461415922252 ], [ -83.306170597629034, 14.995306812188053 ], [ -83.314847969218647, 14.998782751168269 ], [ -83.322858868633659, 15.00075182796801 ], [ -83.335819524046855, 15.005402820516206 ], [ -83.345437994208226, 15.005415902425289 ], [ -83.349050929283834, 15.005491197339554 ], [ -83.349087286360401, 15.000961672537162 ], [ -83.34920277790394, 14.9979712135627 ], [ -83.351351479874822, 14.994226610862416 ], [ -83.353479362725466, 14.993473300594829 ], [ -83.35470346827033, 14.99519190641108 ], [ -83.355746500354741, 14.997421930980067 ], [ -83.357052102877162, 14.999995714217453 ], [ -83.358303308461245, 15.001740835139485 ], [ -83.35976273778229, 15.003776491603885 ], [ -83.363454416138836, 15.00552412071662 ], [ -83.366948205489521, 15.007908619335629 ], [ -83.373281245082353, 15.010691779620597 ], [ -83.381290495651228, 15.012924173739375 ], [ -83.389486842525372, 15.014319682714515 ], [ -83.391415534383071, 15.015124284974755 ], [ -83.40143334197019, 15.023218716753785 ], [ -83.40349404822247, 15.02422654660619 ], [ -83.408337540451228, 15.025067891409806 ], [ -83.40861363151005, 15.017368699240855 ], [ -83.407522328218235, 15.012799770377894 ], [ -83.407382685958538, 15.010908067438503 ], [ -83.40823263977839, 15.007936425803912 ], [ -83.409103409568019, 15.006395237720382 ], [ -83.411022142377192, 15.004830490244338 ], [ -83.413602087603905, 15.003270350962396 ], [ -83.421292336175384, 14.994599135091482 ], [ -83.424527139447875, 14.989318909873978 ], [ -83.429378999276622, 14.988757576015121 ], [ -83.432657202723433, 14.989958745676283 ], [ -83.436495437562442, 14.989990411846032 ], [ -83.438575415765641, 14.989416631392459 ], [ -83.446439245888698, 14.98590649115379 ], [ -83.455107029405596, 14.978599313876352 ], [ -83.456746464385049, 14.977658772073868 ], [ -83.467153941957605, 14.976214293023613 ], [ -83.472344364664082, 14.980160945973365 ], [ -83.475524306557389, 14.983215449256146 ], [ -83.480028342002015, 14.986236378193958 ], [ -83.480210705493889, 14.987126725482316 ], [ -83.48310399948609, 14.990619942476693 ], [ -83.485197631473412, 14.996839372885811 ], [ -83.490053108181982, 15.001600247296793 ], [ -83.495238227824942, 15.003113243867721 ], [ -83.501361869409962, 15.001677537841152 ], [ -83.508111690397243, 14.9981777625744 ], [ -83.515201031866098, 14.989952411409245 ], [ -83.519215046242252, 14.984426783451923 ], [ -83.522272884338776, 14.985968206133169 ], [ -83.525574943975698, 14.988868018162979 ], [ -83.527882294982675, 14.989706357996461 ], [ -83.532162123623351, 14.989220898375773 ], [ -83.531204618098755, 14.980382792646305 ], [ -83.528258358257148, 14.970191321712116 ], [ -83.535424458568187, 14.973092866676295 ], [ -83.541798385245599, 14.973417285437776 ], [ -83.545252045587645, 14.96860852218547 ], [ -83.545461640344271, 14.963336621439094 ], [ -83.543481876397152, 14.958024317256251 ], [ -83.539827742546038, 14.951161406226076 ], [ -83.537812487174051, 14.945080251532314 ], [ -83.541428108538767, 14.946914131107697 ], [ -83.546230994606958, 14.948312446140751 ], [ -83.549370913302042, 14.949133678729284 ], [ -83.550748239423868, 14.943437351937725 ], [ -83.545787010336326, 14.935996774105996 ], [ -83.546797769885231, 14.933539941034558 ], [ -83.554129736927578, 14.933293615091845 ], [ -83.562429028721539, 14.932502415217181 ], [ -83.564767991271708, 14.926943795252841 ], [ -83.565070615848043, 14.920929641132014 ], [ -83.564044491304045, 14.912585808038205 ], [ -83.565074885982128, 14.907682936476359 ], [ -83.56729043931638, 14.906518002210202 ], [ -83.56992704696674, 14.907036257016532 ], [ -83.574127745999832, 14.909658596451282 ], [ -83.575960091285339, 14.91016353660979 ], [ -83.577421615239686, 14.910237495850078 ], [ -83.579988523189002, 14.909091466624465 ], [ -83.583363960196621, 14.905057106822317 ], [ -83.588142296533931, 14.906726892580762 ], [ -83.591807067320318, 14.909601213160487 ], [ -83.598359269603264, 14.910498361924008 ], [ -83.60176438911688, 14.90823931005866 ], [ -83.601921433737431, 14.906814892023982 ], [ -83.601577248596058, 14.903249373058062 ], [ -83.600849185381151, 14.901961853135759 ], [ -83.599313441224268, 14.90024160594314 ], [ -83.598145622438892, 14.898594955380164 ], [ -83.599482621768175, 14.897035523412843 ], [ -83.603718078319417, 14.895761808634797 ], [ -83.609071898385807, 14.893563443373592 ], [ -83.618426331921739, 14.891362928286219 ], [ -83.619269771411581, 14.887791496007702 ], [ -83.618838358834253, 14.88646589388417 ], [ -83.615000289246865, 14.881113699834048 ], [ -83.615976197643377, 14.878804454429782 ], [ -83.61704177989435, 14.87718742655775 ], [ -83.619103621364502, 14.875359335153879 ], [ -83.621266602670715, 14.873293980129477 ], [ -83.623691471510327, 14.867765316557747 ], [ -83.625731268775709, 14.861496775446671 ], [ -83.627998662502947, 14.866406368542853 ], [ -83.630600552505797, 14.870118344497827 ], [ -83.63225668055405, 14.872438549739762 ], [ -83.634638341793291, 14.873377391184286 ], [ -83.636453611082857, 14.873927642163469 ], [ -83.640122757005102, 14.874566245893213 ], [ -83.64266757438422, 14.87470590271858 ], [ -83.646233089912712, 14.875786843215783 ], [ -83.647836838712308, 14.875985572196226 ], [ -83.652858905570071, 14.87562879980481 ], [ -83.654456508416558, 14.875075786535376 ], [ -83.657865391542686, 14.873193036612525 ], [ -83.661115765446539, 14.872368516483093 ], [ -83.67081186973823, 14.871491309959152 ], [ -83.677517238833033, 14.869372668645115 ], [ -83.684862528608647, 14.864284817746713 ], [ -83.689924533536526, 14.861989208791659 ], [ -83.695049420281151, 14.86580867075009 ], [ -83.698505404515245, 14.86696149300143 ], [ -83.700964263916944, 14.860596017509041 ], [ -83.700804626524345, 14.854149840937724 ], [ -83.701778426746856, 14.852024547024413 ], [ -83.703788945178928, 14.851158551657674 ], [ -83.706425395040895, 14.849557093056564 ], [ -83.710490027456331, 14.848657054256023 ], [ -83.714558952149787, 14.847063891768704 ], [ -83.715046516372524, 14.845449758686431 ], [ -83.71362551622029, 14.843593489231406 ], [ -83.709815799234477, 14.841954328007436 ], [ -83.705298532231424, 14.838924785790002 ], [ -83.705800671340285, 14.835000829470179 ], [ -83.706318758045356, 14.828536052488083 ], [ -83.71108899192977, 14.829257140914599 ], [ -83.717638486086685, 14.832898839604706 ], [ -83.720422969976511, 14.833069842136293 ], [ -83.72611780341893, 14.830928185867053 ], [ -83.736831246544426, 14.831607149682529 ], [ -83.738293079735499, 14.831262876683983 ], [ -83.739964247727045, 14.83127245858317 ], [ -83.740451575354157, 14.829658260247855 ], [ -83.73904318833533, 14.825723267805788 ], [ -83.737148940866817, 14.823171486992189 ], [ -83.73596391026399, 14.821778662060499 ], [ -83.735021712400197, 14.819694288446319 ], [ -83.735514725759785, 14.817156207841689 ], [ -83.738385091940117, 14.816248635433491 ], [ -83.74230506934083, 14.817810627040712 ], [ -83.750912090775415, 14.822837995826767 ], [ -83.753799980834771, 14.823678159630989 ], [ -83.755736746084125, 14.823709548920721 ], [ -83.760600819784145, 14.813687864923878 ], [ -83.764088315501397, 14.803298596850324 ], [ -83.766243922740543, 14.803137748191885 ], [ -83.769715692302157, 14.803901128343696 ], [ -83.774822330038418, 14.806584086325733 ], [ -83.782762004311977, 14.812908303979448 ], [ -83.784242135552404, 14.812781707963515 ], [ -83.786143918277943, 14.812027164231985 ], [ -83.787936186133166, 14.803010375103838 ], [ -83.788733883886991, 14.801790856129651 ], [ -83.791585962114993, 14.800735587848591 ], [ -83.796961264333717, 14.80076506469671 ], [ -83.801705024190468, 14.800637874287652 ], [ -83.804560571820218, 14.798970498768146 ], [ -83.805013806572788, 14.798754234583246 ], [ -83.798548997620998, 14.791235778003937 ], [ -83.803725031811979, 14.787031828298684 ], [ -83.814830815280715, 14.787774780467625 ], [ -83.820215568893445, 14.787429240901847 ], [ -83.821859472633662, 14.787436225397657 ], [ -83.827713936912204, 14.786549508574391 ], [ -83.83420846268784, 14.784289154260479 ], [ -83.836590909767168, 14.782312795054571 ], [ -83.841111645767455, 14.775769311549535 ], [ -83.850760990769416, 14.76876316081438 ], [ -83.862093783421813, 14.769238165126644 ], [ -83.866883205909545, 14.768023623499403 ], [ -83.873373710025589, 14.765101665763883 ], [ -83.878422933817376, 14.766037755818921 ], [ -83.87911366345493, 14.768305052911726 ], [ -83.880187718021176, 14.774277344445473 ], [ -83.880330850804199, 14.777032114221397 ], [ -83.88284764007858, 14.779339808653162 ], [ -83.886793898371977, 14.780430793439606 ], [ -83.889338032498713, 14.777689764558414 ], [ -83.890788748837778, 14.772495199477602 ], [ -83.891602189635847, 14.76821541901775 ], [ -83.89178416830714, 14.76377934890716 ], [ -83.893222391330099, 14.760879726045127 ], [ -83.896706425976745, 14.759673168041248 ], [ -83.900965235111045, 14.761377581642384 ], [ -83.903318262574757, 14.764755209312128 ], [ -83.906059640105155, 14.770469637718447 ], [ -83.906908429889171, 14.773340858730656 ], [ -83.909276275983331, 14.77396472260885 ], [ -83.915431616483332, 14.775831060342657 ], [ -83.920828735829261, 14.7715737451264 ], [ -83.924165074694571, 14.768377187520251 ], [ -83.929534779381214, 14.769321415074408 ], [ -83.934911654132705, 14.768888523489952 ], [ -83.937915032605318, 14.768903054090295 ], [ -83.937925290289698, 14.766914117877405 ], [ -83.938118088483037, 14.765308310848631 ], [ -83.931174511357597, 14.749272006203485 ], [ -83.931009532599504, 14.747613187378947 ], [ -83.931952182356426, 14.742759487074522 ], [ -83.940317091812148, 14.74509827042265 ], [ -83.949673932867029, 14.750607085691247 ], [ -83.95127535118101, 14.75111289664328 ], [ -83.9545780661999, 14.751314401589465 ], [ -83.972922080737973, 14.743743470735028 ], [ -83.979018352284541, 14.741974980593305 ], [ -83.980498957813339, 14.741859036205971 ], [ -83.987035972188821, 14.742707986786971 ], [ -83.991088142238709, 14.743977320590227 ], [ -84.002745325579241, 14.749474700318135 ], [ -84.004681002863094, 14.74986318880514 ], [ -84.008656492903086, 14.749188342379778 ], [ -84.011074774507023, 14.748283328693597 ], [ -84.019430695930282, 14.742764467205179 ], [ -84.02744873308697, 14.739300111324777 ], [ -84.032641459176929, 14.739293589969796 ], [ -84.041384604606165, 14.742045116888642 ], [ -84.044856870713758, 14.745251475819471 ], [ -84.045643051566714, 14.747427266457501 ], [ -84.045502427978136, 14.759733136285179 ], [ -84.046989286887978, 14.763787839400957 ], [ -84.052338678040499, 14.764701514175675 ], [ -84.062148781148068, 14.759642815849336 ], [ -84.066594215407676, 14.756989941687499 ], [ -84.07404918345712, 14.75467361383077 ], [ -84.078825249786277, 14.752831449123846 ], [ -84.082038495836244, 14.7537792459648 ], [ -84.083730853473028, 14.756309373556064 ], [ -84.085903749345064, 14.769752856593344 ], [ -84.084606328302897, 14.774590464958685 ], [ -84.084222800162991, 14.782837000020317 ], [ -84.097548653694005, 14.785399509578252 ], [ -84.108686057460204, 14.785399169588747 ], [ -84.117996427916069, 14.779954170628228 ], [ -84.118456488309221, 14.772668002005833 ], [ -84.116768698551425, 14.766482329113668 ], [ -84.112197110103097, 14.755245072984096 ], [ -84.107009291908795, 14.74468347314791 ], [ -84.102017771714387, 14.736139962811952 ], [ -84.100222692546453, 14.730766027679019 ], [ -84.100839937262748, 14.725001667925616 ], [ -84.107120072007902, 14.723425723484558 ], [ -84.124419599485321, 14.727765453346594 ], [ -84.12579572222873, 14.727661494894999 ], [ -84.133131416140117, 14.72591154064297 ], [ -84.136515905879676, 14.724301064501688 ], [ -84.141938637421703, 14.720011743973863 ], [ -84.145613332564267, 14.716335073846338 ], [ -84.149591536327463, 14.713973739734536 ], [ -84.169465802383513, 14.710366637510147 ], [ -84.177935030250069, 14.710924397424098 ], [ -84.179913932076445, 14.710604606564386 ], [ -84.185264394083788, 14.710473802286215 ], [ -84.19255907200332, 14.711441148794556 ], [ -84.199943183727669, 14.714026890198689 ], [ -84.20835341052053, 14.719737765293774 ], [ -84.2125186237582, 14.72413257686809 ], [ -84.219305131662239, 14.727577619367221 ], [ -84.229289100430449, 14.730057631419506 ], [ -84.222001049822595, 14.74741616282803 ], [ -84.22221673184066, 14.748983807624228 ], [ -84.22576201524744, 14.753903015686625 ], [ -84.230194613439892, 14.75589376442786 ], [ -84.234704461329855, 14.756834707627039 ], [ -84.238738885580702, 14.755475216761534 ], [ -84.263566648243071, 14.739131276848168 ], [ -84.26737981590415, 14.733967306052016 ], [ -84.269496246700257, 14.727567070044126 ], [ -84.269519194875002, 14.725342369391869 ], [ -84.267851008819434, 14.718430785049263 ], [ -84.265223189557673, 14.711893569355064 ], [ -84.262551394810373, 14.706633626647051 ], [ -84.260168202581738, 14.698721499098335 ], [ -84.259687615542347, 14.694580416598219 ], [ -84.260271529778791, 14.690525589873751 ], [ -84.262810631723013, 14.685901118839018 ], [ -84.262997956582694, 14.684831312556934 ], [ -84.262101400735631, 14.682297710889429 ], [ -84.257557081644961, 14.678565595396904 ], [ -84.254471086838791, 14.675355733965921 ], [ -84.25799602067373, 14.67136837755576 ], [ -84.263380675577324, 14.666987193293082 ], [ -84.271044956872203, 14.66021395966162 ], [ -84.279112677838413, 14.656041263096977 ], [ -84.285918247539925, 14.658463116874751 ], [ -84.289841466563402, 14.658475832737469 ], [ -84.296647926476339, 14.660697351028688 ], [ -84.299115596040565, 14.663704731896496 ], [ -84.301160101004115, 14.669710224460708 ], [ -84.304849412900523, 14.677920500032524 ], [ -84.308965390325184, 14.682132759423052 ], [ -84.312063017554863, 14.68214247906754 ], [ -84.315578981813118, 14.680553722104042 ], [ -84.317239671504367, 14.6779593487773 ], [ -84.320557554481383, 14.673770349411177 ], [ -84.324692777237544, 14.672183355001252 ], [ -84.331093623283778, 14.672402937082863 ], [ -84.337906127596938, 14.673023438864965 ], [ -84.344716764901094, 14.674243662158178 ], [ -84.346777992178076, 14.675449604620459 ], [ -84.34901106740422, 14.678736484869866 ], [ -84.350163619383636, 14.680637524979019 ], [ -84.350746695328183, 14.682548635762577 ], [ -84.350949825625477, 14.685249967429288 ], [ -84.344408083614638, 14.704240943463475 ], [ -84.355326559483544, 14.705632964990007 ], [ -84.364837968163457, 14.711895873028061 ], [ -84.36718843167715, 14.703428423221814 ], [ -84.369525581666551, 14.698867661418008 ], [ -84.375035188283803, 14.6939156284335 ], [ -84.379037776664617, 14.689513565082256 ], [ -84.381428501724116, 14.681043047562671 ], [ -84.382678337400307, 14.678833649195983 ], [ -84.389221905719722, 14.671943324621376 ], [ -84.398158643612277, 14.665059425376249 ], [ -84.404519730656318, 14.657658733073971 ], [ -84.412031287778234, 14.650871495174787 ], [ -84.410714875564409, 14.64474585064251 ], [ -84.412917166461341, 14.640994959266957 ], [ -84.416543897583395, 14.639091541959138 ], [ -84.422306874998142, 14.637247917698067 ], [ -84.425194028326871, 14.634281321303829 ], [ -84.430963979567323, 14.629835081964346 ], [ -84.439023515766834, 14.630227582960083 ], [ -84.447472364825288, 14.628575986133976 ], [ -84.457067177368529, 14.628971681537312 ], [ -84.461485136210641, 14.627495467422703 ], [ -84.463605875786868, 14.623782930293348 ], [ -84.466118059303227, 14.617097129719353 ], [ -84.467856244919105, 14.612825909803686 ], [ -84.474573296624911, 14.612656227927951 ], [ -84.484354670766947, 14.614910053312434 ], [ -84.493175818122921, 14.617532999845839 ], [ -84.497967573012659, 14.619960496813666 ], [ -84.503525737862589, 14.622947383349526 ], [ -84.505815740223028, 14.628343211404697 ], [ -84.507527878081831, 14.634667171653394 ], [ -84.512325039126864, 14.635049644216865 ], [ -84.520778721243445, 14.631164685723862 ], [ -84.525575825338137, 14.631546869482994 ], [ -84.529800582795929, 14.630440638300534 ], [ -84.53364104091132, 14.629519360486777 ], [ -84.53555434486978, 14.632125814332849 ], [ -84.536889843283305, 14.635660493659573 ], [ -84.537650026938763, 14.639008029179816 ], [ -84.536876893402464, 14.641422870665984 ], [ -84.534185700044631, 14.643276029617924 ], [ -84.531304218015805, 14.644385209675193 ], [ -84.52842015263397, 14.646609653531399 ], [ -84.527264717937243, 14.648280166102968 ], [ -84.526106272189764, 14.651251819480224 ], [ -84.526294363512093, 14.652925147080165 ], [ -84.534351587630397, 14.654801211512936 ], [ -84.541651940055971, 14.651842418353304 ], [ -84.5475580145945, 14.651738671252472 ], [ -84.554114012028421, 14.65167827043911 ], [ -84.558466286111653, 14.648364877305186 ], [ -84.560524482140309, 14.648369004065779 ], [ -84.56291265626308, 14.650091903566993 ], [ -84.5671302905575, 14.652617207731609 ], [ -84.569773500927425, 14.653688124420995 ], [ -84.571844197047895, 14.653371599576372 ], [ -84.575227692385738, 14.652125818461204 ], [ -84.580852062733712, 14.651192517108308 ], [ -84.584183808660029, 14.652917122412926 ], [ -84.589477598654327, 14.657579277505713 ], [ -84.592135843587997, 14.657941558710455 ], [ -84.595882575433649, 14.656280424346258 ], [ -84.598299936156351, 14.655763790751582 ], [ -84.601314950772235, 14.655967173698347 ], [ -84.605829490010706, 14.657380768004048 ], [ -84.613337447893983, 14.661112975443437 ], [ -84.615629286278164, 14.661639188579336 ], [ -84.62939819996086, 14.661238048505975 ], [ -84.630542606151721, 14.662072242756292 ], [ -84.632336316261416, 14.665269948054993 ], [ -84.636828734852273, 14.668762537423824 ], [ -84.638022769456143, 14.671959195478415 ], [ -84.64072150902733, 14.672254050133882 ], [ -84.644321512993457, 14.67167905542308 ], [ -84.64702221160627, 14.670812132357227 ], [ -84.649722431247312, 14.670235601587036 ], [ -84.653022949536279, 14.669369559729791 ], [ -84.656621899744493, 14.669375213553923 ], [ -84.659620546469966, 14.669670305864258 ], [ -84.662919113580259, 14.669965816537475 ], [ -84.668613732500617, 14.672297886817971 ], [ -84.674304770091993, 14.676953205323541 ], [ -84.676698234814651, 14.6807322658633 ], [ -84.676990423990787, 14.685669842092892 ], [ -84.679688495819335, 14.686545064382939 ], [ -84.681788507331575, 14.686257690892917 ], [ -84.686974146653867, 14.676347739363143 ], [ -84.688254096669567, 14.67370249071778 ], [ -84.69445196960109, 14.66350437740067 ], [ -84.696309593936036, 14.662764054500965 ], [ -84.701288114284921, 14.660779791965849 ], [ -84.705612925851099, 14.663519614870088 ], [ -84.705255025916429, 14.670242392534682 ], [ -84.70574189104785, 14.673607308788281 ], [ -84.706501474059365, 14.676374689993429 ], [ -84.708493139577186, 14.679034196317476 ], [ -84.709691228392018, 14.68019748167918 ], [ -84.710880753033294, 14.687459590661236 ], [ -84.712078461970862, 14.688913282777078 ], [ -84.715075864778257, 14.69036930835661 ], [ -84.724671313252657, 14.692414504725017 ], [ -84.731262914003736, 14.697940703608673 ], [ -84.746467592767431, 14.712956906259571 ], [ -84.748223762679956, 14.718231569044177 ], [ -84.749734014227911, 14.72589393080602 ], [ -84.749786076622357, 14.729730286899146 ], [ -84.749166783499774, 14.732548560835905 ], [ -84.745490745450255, 14.73884269810155 ], [ -84.746476491510194, 14.741231828056302 ], [ -84.747716552287173, 14.742868439569703 ], [ -84.751604094557479, 14.744141437690908 ], [ -84.758208661030721, 14.740663788320509 ], [ -84.766009073644611, 14.740672230549647 ], [ -84.769301123021847, 14.747936149193162 ], [ -84.765095443763499, 14.752578223991405 ], [ -84.760294900911802, 14.752573041588606 ], [ -84.755192617247374, 14.754019501261521 ], [ -84.752186666196735, 14.758662792046895 ], [ -84.754294005191937, 14.767156079383826 ], [ -84.758001782820685, 14.769855754889177 ], [ -84.762582373924758, 14.77151999994989 ], [ -84.771159447398134, 14.77725879109518 ], [ -84.7839254499454, 14.787145623124982 ], [ -84.787705115631795, 14.794104980432543 ], [ -84.792210812014218, 14.80888730698053 ], [ -84.798414337647742, 14.81306741330055 ], [ -84.803791690693643, 14.817780522135228 ], [ -84.808916782016581, 14.817910664107616 ], [ -84.813693595757982, 14.820388313843694 ], [ -84.817097126872113, 14.823400891715249 ], [ -84.81883673452721, 14.823888647420421 ], [ -84.819463530321229, 14.823814800052544 ], [ -84.812042238347331, 14.833429384598364 ], [ -84.761276242001045, 14.865023596437851 ], [ -84.765678397056661, 14.953406298262616 ], [ -84.766349791737341, 14.96686366005533 ], [ -84.768012992626538, 15.000248861674113 ], [ -84.768737787380729, 15.013714809209169 ], [ -84.792404181322127, 15.016464160533527 ], [ -84.823013299551008, 15.020358078947755 ], [ -84.831687920955986, 15.024229945121526 ], [ -84.836830145167099, 15.026855494034653 ], [ -84.832687385310237, 15.046225496533584 ], [ -84.832084661822648, 15.049052166353162 ], [ -84.830909731612792, 15.050672482067478 ], [ -84.830856323519356, 15.054174414386647 ], [ -84.832115171456223, 15.055923476261963 ], [ -84.833694455749253, 15.059036268007587 ], [ -84.834930417737567, 15.055891947062694 ], [ -84.833518985683241, 15.053772971411064 ], [ -84.835708612935122, 15.053441980291231 ], [ -84.837341301827252, 15.054691351716851 ], [ -84.839538574004735, 15.056239114940732 ], [ -84.841468810819435, 15.057616261362487 ], [ -84.844230644058086, 15.057020136475714 ], [ -84.846717843030078, 15.056481384461611 ], [ -84.847785952692107, 15.058414425532654 ], [ -84.849311824508689, 15.060018518595289 ], [ -84.851531981183456, 15.059630356397905 ], [ -84.855537415829772, 15.059952700163585 ], [ -84.857528684761277, 15.05949588492374 ], [ -84.859466554414254, 15.061013141762754 ], [ -84.860595703801067, 15.062877573620121 ], [ -84.862411496953257, 15.063921967480505 ], [ -84.864974974410359, 15.063756955118528 ], [ -84.866500851280776, 15.065466829221725 ], [ -84.868606571316903, 15.064441603216013 ], [ -84.872169491372333, 15.063982912555925 ], [ -84.874603273051278, 15.063670125573353 ], [ -84.874984740872861, 15.066214534361292 ], [ -84.875473019781424, 15.068398482374887 ], [ -84.877357486626764, 15.070052150350783 ], [ -84.878051758459435, 15.072186492938792 ], [ -84.878852846122044, 15.074032758625492 ], [ -84.879348759334505, 15.076067843028689 ], [ -84.880455019871903, 15.077865541602515 ], [ -84.881668093617122, 15.079561191548125 ], [ -84.882591246187715, 15.081356103258958 ], [ -84.882804872564961, 15.083560862343466 ], [ -84.883712771263546, 15.08686542245143 ], [ -84.885414125491465, 15.088652560144327 ], [ -84.886482242689141, 15.090758330757049 ], [ -84.888183592587026, 15.092623744692458 ], [ -84.887481693582842, 15.095552436965843 ], [ -84.886474607869985, 15.097326332398753 ], [ -84.884925838301299, 15.099065719041658 ], [ -84.883689882914496, 15.101110429880723 ], [ -84.882186892128232, 15.105313290242217 ], [ -84.882438659382046, 15.10844990089762 ], [ -84.883293154978375, 15.110910442460842 ], [ -84.88353728833782, 15.113460503710392 ], [ -84.882858274036224, 15.115733070161976 ], [ -84.88214111624572, 15.118087713728363 ], [ -84.881408695588789, 15.120008462172429 ], [ -84.881072995871875, 15.122149391194835 ], [ -84.880683899104383, 15.124246633535046 ], [ -84.879684447484635, 15.12614821678541 ], [ -84.879264827988507, 15.128148972509244 ], [ -84.880088808416815, 15.131845517983946 ], [ -84.882484439300114, 15.136253362550779 ], [ -84.884658813780234, 15.137851747101262 ], [ -84.885337827873755, 15.140101354986594 ], [ -84.884994510701574, 15.142322544386161 ], [ -84.884384156761158, 15.144898469836871 ], [ -84.885292057028849, 15.147326477118117 ], [ -84.887161253701635, 15.148497553112286 ], [ -84.888122558809087, 15.15069574858734 ], [ -84.889793398981439, 15.151872614687662 ], [ -84.890037536892436, 15.157040562018013 ], [ -84.889961246838794, 15.15919203395986 ], [ -84.890312194382247, 15.162123600689966 ], [ -84.892921451790187, 15.163776326154629 ], [ -84.893775936055832, 15.165624629927962 ], [ -84.894546504908689, 15.168067024890831 ], [ -84.895263668132401, 15.170021013607013 ], [ -84.895523068513498, 15.17209912993631 ], [ -84.895721435854028, 15.174411827642642 ], [ -84.894866944002146, 15.17952725334449 ], [ -84.895332333753913, 15.181682634086625 ], [ -84.894447323682428, 15.183840749520265 ], [ -84.895195010798034, 15.185786296093182 ], [ -84.895530701157796, 15.188670088662425 ], [ -84.895919797877312, 15.190833031529072 ], [ -84.894615170925817, 15.193117121343139 ], [ -84.894508363858421, 15.195344886685895 ], [ -84.895400997314511, 15.197821538575743 ], [ -84.895126339291366, 15.20116608532318 ], [ -84.892150881296246, 15.205647450574675 ], [ -84.889770510977385, 15.208087850656449 ], [ -84.888893131069636, 15.210127783276773 ], [ -84.888191227011106, 15.2122125833473 ], [ -84.886184696762044, 15.21315478227738 ], [ -84.884628297161171, 15.211648865341134 ], [ -84.880599979520966, 15.211533498192592 ], [ -84.878631594308118, 15.212842914240923 ], [ -84.877311711414848, 15.214782711930667 ], [ -84.876312253324897, 15.21745580060422 ], [ -84.881713867058608, 15.231592200590782 ], [ -84.884399416501083, 15.247479390268845 ], [ -84.901275634970162, 15.265399848771523 ], [ -84.926849365765548, 15.287099772518561 ], [ -84.956039428725674, 15.317415213177574 ], [ -84.955810546047928, 15.340306337573388 ], [ -84.956352232727042, 15.361057223234296 ], [ -84.968017578495619, 15.374041600183741 ], [ -84.962654113556979, 15.394739156186571 ], [ -84.961044312441473, 15.409032875423931 ], [ -84.968612671375567, 15.422984170547618 ], [ -84.971183776791918, 15.427725791568648 ], [ -84.984374999644118, 15.436430938145024 ], [ -84.986457823778011, 15.450042717361708 ], [ -84.979698182275882, 15.462142864305976 ], [ -84.983520507762776, 15.467492037530331 ], [ -84.979660033729331, 15.467514949744332 ], [ -84.9698486336287, 15.467574095486478 ], [ -84.96787262104219, 15.46912573718207 ], [ -84.958969115123352, 15.476121907992688 ], [ -84.958847046833171, 15.488865879784248 ], [ -84.957603455842701, 15.491001093890427 ], [ -84.951210021631923, 15.501994122657464 ], [ -84.926063536419946, 15.528614031878503 ], [ -84.923187253126031, 15.534503979599943 ], [ -84.902931211587131, 15.541595385987481 ], [ -84.898414610200064, 15.524255699582605 ], [ -84.885437012036931, 15.508201642568347 ], [ -84.874572756391117, 15.514469134208122 ], [ -84.865066528713598, 15.526211755197117 ], [ -84.853721620498376, 15.533838308998577 ], [ -84.846595770839798, 15.541961640163112 ], [ -84.837852476524631, 15.542333614247847 ], [ -84.829216002679559, 15.542700818311424 ], [ -84.821563728856788, 15.544271450530868 ], [ -84.812286378672297, 15.546175013248927 ], [ -84.807411197790302, 15.562965442694527 ], [ -84.809600834411924, 15.578006705293895 ], [ -84.79445647861759, 15.588777530090415 ], [ -84.785415650250386, 15.600520135503361 ], [ -84.788040152445006, 15.618295684506107 ], [ -84.777915954250588, 15.64276880181588 ], [ -84.775367736550621, 15.660947785010801 ], [ -84.79440308166059, 15.681620630396765 ], [ -84.801795963543455, 15.685026140076518 ], [ -84.808303840393719, 15.68802552160389 ], [ -84.817283639340175, 15.692163393992535 ], [ -84.819648734808723, 15.693251552108562 ], [ -84.822425843857175, 15.693376588659895 ], [ -84.845474247352854, 15.694417891646372 ], [ -84.86898040443873, 15.692372320594025 ], [ -84.891181945389718, 15.680754672610488 ], [ -84.913314817027697, 15.675504618963124 ], [ -84.935485838066668, 15.666612671712 ], [ -84.94682311950919, 15.660346924274601 ], [ -84.939414978869692, 15.64935399583511 ], [ -84.942352293926021, 15.637092643589343 ], [ -84.94330597078482, 15.634591091811465 ], [ -84.949104310244621, 15.619404839874536 ], [ -84.951950075081783, 15.617555631808587 ], [ -84.957366943918473, 15.619464885381408 ], [ -84.959732057996916, 15.619487718662858 ], [ -84.964157104235497, 15.620996434360805 ], [ -84.967285157336121, 15.620749513897033 ], [ -84.97077179006844, 15.622064621370711 ], [ -84.972747802382159, 15.62290763254852 ], [ -84.976898193148202, 15.624137814363811 ], [ -84.979728698912865, 15.624530816186676 ], [ -84.982002258222039, 15.624826436674105 ], [ -84.985404968016311, 15.624674751795922 ], [ -84.987937926887156, 15.627080953766143 ], [ -84.990852355978348, 15.628574401386143 ], [ -84.991394043279911, 15.631144517329634 ], [ -84.993362427036899, 15.63290599708351 ], [ -84.994949341245942, 15.634936259638691 ], [ -84.99694061302722, 15.634588210086269 ], [ -84.99890136688893, 15.636047317862552 ], [ -85.000602721860375, 15.637921380019993 ], [ -84.999786376823366, 15.750111575856584 ], [ -85.040245053651702, 15.854538933799025 ], [ -85.03195953279004, 15.86268228247882 ], [ -85.059471129912694, 15.911686915796112 ], [ -85.05657959071533, 15.912615884391366 ], [ -85.018592834061309, 15.925542939753226 ], [ -85.00846862748817, 15.921827337953578 ], [ -84.990928650881784, 15.912728262967606 ], [ -84.973342895532255, 15.90850173779995 ], [ -84.969085693946624, 15.909284642075749 ], [ -84.966369628399107, 15.904487458280054 ], [ -84.964324952193124, 15.897933902225349 ], [ -84.955139160045633, 15.888455238729376 ], [ -84.945922851269515, 15.881834037703301 ], [ -84.937561035922002, 15.874812232557561 ], [ -84.925003053705211, 15.864891160434892 ], [ -84.917434693795371, 15.862368546813984 ], [ -84.905212402938005, 15.86102581763917 ], [ -84.895553588582061, 15.856848732925085 ], [ -84.886283878936737, 15.855940869425842 ], [ -84.872360226496326, 15.856213618563718 ], [ -84.854698185648161, 15.85073087652969 ], [ -84.845413199352819, 15.851454673012739 ], [ -84.842407218442673, 15.856733311156717 ], [ -84.840621954942151, 15.865290540518759 ], [ -84.836730951950898, 15.874235262260017 ], [ -84.834083551963701, 15.885233841739096 ], [ -84.828514100364927, 15.893344966391517 ], [ -84.826492310317974, 15.896799116985093 ], [ -84.810821524608826, 15.909716730572708 ], [ -84.804664603496519, 15.916191955438828 ], [ -84.80117034410975, 15.9272707633771 ], [ -84.8097457811309, 15.946318726678864 ], [ -84.813491827024563, 15.94924820030441 ], [ -84.816772460263834, 15.951815629113211 ], [ -84.808258062435513, 15.958724925995584 ], [ -84.799079903508314, 15.962249664792303 ], [ -84.794593812026079, 15.966299984076212 ] ], [ [ -84.099891632786665, 15.507458645287516 ], [ -84.097679158699179, 15.507623656712422 ], [ -84.094406144330975, 15.508973058665847 ], [ -84.092132544594463, 15.510372150097046 ], [ -84.090568560089054, 15.511818923097161 ], [ -84.088531478035534, 15.513699553027925 ], [ -84.086853037003451, 15.515747951529153 ], [ -84.084602348720239, 15.517973924740893 ], [ -84.082351656750433, 15.519993721686854 ], [ -84.08174896660644, 15.523127586570512 ], [ -84.081481908424834, 15.526552220370048 ], [ -84.0805740593633, 15.530014032866264 ], [ -84.080123875720233, 15.53301714423645 ], [ -84.080734255418378, 15.535936381852569 ], [ -84.081977836995108, 15.538955695750484 ], [ -84.084106475430772, 15.540242150246293 ], [ -84.087471000609597, 15.542270578987726 ], [ -84.102287280938555, 15.517414033219213 ], [ -84.109123204729357, 15.512038240125426 ], [ -84.106826758512142, 15.510280596853301 ], [ -84.104126012108338, 15.507807777455051 ], [ -84.101913451382984, 15.507625581373086 ], [ -84.099891632786665, 15.507458645287516 ] ] ] ] } },
{ "type": "Feature", "properties": { "fid": 4, "id": 4, "etnia_id": 39, "etnia": "Miskito(Miskitu)" }, "geometry": { "type": "MultiPolygon", "coordinates": [ [ [ [ -83.309989977775984, 15.775053894231519 ], [ -83.339958138290228, 15.788432101001188 ], [ -83.361244205215115, 15.814533209127228 ], [ -83.364303527524157, 15.846179022987089 ], [ -83.350654539172098, 15.865841716154945 ], [ -83.329833998193791, 15.880701147831186 ], [ -83.329666070445683, 15.890059444892829 ], [ -83.302902200839014, 15.898962856714244 ], [ -83.275405868052417, 15.882109612035958 ], [ -83.252876226402776, 15.858319398615693 ], [ -83.240211433794471, 15.824169154728725 ], [ -83.253890921778535, 15.803345644914932 ], [ -83.28212739591136, 15.77925961437413 ], [ -83.309989977775984, 15.775053894231519 ] ] ] ] } }
]
}
