{
"type": "FeatureCollection",
"name": "TTH",
"crs": { "type": "name", "properties": { "name": "urn:ogc:def:crs:OGC:1.3:CRS84" } },
"features": [
{ "type": "Feature", "properties": { "fid": 34, "id": 32, "etnia_id": 43, "etnia": "Tauahka" }, "geometry": { "type": "MultiPolygon", "coordinates": [ [ [ [ -84.819463530321229, 14.823814800052544 ], [ -84.823015875246156, 14.823396017327717 ], [ -84.832084651279303, 14.820976198857425 ], [ -84.837730403405274, 14.819437972348249 ], [ -84.86268615770328, 14.805483738763698 ], [ -84.870941160787424, 14.805808021841578 ], [ -84.878234863788393, 14.807957587200139 ], [ -84.888633729330337, 14.806926663634878 ], [ -84.896385192238753, 14.810229330464024 ], [ -84.899696346509842, 14.81003664843905 ], [ -84.9096832310547, 14.803718559775543 ], [ -84.913749691941263, 14.799171496279138 ], [ -84.929603578900554, 14.774544733241518 ], [ -84.931800842499115, 14.767908146124753 ], [ -84.930473329375786, 14.759855256902163 ], [ -84.931472777172502, 14.755271872461519 ], [ -84.93338012772719, 14.753455174081944 ], [ -84.938362119937977, 14.751444838637758 ], [ -84.959838865763416, 14.751452487801613 ], [ -84.966484069850424, 14.747851419255833 ], [ -84.977218626817972, 14.738092399872308 ], [ -84.987869263075993, 14.735453567130943 ], [ -84.99791717518977, 14.72316066108452 ], [ -85.011695861743476, 14.715043102757182 ], [ -85.017433166546354, 14.707755014257982 ], [ -85.028152465664462, 14.698913498660241 ], [ -85.028217431782622, 14.698704617371794 ], [ -85.029861450696501, 14.693419466516714 ], [ -85.028724669721996, 14.689732566802984 ], [ -85.024261474610356, 14.687845210754798 ], [ -85.023345946343611, 14.685309382795957 ], [ -85.032012940301854, 14.66978450401497 ], [ -85.043319701062998, 14.671055748732984 ], [ -85.049980161507278, 14.666302659620237 ], [ -85.051925660188346, 14.660811429121559 ], [ -85.049415586993291, 14.653203926304577 ], [ -85.045921326875643, 14.649261441830232 ], [ -85.030906677722527, 14.641061781584504 ], [ -85.027885437775808, 14.637353858876054 ], [ -85.026290892735048, 14.631823492551417 ], [ -85.028724671134611, 14.62518786164642 ], [ -85.039916991211541, 14.615431793508217 ], [ -85.04047580177803, 14.614583141429607 ], [ -85.041000367006518, 14.614093732067882 ], [ -85.041061402963905, 14.613960265134859 ], [ -85.041137695060115, 14.613882994867236 ], [ -85.042823791571081, 14.612109160799982 ], [ -85.043380737509622, 14.610144616555134 ], [ -85.045707703610518, 14.609409329522801 ], [ -85.048042298747575, 14.608297312239388 ], [ -85.049766541326136, 14.610197982623177 ], [ -85.052055357563646, 14.611875539397273 ], [ -85.053367614051353, 14.613468166899732 ], [ -85.054206849440504, 14.61562345666281 ], [ -85.055145265134541, 14.618376693390021 ], [ -85.056846619165412, 14.620064693536124 ], [ -85.059432984989925, 14.619290322792738 ], [ -85.06112670999903, 14.618215527793994 ], [ -85.063041687872456, 14.617396368291143 ], [ -85.065200806108251, 14.618811558352277 ], [ -85.068084714604382, 14.620158190999673 ], [ -85.070381165115165, 14.620329866919432 ], [ -85.072708127928394, 14.622701647000321 ], [ -85.074615478660519, 14.623847028142762 ], [ -85.076950075851983, 14.623096481717074 ], [ -85.100463867117, 14.618574099197618 ], [ -85.145454404515391, 14.6269197343745 ], [ -85.172904959921894, 14.63200850682872 ], [ -85.18566130803255, 14.637470208912417 ], [ -85.187950143343386, 14.638295183930987 ], [ -85.222358704243774, 14.652866323057204 ], [ -85.247451773831727, 14.663395865465167 ], [ -85.254302987251307, 14.666156742996339 ], [ -85.261245733501667, 14.669081663247253 ], [ -85.269874567826818, 14.672730431475765 ], [ -85.269515996169474, 14.674898147301624 ], [ -85.267936714215622, 14.6765022068506 ], [ -85.267341612829469, 14.678520202961407 ], [ -85.266998300287767, 14.681799942059312 ], [ -85.265892036370886, 14.684255525096136 ], [ -85.264678955649146, 14.686183902166862 ], [ -85.264274598925041, 14.688467921245593 ], [ -85.261550898779404, 14.690134003762708 ], [ -85.259056090804094, 14.69128992070079 ], [ -85.258369440618523, 14.693906792822695 ], [ -85.258903505788751, 14.696431098397767 ], [ -85.258438112952504, 14.698743761026833 ], [ -85.257034309671113, 14.700305970937423 ], [ -85.255180359222805, 14.701557145121004 ], [ -85.253341682858348, 14.703210819984429 ], [ -85.250946037138277, 14.705418634978738 ], [ -85.24877167128156, 14.706128992723816 ], [ -85.246879569984245, 14.708026895661119 ], [ -85.247566214316578, 14.710434846764146 ], [ -85.2489776588599, 14.711918879255974 ], [ -85.250595089030583, 14.713241541272751 ], [ -85.252075204440914, 14.714680685845535 ], [ -85.251426691500896, 14.717495917723983 ], [ -85.249534607955582, 14.718363701736209 ], [ -85.247337345588093, 14.717555064669604 ], [ -85.244941712506076, 14.717735211004694 ], [ -85.242851257428782, 14.719178224648294 ], [ -85.241577146809703, 14.720737503590989 ], [ -85.240119925570454, 14.723077812466061 ], [ -85.23825073585283, 14.723935050052479 ], [ -85.236656182036413, 14.722267069896848 ], [ -85.234741201917316, 14.72105688030457 ], [ -85.232963563343787, 14.722018200262232 ], [ -85.233573916031531, 14.724558796461052 ], [ -85.235031123805896, 14.726467082847972 ], [ -85.235900887148517, 14.728594719691067 ], [ -85.237457276586682, 14.730091054308108 ], [ -85.239700309511278, 14.729751581495979 ], [ -85.242088314775046, 14.729689528307432 ], [ -85.244155885845515, 14.730080616848815 ], [ -85.246086128940021, 14.730690991975345 ], [ -85.248085015876939, 14.730951277042703 ], [ -85.249130252527365, 14.732718523407268 ], [ -85.250709528302735, 14.734430367324599 ], [ -85.252868646907729, 14.736083927668087 ], [ -85.255416867359926, 14.735736901532315 ], [ -85.256744387099772, 14.737319980240718 ], [ -85.258483884075645, 14.739063267887099 ], [ -85.261428827024019, 14.738843872665742 ], [ -85.264335628447043, 14.740001646066982 ], [ -85.265815743365422, 14.74155518875501 ], [ -85.267990112757673, 14.740800870099486 ], [ -85.271591191276016, 14.740428005434737 ], [ -85.272483826289729, 14.73863129409272 ], [ -85.272941582959461, 14.736151747741827 ], [ -85.273864755300721, 14.734050769032184 ], [ -85.275871274479982, 14.732653629619376 ], [ -85.276718141687965, 14.730766250030818 ], [ -85.278678888484407, 14.730215047028672 ], [ -85.27915954434728, 14.728262909660076 ], [ -85.28112793844403, 14.726514785199631 ], [ -85.283287052129722, 14.726447084020331 ], [ -85.285339359343922, 14.72712892935342 ], [ -85.28785706004868, 14.727235786159072 ], [ -85.290077215135383, 14.727751735095328 ], [ -85.292755134196668, 14.726878193500445 ], [ -85.294769293238971, 14.728161825705124 ], [ -85.296493524595036, 14.729818361689922 ], [ -85.297515867541463, 14.731870617744184 ], [ -85.299575803751097, 14.732026127758587 ], [ -85.30155181391973, 14.731698077420928 ], [ -85.303436278172541, 14.730895916214648 ], [ -85.305511474810444, 14.731841058103281 ], [ -85.308441168712065, 14.731790488039898 ], [ -85.30964662271704, 14.733786514819025 ], [ -85.312942503127019, 14.735644357817197 ], [ -85.315086382735259, 14.733587237185537 ], [ -85.317047130926056, 14.734137509409463 ], [ -85.319328311024663, 14.735232361742748 ], [ -85.321800241251736, 14.736385360499531 ], [ -85.323303225982826, 14.73836805663306 ], [ -85.323753347418332, 14.740329759417676 ], [ -85.323593157084503, 14.742855026121507 ], [ -85.323661798075804, 14.74549488101716 ], [ -85.321754442722849, 14.74767581168385 ], [ -85.320083617632704, 14.748930904288514 ], [ -85.320068367243564, 14.750938353569286 ], [ -85.320327761852653, 14.753016526358305 ], [ -85.321235672866834, 14.754965725001473 ], [ -85.321853633584141, 14.757145901665195 ], [ -85.323814379448194, 14.758280743961723 ], [ -85.325897213132393, 14.759128492203697 ], [ -85.327575672627333, 14.760744975132777 ], [ -85.327072138409576, 14.762836380569869 ], [ -85.326286313151201, 14.764847781702716 ], [ -85.32567595368026, 14.767564816236812 ], [ -85.325523365610664, 14.769765830275819 ], [ -85.326202385829461, 14.772012651492755 ], [ -85.326103197032353, 14.774621036575278 ], [ -85.324714650695498, 14.77666754057441 ], [ -85.321807873705282, 14.777308416203287 ], [ -85.320365923599482, 14.78030874311326 ], [ -85.318969731208313, 14.782319021666186 ], [ -85.318099988030426, 14.784510635670499 ], [ -85.317329400710122, 14.7868881516809 ], [ -85.316734302733153, 14.789333295400089 ], [ -85.3166885451068, 14.792534801506376 ], [ -85.315895082084182, 14.794522211408392 ], [ -85.315551763420785, 14.796920787362994 ], [ -85.315299974106267, 14.799124729737244 ], [ -85.315711959188576, 14.801283776093062 ], [ -85.316459644567445, 14.803370508650103 ], [ -85.316032425076159, 14.805493293962808 ], [ -85.315063459844765, 14.807415030609976 ], [ -85.312782303625895, 14.809123007444843 ], [ -85.311042801644319, 14.81066231309118 ], [ -85.310493485199032, 14.81330297955763 ], [ -85.311225894652466, 14.822357180966428 ], [ -85.312118514925899, 14.833397786879981 ], [ -85.312866227140944, 14.842728642917963 ], [ -85.31462107210649, 14.864555360100912 ], [ -85.291332474120935, 14.866057850293529 ], [ -85.244930636657671, 14.87230425149054 ], [ -85.192282397997474, 14.899966885363137 ], [ -85.136064787224811, 14.941907007686105 ], [ -85.121787298774606, 14.963323240361678 ], [ -85.116433240605772, 14.979385414868355 ], [ -85.133387758140344, 15.0088327347973 ], [ -85.143203531449856, 15.021325537191407 ], [ -85.152303545259713, 15.032031435791422 ], [ -85.152221675353601, 15.032055845677929 ], [ -85.150215148214187, 15.032181716814492 ], [ -85.148262027896976, 15.033797221977919 ], [ -85.146301267810841, 15.034611679597917 ], [ -85.143997187878767, 15.035580552307055 ], [ -85.142707823431735, 15.03715895599508 ], [ -85.142990110887126, 15.039210365191327 ], [ -85.143249508936321, 15.041327414295928 ], [ -85.142150882499564, 15.043060317280949 ], [ -85.14015197669481, 15.043818411339322 ], [ -85.137985232019517, 15.043926246494999 ], [ -85.135238647395354, 15.045983341505853 ], [ -85.134437558824899, 15.048019365266114 ], [ -85.133346554773581, 15.049935293122479 ], [ -85.131347657123413, 15.050676265392607 ], [ -85.129737856746615, 15.051950447126314 ], [ -85.127632143152056, 15.053059572844493 ], [ -85.125419620619155, 15.053928345295672 ], [ -85.123489379903106, 15.05466751630194 ], [ -85.121620178227332, 15.055569574392425 ], [ -85.11973571615232, 15.056662587293781 ], [ -85.117660520100344, 15.056832277041895 ], [ -85.115653995342853, 15.056036958260139 ], [ -85.113616943206466, 15.057011562530292 ], [ -85.111381534107693, 15.057229016248632 ], [ -85.111610412468664, 15.063394482342586 ], [ -85.117118838718937, 15.068845731798733 ], [ -85.125366212710503, 15.079724319762294 ], [ -85.12246704100292, 15.093214057053094 ], [ -85.10844421204105, 15.106610322678879 ], [ -85.077705386400595, 15.12256618743373 ], [ -85.055274962647886, 15.141291559926318 ], [ -85.021591185796296, 15.173428561791813 ], [ -84.993591308543373, 15.19209760842215 ], [ -84.962860107582813, 15.205332741536138 ], [ -84.926635740876989, 15.210406357108011 ], [ -84.90410613647289, 15.194780349093746 ], [ -84.902061463340331, 15.195586222919058 ], [ -84.900032044479488, 15.197001424694605 ], [ -84.89827727952941, 15.198418564963735 ], [ -84.895126339291366, 15.20116608532318 ], [ -84.895400997314511, 15.197821538575743 ], [ -84.894508363858421, 15.195344886685895 ], [ -84.894615170925817, 15.193117121343139 ], [ -84.895919797877312, 15.190833031529072 ], [ -84.895530701157796, 15.188670088662425 ], [ -84.895195010798034, 15.185786296093182 ], [ -84.894447323682428, 15.183840749520265 ], [ -84.895332333753913, 15.181682634086625 ], [ -84.894866944002146, 15.17952725334449 ], [ -84.895721435854028, 15.174411827642642 ], [ -84.895523068513498, 15.17209912993631 ], [ -84.895263668132401, 15.170021013607013 ], [ -84.894546504908689, 15.168067024890831 ], [ -84.893775936055832, 15.165624629927962 ], [ -84.892921451790187, 15.163776326154629 ], [ -84.890312194382247, 15.162123600689966 ], [ -84.889961246838794, 15.15919203395986 ], [ -84.890037536892436, 15.157040562018013 ], [ -84.889793398981439, 15.151872614687662 ], [ -84.888122558809087, 15.15069574858734 ], [ -84.887161253701635, 15.148497553112286 ], [ -84.885292057028849, 15.147326477118117 ], [ -84.884384156761158, 15.144898469836871 ], [ -84.884994510701574, 15.142322544386161 ], [ -84.885337827873755, 15.140101354986594 ], [ -84.884658813780234, 15.137851747101262 ], [ -84.882484439300114, 15.136253362550779 ], [ -84.880088808416815, 15.131845517983946 ], [ -84.879264827988507, 15.128148972509244 ], [ -84.879684447484635, 15.12614821678541 ], [ -84.880683899104383, 15.124246633535046 ], [ -84.881072995871875, 15.122149391194835 ], [ -84.881408695588789, 15.120008462172429 ], [ -84.88214111624572, 15.118087713728363 ], [ -84.882858274036224, 15.115733070161976 ], [ -84.88353728833782, 15.113460503710392 ], [ -84.883293154978375, 15.110910442460842 ], [ -84.882438659382046, 15.10844990089762 ], [ -84.882186892128232, 15.105313290242217 ], [ -84.883689882914496, 15.101110429880723 ], [ -84.884925838301299, 15.099065719041658 ], [ -84.886474607869985, 15.097326332398753 ], [ -84.887481693582842, 15.095552436965843 ], [ -84.888183592587026, 15.092623744692458 ], [ -84.886482242689141, 15.090758330757049 ], [ -84.885414125491465, 15.088652560144327 ], [ -84.883712771263546, 15.08686542245143 ], [ -84.882804872564961, 15.083560862343466 ], [ -84.882591246187715, 15.081356103258958 ], [ -84.881668093617122, 15.079561191548125 ], [ -84.880455019871903, 15.077865541602515 ], [ -84.879348759334505, 15.076067843028689 ], [ -84.878852846122044, 15.074032758625492 ], [ -84.878051758459435, 15.072186492938792 ], [ -84.877357486626764, 15.070052150350783 ], [ -84.875473019781424, 15.068398482374887 ], [ -84.874984740872861, 15.066214534361292 ], [ -84.874603273051278, 15.063670125573353 ], [ -84.872169491372333, 15.063982912555925 ], [ -84.868606571316903, 15.064441603216013 ], [ -84.866500851280776, 15.065466829221725 ], [ -84.864974974410359, 15.063756955118528 ], [ -84.862411496953257, 15.063921967480505 ], [ -84.860595703801067, 15.062877573620121 ], [ -84.859466554414254, 15.061013141762754 ], [ -84.857528684761277, 15.05949588492374 ], [ -84.855537415829772, 15.059952700163585 ], [ -84.851531981183456, 15.059630356397905 ], [ -84.849311824508689, 15.060018518595289 ], [ -84.847785952692107, 15.058414425532654 ], [ -84.846717843030078, 15.056481384461611 ], [ -84.844230644058086, 15.057020136475714 ], [ -84.841468810819435, 15.057616261362487 ], [ -84.839538574004735, 15.056239114940732 ], [ -84.837341301827252, 15.054691351716851 ], [ -84.835708612935122, 15.053441980291231 ], [ -84.833518985683241, 15.053772971411064 ], [ -84.834930417737567, 15.055891947062694 ], [ -84.833694455749253, 15.059036268007587 ], [ -84.832115171456223, 15.055923476261963 ], [ -84.830856323519356, 15.054174414386647 ], [ -84.830909731612792, 15.050672482067478 ], [ -84.832084661822648, 15.049052166353162 ], [ -84.832687385310237, 15.046225496533584 ], [ -84.836830145167099, 15.026855494034653 ], [ -84.831687920955986, 15.024229945121526 ], [ -84.823013299551008, 15.020358078947755 ], [ -84.792404181322127, 15.016464160533527 ], [ -84.768737787380729, 15.013714809209169 ], [ -84.768012992626538, 15.000248861674113 ], [ -84.766349791737341, 14.96686366005533 ], [ -84.765678397056661, 14.953406298262616 ], [ -84.761276242001045, 14.865023596437851 ], [ -84.812042238347331, 14.833429384598364 ], [ -84.819463530321229, 14.823814800052544 ] ] ] ] } }
]
}
