{
"type": "FeatureCollection",
"name": "TTX",
"crs": { "type": "name", "properties": { "name": "urn:ogc:def:crs:OGC:1.3:CRS84" } },
"features": [
{ "type": "Feature", "properties": { "fid": 19, "id": 19, "etnia_id": 44, "etnia": "Texihuat" }, "geometry": { "type": "MultiPolygon", "coordinates": [ [ [ [ -87.013153115015214, 13.568221081209391 ], [ -87.021812511296872, 13.569431294397219 ], [ -87.025527922195067, 13.570035918158652 ], [ -87.035423259610184, 13.574271190765904 ], [ -87.039756802728178, 13.57971762609394 ], [ -87.039756754408842, 13.585769638426598 ], [ -87.042846728232561, 13.583953847491729 ], [ -87.044082672321636, 13.581531511198694 ], [ -87.049034085380271, 13.582741720871297 ], [ -87.05088806517189, 13.58939932250237 ], [ -87.050895628360806, 13.596055969378387 ], [ -87.05274970071028, 13.599081980085412 ], [ -87.057083190971326, 13.600896819547183 ], [ -87.063270609876028, 13.60392092364884 ], [ -87.068840025943388, 13.606945979818018 ], [ -87.073791559463103, 13.613601672276566 ], [ -87.073173569318371, 13.619048106326826 ], [ -87.073791489174937, 13.62388991265402 ], [ -87.075027458760445, 13.626915917523865 ], [ -87.076888980703345, 13.628730764740441 ], [ -87.078125029165179, 13.631151183486752 ], [ -87.0812225779828, 13.633570656582089 ], [ -87.062660210897263, 13.635392178100743 ], [ -87.046569773802915, 13.637210831242378 ], [ -87.010681211254337, 13.637820229041674 ], [ -86.994590749733447, 13.637820227722351 ], [ -86.992118888957691, 13.637215600586128 ], [ -86.993354852952507, 13.634189593550733 ], [ -86.99273681935054, 13.630558004085787 ], [ -86.992118841031953, 13.62753199632075 ], [ -86.993972741990461, 13.625111569769276 ], [ -86.995834405440505, 13.622690188856454 ], [ -86.999542271748155, 13.61784837936141 ], [ -87.003257701395711, 13.613612159659231 ], [ -87.005729699184286, 13.611191734648584 ], [ -87.005111733683577, 13.608165729767977 ], [ -86.99892426367569, 13.606349931139635 ], [ -86.995834316896108, 13.603930456484568 ], [ -86.992736829384597, 13.60029791857909 ], [ -86.993354813211781, 13.59424590205108 ], [ -86.99459075259287, 13.590614308496674 ], [ -86.9970703320719, 13.589404095009336 ], [ -87.001396111764336, 13.585773458407695 ], [ -87.002639834800803, 13.580930692109231 ], [ -87.003257727156665, 13.577300062678535 ], [ -87.006347608344882, 13.573063838738399 ], [ -87.009437513084706, 13.570036873338871 ], [ -87.013153115015214, 13.568221081209391 ] ] ] ] } }
]
}
