{
"type": "FeatureCollection",
"name": "iv_predios_2012",
"crs": { "type": "name", "properties": { "name": "urn:ogc:def:crs:OGC:1.3:CRS84" } },
"features": [
{ "type": "Feature", "properties": { "id": null }, "geometry": { "type": "MultiPolygon", "coordinates": [ [ [ [ -88.183715463738196, 14.673337461819555 ], [ -88.183463726534839, 14.673321145519338 ], [ -88.183473050134964, 14.673041437515622 ], [ -88.183358836033449, 14.672824663812742 ], [ -88.183330865233074, 14.672861958213238 ], [ -88.183298232632652, 14.672847972813052 ], [ -88.183241125581887, 14.672921396164027 ], [ -88.183149055030668, 14.672839814662941 ], [ -88.183181687631105, 14.672789700312276 ], [ -88.183144393230606, 14.672768722212 ], [ -88.183118753330263, 14.672803685712465 ], [ -88.183102437030044, 14.672698795211071 ], [ -88.183214320231528, 14.672633530010204 ], [ -88.183146724130637, 14.672502999608469 ], [ -88.183230636531746, 14.672465705207975 ], [ -88.183414777634198, 14.67262653731011 ], [ -88.183524329935651, 14.672640522710296 ], [ -88.183783059839087, 14.672631199110173 ], [ -88.184030135242367, 14.672654508110481 ], [ -88.183983517241757, 14.672822332912711 ], [ -88.1837317800384, 14.672889929013609 ], [ -88.183717794638227, 14.673183622417511 ], [ -88.183715463738196, 14.673337461819555 ] ] ] ] } },
{ "type": "Feature", "properties": { "id": null }, "geometry": { "type": "MultiPolygon", "coordinates": [ [ [ [ -88.182645580623998, 14.672804851162484 ], [ -88.182806412726151, 14.672888763563599 ], [ -88.183053488129431, 14.672779211262142 ], [ -88.183095444329993, 14.672877109063444 ], [ -88.18300453922879, 14.672930719764155 ], [ -88.182974237528384, 14.67296568326462 ], [ -88.182983561128509, 14.673056588365828 ], [ -88.18294626672801, 14.673068242865982 ], [ -88.183006870128821, 14.673170802467345 ], [ -88.182955590328135, 14.673187118767562 ], [ -88.182955590328135, 14.673287347468893 ], [ -88.182983561128509, 14.673357274469822 ], [ -88.182878670627119, 14.67340156157041 ], [ -88.182748140225385, 14.673357274469824 ], [ -88.182533697422528, 14.673308325569172 ], [ -88.182407828820828, 14.673051926565767 ], [ -88.182605955323467, 14.672970345064682 ], [ -88.182540690122593, 14.672860792763228 ], [ -88.182645580623998, 14.672804851162484 ] ] ] ] } },
{ "type": "Feature", "properties": { "id": null }, "geometry": { "type": "MultiPolygon", "coordinates": [ [ [ [ -88.175811381733297, 14.692629155925873 ], [ -88.174734505918991, 14.693090674132003 ], [ -88.174459459715337, 14.692517272724388 ], [ -88.175568968130065, 14.692088387118689 ], [ -88.175811381733297, 14.692629155925873 ] ] ] ] } },
{ "type": "Feature", "properties": { "id": null }, "geometry": { "type": "MultiPolygon", "coordinates": [ [ [ [ -88.174387201814525, 14.670519403682219 ], [ -88.174185578961854, 14.670744335535277 ], [ -88.173122688547735, 14.670194243127968 ], [ -88.172866289544302, 14.669884233423851 ], [ -88.172831326043834, 14.669588209119919 ], [ -88.172950201945412, 14.669387751717254 ], [ -88.173229909949129, 14.669560238319546 ], [ -88.173462999952264, 14.669245566815361 ], [ -88.173360440350905, 14.669040447612636 ], [ -88.173472323552389, 14.668816681209663 ], [ -88.174758980369475, 14.669310832016228 ], [ -88.174824245570349, 14.669842277223287 ], [ -88.174903496171396, 14.669865586223597 ], [ -88.174922143371646, 14.670121985227004 ], [ -88.174482768715791, 14.670442483981192 ], [ -88.174387201814525, 14.670519403682219 ] ] ] ] } }
]
}
