{
"type": "FeatureCollection",
"name": "PA14",
"crs": { "type": "name", "properties": { "name": "urn:ogc:def:crs:OGC:1.3:CRS84" } },
"features": [
{ "type": "Feature", "properties": { "id": null }, "geometry": { "type": "MultiPolygon", "coordinates": [ [ [ [ -88.18510377999489, 14.684335467342947 ], [ -88.185205459769136, 14.684500696976109 ], [ -88.185180039825568, 14.684678636581051 ], [ -88.185485079148322, 14.684729476468176 ], [ -88.185472369176537, 14.685021805819153 ], [ -88.18565030878149, 14.685606464521104 ], [ -88.185866378301768, 14.685606464521104 ], [ -88.186069737850275, 14.686508872517596 ], [ -88.185917218188905, 14.68702998136064 ], [ -88.186463746975505, 14.687767159723972 ], [ -88.185485079148336, 14.688923767156094 ], [ -88.185739278583966, 14.689559265745173 ], [ -88.18551049909189, 14.690499803657008 ], [ -88.185281719599828, 14.690652323318387 ], [ -88.185764698527521, 14.691414921625281 ], [ -88.185192749797352, 14.693118057844011 ], [ -88.184798740672122, 14.69304179801332 ], [ -88.183832782816722, 14.693944206009812 ], [ -88.1830096, 14.6941239 ], [ -88.183057474538046, 14.692355459537117 ], [ -88.183260834086553, 14.690881102810456 ], [ -88.184023432393445, 14.689648235547644 ], [ -88.185116489966674, 14.688606017861554 ], [ -88.185014810192413, 14.688300978538795 ], [ -88.184125112167706, 14.686750361981444 ], [ -88.18443015149046, 14.686648682207192 ], [ -88.184887710474598, 14.686991851445294 ], [ -88.185192749797352, 14.686801201868571 ], [ -88.185370689402305, 14.687220630937363 ], [ -88.185739278583966, 14.687157081078455 ], [ -88.185434239261212, 14.686038603561677 ], [ -88.184887710474598, 14.685708144295356 ], [ -88.184353891659782, 14.685021805819151 ], [ -88.184786030700351, 14.684856576185991 ], [ -88.184671640954321, 14.684576956806797 ], [ -88.184671640954321, 14.684310047399384 ], [ -88.18510377999489, 14.684335467342947 ] ] ] ] } },
{ "type": "Feature", "properties": { "id": null }, "geometry": { "type": "MultiPolygon", "coordinates": [ [ [ [ -88.187912683758626, 14.676804809062366 ], [ -88.188128753278917, 14.676935086273126 ], [ -88.188217723081394, 14.676896956357782 ], [ -88.188281272940301, 14.676979571174362 ], [ -88.188452857559355, 14.676944618751962 ], [ -88.188510052432363, 14.677065363483887 ], [ -88.18913284104967, 14.677459372609116 ], [ -88.189456945330093, 14.677910576607362 ], [ -88.189673014850385, 14.678418975478625 ], [ -88.1899399242578, 14.67878756466029 ], [ -88.190295803467677, 14.679556517953076 ], [ -88.190359353326585, 14.680052206852556 ], [ -88.19033393338303, 14.680827515131233 ], [ -88.190143283806293, 14.681221524256459 ], [ -88.189641239920917, 14.68178711800074 ], [ -88.189399750457071, 14.681717213155942 ], [ -88.18875154189621, 14.681971412591572 ], [ -88.187467834746272, 14.68204131743637 ], [ -88.185802828442903, 14.682022252478699 ], [ -88.185580403936726, 14.681914217718555 ], [ -88.185078360051364, 14.682340001773238 ], [ -88.18519910478328, 14.682543361321743 ], [ -88.185129199938487, 14.682810270729156 ], [ -88.184658930982565, 14.682880175573954 ], [ -88.184353891659811, 14.682867465602172 ], [ -88.183902687661558, 14.682822980700937 ], [ -88.183826427830866, 14.682714945940793 ], [ -88.18464622101078, 14.681748988085396 ], [ -88.184894065460526, 14.681685438226486 ], [ -88.185002100220672, 14.68178711800074 ], [ -88.185402464331787, 14.681475723692092 ], [ -88.185580403936726, 14.681405818847294 ], [ -88.186215902525817, 14.681482078677982 ], [ -88.188306692883884, 14.681259654171805 ], [ -88.188554537333616, 14.681246944200023 ], [ -88.189164615979124, 14.681285074115369 ], [ -88.189088356148432, 14.680859290060686 ], [ -88.189336200598177, 14.680344536203533 ], [ -88.19018141372166, 14.679709037614455 ], [ -88.19018141372166, 14.679569227924857 ], [ -88.189997119130823, 14.679607357840201 ], [ -88.189736564709307, 14.679480258122386 ], [ -88.18967936983627, 14.679194283757301 ], [ -88.189927214286001, 14.679137088884284 ], [ -88.189844599469424, 14.67885746950509 ], [ -88.189590400033794, 14.678952794293451 ], [ -88.18926629575337, 14.678889244434544 ], [ -88.188681637051417, 14.678342715647936 ], [ -88.188783316825663, 14.677726282016529 ], [ -88.188599022234825, 14.677694507087075 ], [ -88.187734744153687, 14.677186108215814 ], [ -88.187912683758626, 14.676804809062366 ] ] ] ] } },
{ "type": "Feature", "properties": { "id": null }, "geometry": { "type": "MultiPolygon", "coordinates": [ [ [ [ -88.191929034841579, 14.667199247888442 ], [ -88.192132394390086, 14.667911006308211 ], [ -88.191573155631701, 14.668482955038382 ], [ -88.190988496929748, 14.668216045630968 ], [ -88.190607197776302, 14.66758054704189 ], [ -88.190632617719857, 14.66733905757804 ], [ -88.191013916873302, 14.667122988057754 ], [ -88.191496895801009, 14.666945048452812 ], [ -88.191929034841579, 14.667199247888442 ] ] ] ] } },
{ "type": "Feature", "properties": { "id": null }, "geometry": { "type": "MultiPolygon", "coordinates": [ [ [ [ -88.191573155631701, 14.668482955038382 ], [ -88.190721587522333, 14.668648184671541 ], [ -88.19039112825601, 14.668571924840853 ], [ -88.190492808030257, 14.669016773853206 ], [ -88.188980321388257, 14.669906471877917 ], [ -88.188802381783319, 14.670541970466996 ], [ -88.188293982912057, 14.670910559648661 ], [ -88.187887263815043, 14.670923269620443 ], [ -88.187633064379412, 14.670948689564007 ], [ -88.187378864943781, 14.671241018914982 ], [ -88.187480544718028, 14.671406248548143 ], [ -88.187353445000213, 14.672588275923829 ], [ -88.187035695705674, 14.673033124936184 ], [ -88.186883176044304, 14.673261904428252 ], [ -88.187353445000213, 14.673871983073767 ], [ -88.186934015931428, 14.674062632650491 ], [ -88.186387487144813, 14.673884693045549 ], [ -88.185459659204767, 14.673465263976757 ], [ -88.185879088273552, 14.67341442408963 ], [ -88.186133287709183, 14.672893315246586 ], [ -88.186540006806197, 14.673134804710436 ], [ -88.186832336157167, 14.672715375641644 ], [ -88.186692526467581, 14.672550146008485 ], [ -88.186756076326489, 14.672372206403542 ], [ -88.186984855818551, 14.672423046290668 ], [ -88.187150085451719, 14.672156136883256 ], [ -88.18726447519775, 14.671787547701589 ], [ -88.187048405677459, 14.671406248548143 ], [ -88.186857756100736, 14.671329988717453 ], [ -88.186883176044304, 14.671126629168949 ], [ -88.187099245564582, 14.671113919197166 ], [ -88.187239055254182, 14.670821589846192 ], [ -88.187099245564582, 14.670440290692744 ], [ -88.186946725903212, 14.670554680438778 ], [ -88.187061115649243, 14.669779372160102 ], [ -88.18770932421009, 14.668673604615105 ], [ -88.188281272940273, 14.667758486646832 ], [ -88.187925393730382, 14.667529707154763 ], [ -88.188408372658088, 14.666919628509248 ], [ -88.189158260993196, 14.666830658706777 ], [ -88.18971749975158, 14.666856078650341 ], [ -88.190594487804518, 14.666805238763214 ], [ -88.191128306619333, 14.666652719101835 ], [ -88.191013916873302, 14.667122988057754 ], [ -88.190632617719857, 14.66733905757804 ], [ -88.190607197776302, 14.66758054704189 ], [ -88.190988496929748, 14.668216045630968 ], [ -88.191573155631701, 14.668482955038382 ] ] ] ] } }
]
}
