{
"type": "FeatureCollection",
"name": "PA11PA",
"crs": { "type": "name", "properties": { "name": "urn:ogc:def:crs:OGC:1.3:CRS84" } },
"features": [
{ "type": "Feature", "properties": { "id": 20, "Prop_orig": "Prisiliano Argueta", "Comunidad": "San Ramon, SFdO", "Infr_asoci": "Sitio Presa lado izquierdo", "Area (m2)": 34940.0 }, "geometry": { "type": "MultiPolygon", "coordinates": [ [ [ [ -88.188108193093129, 14.668911544344645 ], [ -88.188399715606366, 14.669084233841719 ], [ -88.188935311052091, 14.669294438406943 ], [ -88.189097289183593, 14.669352315707282 ], [ -88.189096410039411, 14.669369764061116 ], [ -88.189059432121482, 14.669469878574597 ], [ -88.189058120551451, 14.669489181204742 ], [ -88.189308721081318, 14.669621247306329 ], [ -88.188654819724746, 14.670706542969651 ], [ -88.186945470754935, 14.670683580730129 ], [ -88.186962118155989, 14.670620094777055 ], [ -88.186998779364572, 14.670592341881111 ], [ -88.18702049706414, 14.670550193373851 ], [ -88.187029558349451, 14.670523959750174 ], [ -88.187054029547056, 14.670467325226705 ], [ -88.187074324035422, 14.670423805705669 ], [ -88.187072848837715, 14.670412786996744 ], [ -88.187072637091475, 14.670373507079155 ], [ -88.187060450826948, 14.670345314581622 ], [ -88.187084236409689, 14.670292818400723 ], [ -88.187103841573588, 14.670252748101344 ], [ -88.187080795658957, 14.670179816961957 ], [ -88.187089418575766, 14.670072267014714 ], [ -88.187127727808146, 14.669956295720553 ], [ -88.18723280073317, 14.669618769266084 ], [ -88.187275886635618, 14.669469694812356 ], [ -88.18730297369143, 14.669373076764963 ], [ -88.187321588503238, 14.669280636846471 ], [ -88.187308253214752, 14.669170614811186 ], [ -88.187333043733844, 14.66917324470638 ], [ -88.188108193093129, 14.668911544344645 ] ] ] ] } }
]
}
