{
"type": "FeatureCollection",
"name": "PA11RA",
"crs": { "type": "name", "properties": { "name": "urn:ogc:def:crs:OGC:1.3:CRS84" } },
"features": [
{ "type": "Feature", "properties": { "id": 19, "Prop_orig": "Ramon Argueta", "Comunidad": "San Ramon, SFdO", "Infr_asoci": "Embalse lado izquierdo", "Area (m2)": 69880.0 }, "geometry": { "type": "MultiPolygon", "coordinates": [ [ [ [ -88.188660027576091, 14.664894595537286 ], [ -88.188720885498583, 14.664912776240914 ], [ -88.189132829156023, 14.665167029290643 ], [ -88.189355047751476, 14.665418806743286 ], [ -88.189602332382904, 14.665724208575634 ], [ -88.189346253258066, 14.669492702903177 ], [ -88.189205494593338, 14.669382471775107 ], [ -88.189182134680919, 14.669382591321614 ], [ -88.188935311052091, 14.669294438406943 ], [ -88.188399715606366, 14.669084233841719 ], [ -88.188108193093129, 14.668911544344645 ], [ -88.187877812431552, 14.668984392699235 ], [ -88.187333043733844, 14.66917324470638 ], [ -88.187308253214752, 14.669170614811186 ], [ -88.187346203577604, 14.669119424518248 ], [ -88.187351333378899, 14.669086147285215 ], [ -88.187370334558679, 14.669065375986166 ], [ -88.187423237619072, 14.668964663459729 ], [ -88.187627353068891, 14.668900104608779 ], [ -88.187650453402, 14.668808101175456 ], [ -88.187672936919526, 14.668776745239475 ], [ -88.187695494758046, 14.668759171727761 ], [ -88.187747014082532, 14.668686318966088 ], [ -88.187790251972174, 14.668653019233558 ], [ -88.187830757465747, 14.668638110534372 ], [ -88.187910760175086, 14.668596353172244 ], [ -88.187924838357077, 14.668581579547913 ], [ -88.187934152773565, 14.668558560591761 ], [ -88.187971504589498, 14.668483942502812 ], [ -88.188012393801586, 14.668365201349472 ], [ -88.188025523175497, 14.668349513717068 ], [ -88.188063147538116, 14.668325431174461 ], [ -88.188149776729134, 14.668287315277297 ], [ -88.18816478135696, 14.668269320916171 ], [ -88.188172074238594, 14.668221503240305 ], [ -88.188175472831205, 14.668151652987914 ], [ -88.187861513635212, 14.667515573490206 ], [ -88.187830035331444, 14.667454171178454 ], [ -88.187800982208799, 14.667317410454032 ], [ -88.187778714288001, 14.667213693781759 ], [ -88.187747808272775, 14.667083374490113 ], [ -88.187720843579584, 14.666983816652541 ], [ -88.187711656762374, 14.666942974604799 ], [ -88.187714866012357, 14.66692549998076 ], [ -88.187825924978057, 14.666516961286685 ], [ -88.187826749883442, 14.66649490457813 ], [ -88.18787120606936, 14.66633755335862 ], [ -88.187893694284469, 14.666307116244585 ], [ -88.187910524516809, 14.666277626901072 ], [ -88.187950761988759, 14.666213101471492 ], [ -88.188049929926819, 14.666049957452946 ], [ -88.188164045209064, 14.665858252520971 ], [ -88.188267897244586, 14.665688652505189 ], [ -88.188306227048514, 14.665620461363392 ], [ -88.188365182051186, 14.665526436859029 ], [ -88.188416606287944, 14.665436126262458 ], [ -88.188417500536261, 14.665426933152476 ], [ -88.188457757545564, 14.66536608296698 ], [ -88.188534451613691, 14.665236132428188 ], [ -88.18860455375129, 14.665108972139466 ], [ -88.188659391144853, 14.66495156772355 ], [ -88.188660027576091, 14.664894595537286 ] ] ] ] } }
]
}
