{
"type": "FeatureCollection",
"name": "PA11JS",
"crs": { "type": "name", "properties": { "name": "urn:ogc:def:crs:OGC:1.3:CRS84" } },
"features": [
{ "type": "Feature", "properties": { "id": 9, "Prop_orig": "José Santos Vasquez", "Comunidad": "La Tejera", "Infr_asoci": "Tubería forzada", "Area (m2)": 20364.12 }, "geometry": { "type": "MultiPolygon", "coordinates": [ [ [ [ -88.176096215440509, 14.689861506138561 ], [ -88.175357669635687, 14.69132194015082 ], [ -88.17484816973473, 14.6911309478867 ], [ -88.17454166137594, 14.691006309894401 ], [ -88.174578751167161, 14.690881157772532 ], [ -88.174643032197309, 14.690662757288576 ], [ -88.174766703621273, 14.690252934143505 ], [ -88.174913971468769, 14.69001941181423 ], [ -88.17502104334288, 14.689800794616627 ], [ -88.175073654503564, 14.689753972880386 ], [ -88.175146219436272, 14.689672746149169 ], [ -88.175183766998373, 14.689633351511285 ], [ -88.175196182461249, 14.689601434976591 ], [ -88.175412376059825, 14.689224145290094 ], [ -88.176058314210906, 14.689834745110314 ], [ -88.176096215440509, 14.689861506138561 ] ] ] ] } },
{ "type": "Feature", "properties": { "id": 10, "Prop_orig": "José Santos Vasquez", "Comunidad": "La Tejera", "Infr_asoci": "Assit", "Area (m2)": 4380.2 }, "geometry": { "type": "MultiPolygon", "coordinates": [ [ [ [ -88.17694725893503, 14.683089294536629 ], [ -88.176799900344392, 14.68303628841249 ], [ -88.176736574449436, 14.683009732840006 ], [ -88.176644920664785, 14.682948174575493 ], [ -88.176482906198174, 14.682835287162096 ], [ -88.176440209748549, 14.682794154988434 ], [ -88.176382525351272, 14.682730357059834 ], [ -88.176326854221102, 14.682645874654783 ], [ -88.176375380286032, 14.682585673446855 ], [ -88.176396441079902, 14.682552487925397 ], [ -88.176421561478193, 14.682484135592896 ], [ -88.176429957049393, 14.682465486221442 ], [ -88.176537793663414, 14.682376040502715 ], [ -88.177074010603832, 14.682565593339493 ], [ -88.177152777941373, 14.682600340242347 ], [ -88.17717475669923, 14.682738746312499 ], [ -88.177232197951085, 14.682757061903375 ], [ -88.1771753761372, 14.68285451899291 ], [ -88.177116209287732, 14.68291063945246 ], [ -88.17694725893503, 14.683089294536629 ] ] ] ] } }
]
}
