{
"type": "FeatureCollection",
"name": "PA11IG",
"crs": { "type": "name", "properties": { "name": "urn:ogc:def:crs:OGC:1.3:CRS84" } },
"features": [
{ "type": "Feature", "properties": { "id": 2, "Prop_orig": "Irene Gonzalez", "Comunidad": "El Barreal", "Infr_asoci": "Tubería forzada", "Area (m2)": 6848.07 }, "geometry": { "type": "MultiPolygon", "coordinates": [ [ [ [ -88.174766703621273, 14.690252934143505 ], [ -88.174751497017354, 14.690263041962449 ], [ -88.174619533416006, 14.690298626444903 ], [ -88.174568350181161, 14.69025937469476 ], [ -88.17449816814387, 14.690197707112681 ], [ -88.174436031624083, 14.690140133643361 ], [ -88.174360112485061, 14.690064712206757 ], [ -88.17428147201187, 14.690009978771144 ], [ -88.174239810367894, 14.689986069599138 ], [ -88.174198212513815, 14.689974105224707 ], [ -88.174146726720821, 14.689966555434719 ], [ -88.17415752302297, 14.689955474540392 ], [ -88.174203540004655, 14.689911136631524 ], [ -88.174239276796058, 14.689886146705588 ], [ -88.174273184601859, 14.689872192301261 ], [ -88.174374898177675, 14.689828491398035 ], [ -88.174417281683986, 14.689810818660877 ], [ -88.1744391605244, 14.689798073674673 ], [ -88.174461449984889, 14.689773840908819 ], [ -88.174466936886219, 14.689740734326724 ], [ -88.174515495999458, 14.68964217099567 ], [ -88.174543514440188, 14.689585978985436 ], [ -88.174555466490901, 14.689526192859576 ], [ -88.174570215960856, 14.689459960583902 ], [ -88.174584041128426, 14.689397408409304 ], [ -88.174607398790428, 14.68935226625317 ], [ -88.174632688464413, 14.68931538402064 ], [ -88.174666419468835, 14.68926835164638 ], [ -88.174698218436831, 14.689213059343318 ], [ -88.17473222427202, 14.689217481502965 ], [ -88.174771834756783, 14.689210849017199 ], [ -88.174843558315217, 14.689207729393141 ], [ -88.174911609259183, 14.689223924312763 ], [ -88.174932444331873, 14.68923668282005 ], [ -88.174949567525985, 14.68926140524313 ], [ -88.174973254016336, 14.689277824734427 ], [ -88.175002540238864, 14.689282270746906 ], [ -88.175026256191956, 14.689304203218279 ], [ -88.175048157942953, 14.689339927709717 ], [ -88.175066389874999, 14.689351321099426 ], [ -88.175089015851313, 14.689345923121016 ], [ -88.175119822614263, 14.689325782025913 ], [ -88.175147196444442, 14.689325643423336 ], [ -88.175189879304114, 14.689364019243358 ], [ -88.175227778716675, 14.689390474151397 ], [ -88.175305318099205, 14.689415809459689 ], [ -88.175196182461249, 14.689601434976591 ], [ -88.175183766998373, 14.689633351511285 ], [ -88.175073654503564, 14.689753972880386 ], [ -88.17502104334288, 14.689800794616627 ], [ -88.174913971468769, 14.69001941181423 ], [ -88.174766703621273, 14.690252934143505 ] ] ] ] } }
]
}
