{
"type": "FeatureCollection",
"name": "PA11LM",
"crs": { "type": "name", "properties": { "name": "urn:ogc:def:crs:OGC:1.3:CRS84" } },
"features": [
{ "type": "Feature", "properties": { "id": 6, "Prop_orig": "Lucio Madrid", "Comunidad": "El Barreal", "Infr_asoci": "Camino al addit", "Area (m2)": 1309.55 }, "geometry": { "type": "MultiPolygon", "coordinates": [ [ [ [ -88.17694725893503, 14.683089294536629 ], [ -88.177116209287732, 14.68291063945246 ], [ -88.1771753761372, 14.68285451899291 ], [ -88.177232197951085, 14.682757061903375 ], [ -88.17717475669923, 14.682738746312499 ], [ -88.177152777941373, 14.682600340242347 ], [ -88.177074010603832, 14.682565593339493 ], [ -88.176537793663414, 14.682376040502715 ], [ -88.176576369932263, 14.682341732499729 ], [ -88.177570158801544, 14.682708831027316 ], [ -88.177516760694473, 14.682850720465993 ], [ -88.177467294730462, 14.682933668337112 ], [ -88.177422977726948, 14.682986612423218 ], [ -88.177406148001282, 14.683016675434756 ], [ -88.177340919635441, 14.683130714594638 ], [ -88.177275569515672, 14.683222012679568 ], [ -88.177210617503945, 14.683189263214125 ], [ -88.177103201160108, 14.683158796447184 ], [ -88.177070205290661, 14.683144491752117 ], [ -88.17694725893503, 14.683089294536629 ] ] ] ] } }
]
}
