{
"type": "FeatureCollection",
"name": "PA11RP",
"crs": { "type": "name", "properties": { "name": "urn:ogc:def:crs:OGC:1.3:CRS84" } },
"features": [
{ "type": "Feature", "properties": { "id": 1, "Prop_orig": "Ricardo Pineda", "Comunidad": "El Barreal", "Infr_asoci": "Casa de Máquinas", "Area (m2)": 22332.7 }, "geometry": { "type": "MultiPolygon", "coordinates": [ [ [ [ -88.175357669635687, 14.69132194015082 ], [ -88.175403252354997, 14.691608392214027 ], [ -88.175417384899333, 14.691662226822306 ], [ -88.175417666517305, 14.691714906447768 ], [ -88.175436663112777, 14.691736862756741 ], [ -88.175440799072675, 14.691804224546358 ], [ -88.175589920797847, 14.69191740721465 ], [ -88.175618900925286, 14.691923386099697 ], [ -88.17564418391693, 14.691944085399555 ], [ -88.175787654974386, 14.692177360328555 ], [ -88.176054847315314, 14.692716293226487 ], [ -88.175975838175773, 14.692769374697862 ], [ -88.175954520842808, 14.692784184419001 ], [ -88.175915537429134, 14.692790507683844 ], [ -88.175895400046969, 14.692790609734836 ], [ -88.175876560565044, 14.692798056049551 ], [ -88.175857793156268, 14.692818978542643 ], [ -88.175839012639685, 14.692837450819926 ], [ -88.17583785233505, 14.692855833806687 ], [ -88.175820330400654, 14.692874299704897 ], [ -88.175805378053198, 14.692902553704766 ], [ -88.175770307961599, 14.692934585066832 ], [ -88.175726519469492, 14.69298381256762 ], [ -88.175684028854079, 14.693040384328162 ], [ -88.175615173373913, 14.693109341068691 ], [ -88.175603852629777, 14.693110623566479 ], [ -88.175586337206582, 14.693130314556925 ], [ -88.175534918495117, 14.693164878997967 ], [ -88.17549227713755, 14.693193273259157 ], [ -88.175455974565224, 14.693230211385416 ], [ -88.17544468656402, 14.693237619412924 ], [ -88.175382078045473, 14.693297968461753 ], [ -88.175358204142427, 14.693305440240778 ], [ -88.175289328827972, 14.693370721574443 ], [ -88.175258945841193, 14.693337796673159 ], [ -88.175256376268578, 14.693328008563237 ], [ -88.175243672488193, 14.693306020377307 ], [ -88.175220860700904, 14.693276732543211 ], [ -88.17519296217273, 14.69323766934445 ], [ -88.175154929457378, 14.693186406060731 ], [ -88.17512961361389, 14.693159581179184 ], [ -88.175125589011813, 14.693113046214846 ], [ -88.17511543517611, 14.693097170809196 ], [ -88.175101407354603, 14.693062937911412 ], [ -88.175069805139728, 14.693037369998667 ], [ -88.175044594089258, 14.693030146826947 ], [ -88.175025675980834, 14.693022891784867 ], [ -88.174996662978799, 14.693010787297734 ], [ -88.174960046073181, 14.692988920184675 ], [ -88.174929774490835, 14.692976822061686 ], [ -88.174922065833357, 14.692947457715738 ], [ -88.174904334306476, 14.692926720105662 ], [ -88.174892790970219, 14.69288634890755 ], [ -88.174885075774853, 14.692855759451858 ], [ -88.17487486304816, 14.692828858063981 ], [ -88.174865882724291, 14.692797049872077 ], [ -88.174858160990084, 14.69276523530705 ], [ -88.174846604579812, 14.69272241388941 ], [ -88.174832596466771, 14.69269185629258 ], [ -88.174813573652386, 14.692664999506631 ], [ -88.174788218635555, 14.692630823932641 ], [ -88.174768081259856, 14.692630925884728 ], [ -88.17472022880871, 14.692626267582824 ], [ -88.174698819755562, 14.692623925684988 ], [ -88.174677423793867, 14.692624034000733 ], [ -88.174659810135438, 14.692625348308253 ], [ -88.174651032760522, 14.692631518446658 ], [ -88.174628410938155, 14.692637758668331 ], [ -88.174608299741422, 14.692642761037899 ], [ -88.17458823435922, 14.692656339160626 ], [ -88.174560552007321, 14.69265770442852 ], [ -88.174545442427629, 14.692656555770213 ], [ -88.174534102061941, 14.692654162891017 ], [ -88.174508930337311, 14.692654290303491 ], [ -88.17447610238365, 14.692634854209487 ], [ -88.174460914273197, 14.692619004250833 ], [ -88.174448190982673, 14.692593340687395 ], [ -88.174435421885946, 14.692559101367623 ], [ -88.174423944099658, 14.692530981216306 ], [ -88.174401191399582, 14.692512719257017 ], [ -88.174387274976468, 14.692499313138322 ], [ -88.174373332379801, 14.692481006586862 ], [ -88.174364391407593, 14.692456549015896 ], [ -88.174346653429595, 14.692434586247554 ], [ -88.174328908911676, 14.692411398369583 ], [ -88.174313727371214, 14.692396773507038 ], [ -88.174304819126519, 14.692378441472796 ], [ -88.174285802946613, 14.692352809744072 ], [ -88.174275564146612, 14.692321007889488 ], [ -88.174271598641724, 14.692285498864628 ], [ -88.174271232226346, 14.692216892815784 ], [ -88.174267273268427, 14.692182608898376 ], [ -88.174252091748755, 14.692167984030043 ], [ -88.174253278359444, 14.692154501472722 ], [ -88.174304631638179, 14.69210768623525 ], [ -88.17434340560925, 14.692062159790243 ], [ -88.174367109290486, 14.692022835314452 ], [ -88.174398312108607, 14.691973671754917 ], [ -88.174428302138196, 14.691933090317686 ], [ -88.174458226716965, 14.691880257797553 ], [ -88.174501904059639, 14.691810203691531 ], [ -88.174539406269687, 14.691762233373785 ], [ -88.174571906863193, 14.691720414072728 ], [ -88.174583077020188, 14.691690954147498 ], [ -88.174608091560088, 14.691661424144897 ], [ -88.174655590369809, 14.69159992665886 ], [ -88.174696927158237, 14.691562963178368 ], [ -88.174735720591798, 14.691521112002503 ], [ -88.174778355204865, 14.691491492785305 ], [ -88.174798407381914, 14.691475464437817 ], [ -88.174818407189505, 14.691449635225935 ], [ -88.174833366130457, 14.691422606391994 ], [ -88.174844516601638, 14.691389471133595 ], [ -88.174860766844418, 14.691368561465705 ], [ -88.174863094167591, 14.691333020594231 ], [ -88.174857902750347, 14.691303643493329 ], [ -88.17484816973473, 14.6911309478867 ], [ -88.175357669635687, 14.69132194015082 ] ] ] ] } }
]
}
