{
"type": "FeatureCollection",
"name": "Accesos clave_Presa Agua Zarca _2011",
"crs": { "type": "name", "properties": { "name": "urn:ogc:def:crs:OGC:1.3:CRS84" } },
"features": [
{ "type": "Feature", "properties": { "id": 18, "Prop_Orig": "Municipalidad de Intibúca", "Comunidad": "Intibuca, Intibuca", "Infr_asoc": "caminos de accesos", "Área (m2)": null }, "geometry": { "type": "MultiLineString", "coordinates": [ [ [ -88.169957967324478, 14.662438249047479 ], [ -88.170023864056517, 14.662450322005832 ], [ -88.170555819864987, 14.662447644113261 ], [ -88.170721458777308, 14.66244681003006 ], [ -88.170922885343174, 14.662386873739628 ], [ -88.171058623826696, 14.662354144809759 ], [ -88.171321897604898, 14.662343515017112 ], [ -88.171462069991108, 14.662345909870949 ], [ -88.171585248284401, 14.6623473565677 ], [ -88.171827445673699, 14.66236681018856 ], [ -88.171906039906645, 14.662370548874515 ], [ -88.172090636879844, 14.662340674201346 ], [ -88.172211493597828, 14.662304918493337 ], [ -88.172548734651556, 14.662226722807597 ], [ -88.172701543820935, 14.662209412579411 ], [ -88.172814137148151, 14.662217114318528 ], [ -88.17298204240096, 14.662243143813591 ], [ -88.173156373438403, 14.66227947791538 ], [ -88.173232932121408, 14.662299765876515 ], [ -88.173347748150206, 14.662326063017357 ], [ -88.173513496914424, 14.662345900708482 ], [ -88.173713057669943, 14.662334556106739 ], [ -88.173938200390964, 14.662341689033552 ], [ -88.174112608725423, 14.662392494026749 ], [ -88.174180673220903, 14.662412824566218 ], [ -88.174344761298187, 14.662519502130438 ], [ -88.174483553979172, 14.662661453683782 ], [ -88.174588105107574, 14.662753959822396 ], [ -88.174671343402167, 14.662832101589728 ], [ -88.174756562033224, 14.662883356720855 ], [ -88.174856568575379, 14.662920065070457 ], [ -88.174967104834565, 14.662940180712626 ], [ -88.175100989434441, 14.662958110848013 ], [ -88.175177471297829, 14.662963926516497 ], [ -88.175256043657271, 14.662963529300875 ], [ -88.175340909545881, 14.662948628229421 ], [ -88.175434214580889, 14.662923347307293 ], [ -88.175525318803594, 14.662883605469185 ], [ -88.175644007414078, 14.662839589239473 ], [ -88.1757522325492, 14.662824569889047 ], [ -88.175945499983669, 14.662827727184535 ], [ -88.176106946888424, 14.662837247595874 ], [ -88.176283347124425, 14.662863231665984 ], [ -88.176464082855489, 14.662905733092174 ], [ -88.176670522379354, 14.662989452851793 ], [ -88.176919566110996, 14.663097765871735 ], [ -88.177268539756156, 14.663228314266631 ], [ -88.177462216270641, 14.66330796305734 ], [ -88.177626140700951, 14.663383627542947 ], [ -88.177811312089759, 14.663461251681172 ], [ -88.17797319053426, 14.663551398268119 ], [ -88.178090529166312, 14.663652107604202 ], [ -88.178203642851543, 14.663756973142871 ], [ -88.178321158612775, 14.663890760293627 ], [ -88.178438729810878, 14.664034884231258 ], [ -88.17855869018581, 14.664228614246761 ], [ -88.178700107892212, 14.664463583926553 ], [ -88.178967702914989, 14.664863307727195 ], [ -88.179059758756125, 14.665001358409485 ], [ -88.179136849956848, 14.665120878117383 ], [ -88.179279794859156, 14.665244198539902 ], [ -88.179369450760291, 14.665330575574142 ], [ -88.179437915030675, 14.665425329810377 ], [ -88.179521233482163, 14.665517941214187 ], [ -88.179574644486294, 14.665577625536866 ], [ -88.179625732644368, 14.665600107953287 ], [ -88.179727731840273, 14.665611994823033 ], [ -88.179814699758467, 14.66559294654826 ], [ -88.179884701014871, 14.665578119223845 ], [ -88.179965397771909, 14.665577709567174 ], [ -88.180041980225923, 14.665602129888054 ], [ -88.180091354615342, 14.665701115675587 ], [ -88.180179341534981, 14.665872265311288 ], [ -88.180290832240061, 14.66607017208616 ], [ -88.180363865618105, 14.666224858154596 ], [ -88.180417631545112, 14.666350698083772 ], [ -88.180430705551444, 14.666412654463782 ], [ -88.180410167457126, 14.666543006615258 ], [ -88.180410510905716, 14.666607095077758 ], [ -88.180421428084472, 14.666662860132408 ], [ -88.18041334357585, 14.666739395955419 ], [ -88.180377508102723, 14.666789196184062 ], [ -88.180341772320844, 14.666857602736032 ], [ -88.180293449943036, 14.666955017169673 ], [ -88.180272679101492, 14.667041954547662 ], [ -88.18028380676239, 14.667136999633122 ], [ -88.180333702359675, 14.667333151698134 ], [ -88.180435318315915, 14.667669626002228 ], [ -88.180538459852499, 14.667894451492851 ], [ -88.180626680843247, 14.668109015592295 ], [ -88.180667672468886, 14.668228718022538 ], [ -88.180717147560273, 14.668346309913293 ], [ -88.18076433282576, 14.668432902041186 ], [ -88.180845507239383, 14.66852138887231 ], [ -88.180965006782699, 14.668628287735398 ], [ -88.18108469492087, 14.668770331798139 ], [ -88.181178966183637, 14.668924909531484 ], [ -88.181239314922379, 14.669089996780015 ], [ -88.181299464150342, 14.669217871368655 ], [ -88.181380883064477, 14.669351840077262 ], [ -88.18148337206523, 14.669454690247925 ], [ -88.181626398821891, 14.669592480452232 ], [ -88.181784280125427, 14.669728127582964 ], [ -88.181912497254643, 14.66987633002398 ], [ -88.18194258326939, 14.669942334575104 ], [ -88.181964529825265, 14.670074538105141 ], [ -88.181965528502644, 14.670260601221255 ], [ -88.1819728204499, 14.670432160351153 ], [ -88.181988329578004, 14.67055199206937 ], [ -88.182020894483088, 14.670684141565673 ], [ -88.182083068422983, 14.670793398754705 ], [ -88.182089827799246, 14.670865724214007 ], [ -88.182073071671653, 14.670909225368243 ], [ -88.182024593973338, 14.67097769698929 ], [ -88.18192111218238, 14.671085729465123 ], [ -88.18178173902858, 14.671233225518959 ], [ -88.181591431286421, 14.67138718280693 ], [ -88.181525853169404, 14.671435067058106 ], [ -88.181345952604545, 14.671549690176462 ], [ -88.181210504457638, 14.671637210657581 ], [ -88.181089722190777, 14.671687442869002 ], [ -88.18096882898179, 14.671717001337278 ], [ -88.18083725092508, 14.671734209500102 ], [ -88.180739695711111, 14.671759514389693 ], [ -88.180663554421045, 14.671817789222734 ], [ -88.180625638953131, 14.671875869792132 ], [ -88.180630329681847, 14.671958542955174 ], [ -88.180756501446737, 14.672121228338744 ], [ -88.180927458822481, 14.672318832221265 ], [ -88.181102586207757, 14.672501942782141 ], [ -88.181171142383761, 14.672613235173548 ], [ -88.181199337871874, 14.672722665321055 ], [ -88.181204095406386, 14.672817742657553 ], [ -88.181213044827857, 14.672902461557808 ], [ -88.181215578884391, 14.67297894337727 ], [ -88.181241462222445, 14.673053239053038 ], [ -88.181297076968377, 14.673127383548463 ], [ -88.181422850559969, 14.673215643225788 ], [ -88.181542031335383, 14.67326258787481 ], [ -88.181707777592365, 14.673280351666806 ], [ -88.181839334261554, 14.673259008214188 ], [ -88.182006993308832, 14.673237481007279 ], [ -88.18220227113504, 14.673217880563055 ], [ -88.182344434947325, 14.673194415429602 ], [ -88.18243973363775, 14.673144312239407 ], [ -88.182558126142482, 14.673044473297434 ], [ -88.182691306475064, 14.672930087057232 ], [ -88.18283298133359, 14.672815657501211 ], [ -88.182883771613163, 14.672782320133692 ], [ -88.182940955089194, 14.672753085050285 ], [ -88.182994046731906, 14.672752814715345 ], [ -88.183123723647711, 14.672776963446749 ], [ -88.183264263351859, 14.672846540086359 ], [ -88.183445019461857, 14.672891102701319 ], [ -88.183561910034783, 14.672907046619803 ], [ -88.183723297586695, 14.672904156958101 ], [ -88.183899506323556, 14.672892921966792 ], [ -88.184186334696875, 14.672916269207445 ], [ -88.184360542057789, 14.672927785714545 ], [ -88.184492164877099, 14.672918844987134 ], [ -88.18455262262394, 14.672906132203709 ], [ -88.184614092140038, 14.672884110846072 ], [ -88.184647948429941, 14.672861196566812 ], [ -88.184713548447306, 14.672817446189784 ], [ -88.184747293469954, 14.672773858243373 ], [ -88.184822060545699, 14.672657701317275 ], [ -88.1848692644392, 14.672549954633071 ], [ -88.184982601452589, 14.672300252232837 ], [ -88.185041540959503, 14.672202782775404 ], [ -88.185125964310146, 14.672105183315646 ], [ -88.18520169265139, 14.671970414589564 ], [ -88.185334180866278, 14.671727850335785 ], [ -88.185405828605667, 14.671624113703341 ], [ -88.185468903759457, 14.671505948838954 ], [ -88.18573658135989, 14.67112831217579 ], [ -88.185804109464442, 14.671048371815614 ], [ -88.185934118070193, 14.67093710121765 ], [ -88.18606537210033, 14.670859936654134 ], [ -88.186249483260468, 14.670739086322188 ], [ -88.18632879133483, 14.67067769248049 ], [ -88.186419606749737, 14.670584194825937 ], [ -88.186436478930304, 14.670562400750693 ], [ -88.186455313235953, 14.670510619045151 ], [ -88.186462400675552, 14.670446492791903 ], [ -88.186446710930113, 14.670293583719852 ], [ -88.186420798433275, 14.670214120302465 ], [ -88.186399333717318, 14.670171847757944 ], [ -88.186372209077106, 14.67006448033041 ], [ -88.186361156526104, 14.66998390732037 ], [ -88.186371479561316, 14.669929067943807 ], [ -88.186386072138419, 14.66987834161122 ], [ -88.186394087757535, 14.669789401558999 ], [ -88.186411474119026, 14.669468862444086 ] ] ] } },
{ "type": "Feature", "properties": { "id": 17, "Prop_Orig": "Municipalidad de Intibúca", "Comunidad": "Intibuca, Intibuca", "Infr_asoc": "caminos de accesos", "Área (m2)": null }, "geometry": { "type": "MultiLineString", "coordinates": [ [ [ -88.17467969569033, 14.68648654121481 ], [ -88.17465267338882, 14.686397778624077 ], [ -88.17458384504242, 14.686235833931207 ], [ -88.174530983947463, 14.686081044412552 ], [ -88.174493311843023, 14.685787660444582 ], [ -88.174467031513572, 14.685638938689316 ], [ -88.174444016455112, 14.685306199430412 ], [ -88.17443253656036, 14.685144998221984 ], [ -88.174414310057827, 14.684913538628658 ], [ -88.174392730018113, 14.684849557565984 ], [ -88.174368816508931, 14.684746307193816 ], [ -88.174353607864603, 14.684682293894323 ], [ -88.174353320919707, 14.684628542246642 ], [ -88.174376219042372, 14.684541594486264 ], [ -88.174416118467647, 14.684456628147164 ], [ -88.17446863916102, 14.684348856257762 ], [ -88.174519058098213, 14.684245229845724 ], [ -88.174584398655639, 14.684151865066312 ], [ -88.174634861652493, 14.684056508118651 ], [ -88.17468108808643, 14.683963240024832 ], [ -88.174712602575994, 14.683898990338804 ], [ -88.174727093699119, 14.683828624505377 ], [ -88.174718366762306, 14.683785252699403 ], [ -88.174633161741539, 14.683738132986099 ], [ -88.174479973794746, 14.683687222302822 ], [ -88.174343720953345, 14.683625888718458 ], [ -88.174186263517285, 14.683570864571948 ], [ -88.174088393254038, 14.683538280688071 ], [ -88.174028728925975, 14.683501368711948 ], [ -88.173996695768636, 14.683468451855838 ], [ -88.173990092769131, 14.683425069270401 ], [ -88.173996287583677, 14.683391959108562 ], [ -88.173998334134851, 14.683377476768664 ], [ -88.174027813243995, 14.683329776875208 ], [ -88.174078563180103, 14.683288171697503 ], [ -88.174144234679218, 14.683256828186025 ], [ -88.174188613255438, 14.683215255207472 ], [ -88.174201035916752, 14.683155236991578 ], [ -88.174226046730993, 14.683066211130029 ], [ -88.174221501273635, 14.683010413582577 ], [ -88.174181883187302, 14.682750118103765 ], [ -88.174157826652817, 14.682619991836969 ], [ -88.174144388984715, 14.682489811865828 ], [ -88.174145894922788, 14.682374028315722 ], [ -88.174145475685194, 14.682295468193713 ], [ -88.174157655609264, 14.682189967802273 ], [ -88.174227144012576, 14.682077975317446 ], [ -88.174294718226875, 14.682005273616811 ], [ -88.174387733389096, 14.681924173516167 ], [ -88.174457552649798, 14.681874202119481 ], [ -88.174508191827272, 14.681811923159092 ], [ -88.174518645090473, 14.681780858874314 ], [ -88.17452037156724, 14.6817064227592 ], [ -88.174504887274452, 14.681590725153658 ], [ -88.174446938909853, 14.681477309755302 ], [ -88.174391213670873, 14.681382489940392 ], [ -88.174343939366338, 14.681279357658529 ], [ -88.174307305943586, 14.681180306405219 ], [ -88.174300581623655, 14.681114182730671 ], [ -88.174274831799991, 14.68106469468902 ], [ -88.174238496325216, 14.681021462456696 ], [ -88.17419370998563, 14.6809865426613 ], [ -88.174148791281993, 14.68092681439359 ], [ -88.174043789877345, 14.68075161394583 ], [ -88.173919366100989, 14.68051862364374 ], [ -88.17383998238023, 14.680368102701406 ], [ -88.173788394924571, 14.68025258749938 ], [ -88.173747393165726, 14.680130816492031 ], [ -88.173717109411513, 14.680027598154156 ], [ -88.173708173374919, 14.679944946195222 ], [ -88.173733217209588, 14.67986212249213 ], [ -88.173777473936525, 14.67979780852937 ], [ -88.173813279787765, 14.679741806988126 ], [ -88.173886971064576, 14.6796215236678 ], [ -88.173922721719961, 14.679555185251568 ], [ -88.173964755338687, 14.679472275645187 ], [ -88.173989854178672, 14.679399788783622 ], [ -88.174000031707621, 14.679317040212156 ], [ -88.174032654909553, 14.679062581641929 ], [ -88.174051161911521, 14.678948779538812 ], [ -88.174048376442187, 14.678824747936151 ], [ -88.174023515515358, 14.678543703390977 ], [ -88.174014568440143, 14.67845898406515 ], [ -88.174003409422582, 14.678357736493833 ], [ -88.17400296829959, 14.678275041595766 ], [ -88.173996266283382, 14.678213052627825 ], [ -88.174017117552452, 14.678140587237504 ], [ -88.174044317924455, 14.678063954894125 ], [ -88.174088596292464, 14.678003775640761 ], [ -88.174160549205553, 14.677955861040513 ], [ -88.17422406234698, 14.677918326230717 ], [ -88.174370312366563, 14.677863833640744 ], [ -88.174469862510009, 14.677813711978462 ], [ -88.174533452781375, 14.677790648695632 ], [ -88.174592685265509, 14.677746933156124 ], [ -88.174647659252258, 14.677701171712835 ], [ -88.174692080823348, 14.677667868196961 ], [ -88.174725872750813, 14.677632551009509 ], [ -88.174751081516305, 14.677580737808858 ], [ -88.174763415547233, 14.677504180593129 ], [ -88.174796865359298, 14.67740477486498 ], [ -88.174813391626699, 14.677317859303235 ], [ -88.174846951745351, 14.677239127290282 ], [ -88.174918760772741, 14.67716433664709 ], [ -88.175003356179545, 14.677097751010637 ], [ -88.17506460172801, 14.677033350906347 ], [ -88.175129951176942, 14.67694205346459 ], [ -88.175171972863581, 14.676857076320321 ], [ -88.175201395752808, 14.676799039476171 ], [ -88.175211650045398, 14.676730762479052 ], [ -88.175211296824543, 14.676664606580172 ], [ -88.175199839392718, 14.676507540044481 ], [ -88.175126474425554, 14.676290831310917 ], [ -88.175001357195654, 14.675927596955892 ], [ -88.174958143793631, 14.675789297873315 ], [ -88.174888960546141, 14.675560163298078 ], [ -88.174852206666642, 14.675438370935073 ], [ -88.174800465590579, 14.67529391265024 ], [ -88.174759552685998, 14.675188680723384 ], [ -88.174729236231784, 14.675079260341919 ], [ -88.174726836729562, 14.675027586769362 ], [ -88.174726527826152, 14.674969700339284 ], [ -88.174745177706683, 14.674882774036464 ], [ -88.174772256146682, 14.674783400537899 ], [ -88.174830958231723, 14.674640451110953 ], [ -88.174885633536718, 14.674538870604074 ], [ -88.174927522530396, 14.674429085044457 ], [ -88.174961038111462, 14.674342083541823 ], [ -88.174973405077154, 14.674271728430307 ], [ -88.174983571112534, 14.674186912452594 ], [ -88.174964182095522, 14.67413532481301 ], [ -88.174946806437063, 14.674063052704847 ], [ -88.174906290933222, 14.674032246192809 ], [ -88.174852680292176, 14.67393534819095 ], [ -88.17477357447946, 14.673836511672562 ], [ -88.174709058732731, 14.673685915632626 ], [ -88.174661631792617, 14.673553840017881 ], [ -88.174646413062675, 14.673487759253417 ], [ -88.174618209612191, 14.673376260709567 ], [ -88.174566778099475, 14.673289688742258 ], [ -88.174509074858747, 14.673221755326079 ], [ -88.174395692912356, 14.673067271348536 ], [ -88.174299399760116, 14.672931307786859 ], [ -88.174250158314834, 14.672857129234345 ], [ -88.17420308467905, 14.672791209428301 ], [ -88.174158057568505, 14.672710807264107 ], [ -88.174138624797081, 14.672650950031789 ], [ -88.174123395280404, 14.672582801838368 ], [ -88.174122987367568, 14.672506309023035 ], [ -88.174128873292815, 14.67241531239628 ], [ -88.174143264914179, 14.672326340212834 ], [ -88.174172345801011, 14.672204214926126 ], [ -88.174193053271424, 14.672104873675524 ], [ -88.174207389730853, 14.672005564622109 ], [ -88.174211350409834, 14.671951791447489 ], [ -88.174223673443407, 14.671873166860218 ], [ -88.174219117414879, 14.671815301869547 ], [ -88.174184852159527, 14.671761721881015 ], [ -88.174137734705639, 14.671687532542736 ], [ -88.174088493623174, 14.671613353923519 ], [ -88.174036996637426, 14.671514377538273 ], [ -88.173960203162622, 14.67145067525316 ], [ -88.173894072115672, 14.67139518878685 ], [ -88.173830130886628, 14.671352095813026 ], [ -88.173774673296833, 14.671306892532492 ], [ -88.173673968757541, 14.671139939452859 ], [ -88.173603293059401, 14.671028655245586 ], [ -88.173524001619057, 14.670894672798381 ], [ -88.173393412095905, 14.670698926480833 ], [ -88.173316299641897, 14.670575270088069 ], [ -88.173188054440459, 14.670420860387738 ], [ -88.173115189505239, 14.670297182464981 ], [ -88.173055143635708, 14.670187911808835 ], [ -88.172950170878494, 14.670016845013603 ], [ -88.172813453712038, 14.669866612684714 ], [ -88.172768460799091, 14.669792412274074 ], [ -88.172737705891706, 14.669600296457297 ], [ -88.17270290192819, 14.669445414813744 ], [ -88.172702290936485, 14.669330675501007 ], [ -88.172715648739484, 14.669246877151231 ], [ -88.172736560370154, 14.669185782415513 ], [ -88.172730976048541, 14.669134124833226 ], [ -88.17271451483488, 14.669033937522228 ], [ -88.172670677534342, 14.66897730440223 ], [ -88.172556523592661, 14.668876576327712 ], [ -88.172426354442649, 14.668759389543142 ], [ -88.172262152261496, 14.668632037201343 ], [ -88.17197406996317, 14.668371960201258 ], [ -88.171831236630396, 14.668269308922083 ], [ -88.171713963979457, 14.668181000690144 ], [ -88.171541345090333, 14.668068162231553 ], [ -88.171488078414924, 14.668035351847854 ], [ -88.171426174294652, 14.66797570837835 ], [ -88.171389643789524, 14.667895262678945 ], [ -88.171397852419446, 14.667841468080013 ], [ -88.171439203400709, 14.667630381617046 ], [ -88.171455136814529, 14.667431827860435 ], [ -88.171477496055743, 14.667243578869751 ], [ -88.171510858224465, 14.667127634524299 ], [ -88.171535890826917, 14.667042743639325 ], [ -88.171639750229275, 14.667005006306766 ], [ -88.171832526599943, 14.666915134830111 ], [ -88.172031662653865, 14.666823163700956 ], [ -88.172211807012147, 14.666754029944924 ], [ -88.172476917868195, 14.666688602296537 ], [ -88.172682545326495, 14.666619339634188 ], [ -88.172771605044048, 14.6665940810809 ], [ -88.172837360026094, 14.666579277253502 ], [ -88.172920004829777, 14.666545781293442 ], [ -88.173017525908179, 14.666514277655475 ], [ -88.173053583292472, 14.666505825945581 ], [ -88.173106519473492, 14.666476614728255 ], [ -88.173133972290529, 14.666447532129485 ], [ -88.173154999210041, 14.666408144809632 ], [ -88.173137790101691, 14.666366883058222 ], [ -88.173122649559602, 14.666315273709913 ], [ -88.173056586407128, 14.666272191103007 ], [ -88.172969133050827, 14.66620027239467 ], [ -88.172738594425155, 14.665978153193368 ], [ -88.172599910581113, 14.66585687446613 ], [ -88.172352658910413, 14.665686524927059 ], [ -88.172252266350355, 14.665577457410343 ], [ -88.172102524997982, 14.665373536848737 ], [ -88.171970168691814, 14.665243956053887 ], [ -88.171791115321966, 14.66511874545594 ], [ -88.171654688080409, 14.665022263889981 ], [ -88.171499126576066, 14.664921743808703 ], [ -88.171347845383167, 14.66482740433935 ], [ -88.171251975696293, 14.664769999336308 ], [ -88.171183701830444, 14.664710387814839 ], [ -88.171132394793759, 14.66464655592125 ], [ -88.171027701173145, 14.664527172299302 ], [ -88.170925076320501, 14.66439744103716 ], [ -88.170807443607032, 14.66424090868813 ], [ -88.170679226064252, 14.664090631872261 ], [ -88.170542448431974, 14.663927993479744 ], [ -88.170508251309954, 14.663886817021966 ], [ -88.170489007196721, 14.663862104728539 ], [ -88.170475980085371, 14.663808417067575 ], [ -88.170427976108599, 14.663566769114391 ], [ -88.170369859518502, 14.663420273975493 ], [ -88.170294984951383, 14.663317279277083 ], [ -88.170200998204507, 14.663214380758573 ], [ -88.170109058271606, 14.663096999859357 ], [ -88.170040532728407, 14.662989838235921 ], [ -88.169965548688253, 14.662866169623548 ], [ -88.169916333102037, 14.662796124571482 ], [ -88.169885321651122, 14.662754931965942 ], [ -88.169860593133322, 14.662697168269586 ], [ -88.16984000201893, 14.662618709413666 ], [ -88.169835403610676, 14.662552574679177 ], [ -88.169856332035096, 14.662494581223696 ], [ -88.169898567563436, 14.662449918860835 ], [ -88.169957967324478, 14.662438249047479 ] ] ] } }
]
}
