{
"type": "FeatureCollection",
"name": "imp_COPINH_SCF",
"crs": { "type": "name", "properties": { "name": "urn:ogc:def:crs:OGC:1.3:CRS84" } },
"features": [
{ "type": "Feature", "properties": { "Latitud Origen": 14.06006111, "Longitud Origen": -87.2195472, "Usuario Origen": "Sotero Chavarria Funes/Erick Gutierrez Lanza" }, "geometry": { "type": "Point", "coordinates": [ -87.2195472, 14.06006111 ] } },
{ "type": "Feature", "properties": { "Latitud Origen": 14.07402778, "Longitud Origen": -87.1883611, "Usuario Origen": "Sotero Chavarria Funes/Erick Gutierrez Lanza" }, "geometry": { "type": "Point", "coordinates": [ -87.1883611, 14.07402778 ] } },
{ "type": "Feature", "properties": { "Latitud Origen": 14.07706238, "Longitud Origen": -87.186263, "Usuario Origen": "Sotero Chavarria Funes/Erick Gutierrez Lanza" }, "geometry": { "type": "Point", "coordinates": [ -87.186263, 14.07706238 ] } },
{ "type": "Feature", "properties": { "Latitud Origen": 14.07777808, "Longitud Origen": -87.1933969, "Usuario Origen": "Sotero Chavarria Funes/Erick Gutierrez Lanza" }, "geometry": { "type": "Point", "coordinates": [ -87.1933969, 14.07777808 ] } },
{ "type": "Feature", "properties": { "Latitud Origen": 14.08054167, "Longitud Origen": -87.1851444, "Usuario Origen": "Sotero Chavarria Funes/Erick Gutierrez Lanza" }, "geometry": { "type": "Point", "coordinates": [ -87.1851444, 14.08054167 ] } },
{ "type": "Feature", "properties": { "Latitud Origen": 14.09258333, "Longitud Origen": -87.1880833, "Usuario Origen": "Sotero Chavarria Funes/Erick Gutierrez Lanza" }, "geometry": { "type": "Point", "coordinates": [ -87.1880833, 14.09258333 ] } },
{ "type": "Feature", "properties": { "Latitud Origen": 14.09308039, "Longitud Origen": -87.1916397, "Usuario Origen": "Sotero Chavarria Funes/Erick Gutierrez Lanza" }, "geometry": { "type": "Point", "coordinates": [ -87.1916397, 14.09308039 ] } },
{ "type": "Feature", "properties": { "Latitud Origen": 14.09608917, "Longitud Origen": -87.1943565, "Usuario Origen": "Sotero Chavarria Funes/Erick Gutierrez Lanza" }, "geometry": { "type": "Point", "coordinates": [ -87.1943565, 14.09608917 ] } },
{ "type": "Feature", "properties": { "Latitud Origen": 14.09660935, "Longitud Origen": -87.207985, "Usuario Origen": "Sotero Chavarria Funes/Erick Gutierrez Lanza" }, "geometry": { "type": "Point", "coordinates": [ -87.207985, 14.09660935 ] } },
{ "type": "Feature", "properties": { "Latitud Origen": 14.0998355, "Longitud Origen": -87.199502, "Usuario Origen": "Sotero Chavarria Funes/Erick Gutierrez Lanza" }, "geometry": { "type": "Point", "coordinates": [ -87.199502, 14.0998355 ] } },
{ "type": "Feature", "properties": { "Latitud Origen": 14.10055556, "Longitud Origen": -87.1948889, "Usuario Origen": "Sotero Chavarria Funes/Erick Gutierrez Lanza" }, "geometry": { "type": "Point", "coordinates": [ -87.1948889, 14.10055556 ] } },
{ "type": "Feature", "properties": { "Latitud Origen": 14.10096982, "Longitud Origen": -87.192031, "Usuario Origen": "Sotero Chavarria Funes/Erick Gutierrez Lanza" }, "geometry": { "type": "Point", "coordinates": [ -87.192031, 14.10096982 ] } },
{ "type": "Feature", "properties": { "Latitud Origen": 14.10105, "Longitud Origen": -87.2070222, "Usuario Origen": "Sotero Chavarria Funes/Erick Gutierrez Lanza" }, "geometry": { "type": "Point", "coordinates": [ -87.2070222, 14.10105 ] } },
{ "type": "Feature", "properties": { "Latitud Origen": 14.10109097, "Longitud Origen": -87.1782883, "Usuario Origen": "Sotero Chavarria Funes/Erick Gutierrez Lanza" }, "geometry": { "type": "Point", "coordinates": [ -87.1782883, 14.10109097 ] } },
{ "type": "Feature", "properties": { "Latitud Origen": 14.10116667, "Longitud Origen": -87.2126667, "Usuario Origen": "Sotero Chavarria Funes/Erick Gutierrez Lanza" }, "geometry": { "type": "Point", "coordinates": [ -87.2126667, 14.10116667 ] } },
{ "type": "Feature", "properties": { "Latitud Origen": 14.10752778, "Longitud Origen": -87.2019722, "Usuario Origen": "Sotero Chavarria Funes/Erick Gutierrez Lanza" }, "geometry": { "type": "Point", "coordinates": [ -87.2019722, 14.10752778 ] } },
{ "type": "Feature", "properties": { "Latitud Origen": 14.10997222, "Longitud Origen": -87.2059444, "Usuario Origen": "Sotero Chavarria Funes/Erick Gutierrez Lanza" }, "geometry": { "type": "Point", "coordinates": [ -87.2059444, 14.10997222 ] } },
{ "type": "Feature", "properties": { "Latitud Origen": 14.11130556, "Longitud Origen": -87.2338889, "Usuario Origen": "Sotero Chavarria Funes/Erick Gutierrez Lanza" }, "geometry": { "type": "Point", "coordinates": [ -87.2338889, 14.11130556 ] } },
{ "type": "Feature", "properties": { "Latitud Origen": 14.13960954, "Longitud Origen": -88.0474972, "Usuario Origen": "Sotero Chavarria Funes/Erick Gutierrez Lanza" }, "geometry": { "type": "Point", "coordinates": [ -88.0474972, 14.13960954 ] } },
{ "type": "Feature", "properties": { "Latitud Origen": 14.16114308, "Longitud Origen": -88.03733, "Usuario Origen": "Sotero Chavarria Funes/Erick Gutierrez Lanza" }, "geometry": { "type": "Point", "coordinates": [ -88.03733, 14.16114308 ] } },
{ "type": "Feature", "properties": { "Latitud Origen": 14.19722222, "Longitud Origen": -87.9796389, "Usuario Origen": "Sotero Chavarria Funes/Erick Gutierrez Lanza" }, "geometry": { "type": "Point", "coordinates": [ -87.9796389, 14.19722222 ] } },
{ "type": "Feature", "properties": { "Latitud Origen": 14.2469736, "Longitud Origen": -87.8293366, "Usuario Origen": "Sotero Chavarria Funes/Erick Gutierrez Lanza" }, "geometry": { "type": "Point", "coordinates": [ -87.8293366, 14.2469736 ] } },
{ "type": "Feature", "properties": { "Latitud Origen": 14.248, "Longitud Origen": -87.741, "Usuario Origen": "Sotero Chavarria Funes/Erick Gutierrez Lanza" }, "geometry": { "type": "Point", "coordinates": [ -87.741, 14.248 ] } },
{ "type": "Feature", "properties": { "Latitud Origen": 14.248, "Longitud Origen": -87.9393333, "Usuario Origen": "Sotero Chavarria Funes/Erick Gutierrez Lanza" }, "geometry": { "type": "Point", "coordinates": [ -87.9393333, 14.248 ] } },
{ "type": "Feature", "properties": { "Latitud Origen": 14.27916773, "Longitud Origen": -87.3694445, "Usuario Origen": "Sotero Chavarria Funes/Erick Gutierrez Lanza" }, "geometry": { "type": "Point", "coordinates": [ -87.3694445, 14.27916773 ] } },
{ "type": "Feature", "properties": { "Latitud Origen": 14.29427778, "Longitud Origen": -88.0746389, "Usuario Origen": "Sotero Chavarria Funes/Erick Gutierrez Lanza" }, "geometry": { "type": "Point", "coordinates": [ -88.0746389, 14.29427778 ] } },
{ "type": "Feature", "properties": { "Latitud Origen": 14.30461268, "Longitud Origen": -88.1023626, "Usuario Origen": "Sotero Chavarria Funes/Erick Gutierrez Lanza" }, "geometry": { "type": "Point", "coordinates": [ -88.1023626, 14.30461268 ] } },
{ "type": "Feature", "properties": { "Latitud Origen": 14.30663462, "Longitud Origen": -88.2172527, "Usuario Origen": "Sotero Chavarria Funes/Erick Gutierrez Lanza" }, "geometry": { "type": "Point", "coordinates": [ -88.2172527, 14.30663462 ] } },
{ "type": "Feature", "properties": { "Latitud Origen": 14.30683333, "Longitud Origen": -87.8373889, "Usuario Origen": "Sotero Chavarria Funes/Erick Gutierrez Lanza" }, "geometry": { "type": "Point", "coordinates": [ -87.8373889, 14.30683333 ] } },
{ "type": "Feature", "properties": { "Latitud Origen": 14.309009, "Longitud Origen": -88.168697, "Usuario Origen": "Sotero Chavarria Funes/Erick Gutierrez Lanza" }, "geometry": { "type": "Point", "coordinates": [ -88.168697, 14.309009 ] } },
{ "type": "Feature", "properties": { "Latitud Origen": 14.30947222, "Longitud Origen": -88.168275, "Usuario Origen": "Sotero Chavarria Funes" }, "geometry": { "type": "Point", "coordinates": [ -88.168275, 14.30947222 ] } },
{ "type": "Feature", "properties": { "Latitud Origen": 14.30991944, "Longitud Origen": -88.17665, "Usuario Origen": "Sotero Chavarria Funes/Erick Gutierrez Lanza" }, "geometry": { "type": "Point", "coordinates": [ -88.17665, 14.30991944 ] } },
{ "type": "Feature", "properties": { "Latitud Origen": 14.31186111, "Longitud Origen": -88.1861111, "Usuario Origen": "Sotero Chavarria Funes/Erick Gutierrez Lanza" }, "geometry": { "type": "Point", "coordinates": [ -88.1861111, 14.31186111 ] } },
{ "type": "Feature", "properties": { "Latitud Origen": 14.31247222, "Longitud Origen": -88.1611389, "Usuario Origen": "Sotero Chavarria Funes/Erick Gutierrez Lanza" }, "geometry": { "type": "Point", "coordinates": [ -88.1611389, 14.31247222 ] } },
{ "type": "Feature", "properties": { "Latitud Origen": 14.31597222, "Longitud Origen": -88.1726111, "Usuario Origen": "Sotero Chavarria Funes/Erick Gutierrez Lanza" }, "geometry": { "type": "Point", "coordinates": [ -88.1726111, 14.31597222 ] } },
{ "type": "Feature", "properties": { "Latitud Origen": 14.32355556, "Longitud Origen": -87.6731111, "Usuario Origen": "Sotero Chavarria Funes/Erick Gutierrez Lanza" }, "geometry": { "type": "Point", "coordinates": [ -87.6731111, 14.32355556 ] } },
{ "type": "Feature", "properties": { "Latitud Origen": 14.33349951, "Longitud Origen": -87.6706703, "Usuario Origen": "Sotero Chavarria Funes/Erick Gutierrez Lanza" }, "geometry": { "type": "Point", "coordinates": [ -87.6706703, 14.33349951 ] } },
{ "type": "Feature", "properties": { "Latitud Origen": 14.36508534, "Longitud Origen": -88.00639, "Usuario Origen": "Sotero Chavarria Funes/Erick Gutierrez Lanza" }, "geometry": { "type": "Point", "coordinates": [ -88.00639, 14.36508534 ] } },
{ "type": "Feature", "properties": { "Latitud Origen": 14.44699722, "Longitud Origen": -87.6334694, "Usuario Origen": "Sotero Chavarria Funes/Erick Gutierrez Lanza" }, "geometry": { "type": "Point", "coordinates": [ -87.6334694, 14.44699722 ] } },
{ "type": "Feature", "properties": { "Latitud Origen": 14.447754, "Longitud Origen": -87.639886, "Usuario Origen": "Sotero Chavarria Funes/Erick Gutierrez Lanza" }, "geometry": { "type": "Point", "coordinates": [ -87.639886, 14.447754 ] } },
{ "type": "Feature", "properties": { "Latitud Origen": 14.45677778, "Longitud Origen": -87.6553889, "Usuario Origen": "Sotero Chavarria Funes/Erick Gutierrez Lanza" }, "geometry": { "type": "Point", "coordinates": [ -87.6553889, 14.45677778 ] } },
{ "type": "Feature", "properties": { "Latitud Origen": 14.48355556, "Longitud Origen": -87.9748889, "Usuario Origen": "Sotero Chavarria Funes/Erick Gutierrez Lanza" }, "geometry": { "type": "Point", "coordinates": [ -87.9748889, 14.48355556 ] } },
{ "type": "Feature", "properties": { "Latitud Origen": 14.4856427, "Longitud Origen": -87.9927964, "Usuario Origen": "Sotero Chavarria Funes/Erick Gutierrez Lanza" }, "geometry": { "type": "Point", "coordinates": [ -87.9927964, 14.4856427 ] } },
{ "type": "Feature", "properties": { "Latitud Origen": 14.50471822, "Longitud Origen": -87.7797215, "Usuario Origen": "Sotero Chavarria Funes/Erick Gutierrez Lanza" }, "geometry": { "type": "Point", "coordinates": [ -87.7797215, 14.50471822 ] } },
{ "type": "Feature", "properties": { "Latitud Origen": 14.51060733, "Longitud Origen": -87.7395311, "Usuario Origen": "Sotero Chavarria Funes/Erick Gutierrez Lanza" }, "geometry": { "type": "Point", "coordinates": [ -87.7395311, 14.51060733 ] } },
{ "type": "Feature", "properties": { "Latitud Origen": 14.52441667, "Longitud Origen": -88.0898333, "Usuario Origen": "Sotero Chavarria Funes/Erick Gutierrez Lanza" }, "geometry": { "type": "Point", "coordinates": [ -88.0898333, 14.52441667 ] } },
{ "type": "Feature", "properties": { "Latitud Origen": 14.55052688, "Longitud Origen": -87.8249729, "Usuario Origen": "Sotero Chavarria Funes/Erick Gutierrez Lanza" }, "geometry": { "type": "Point", "coordinates": [ -87.8249729, 14.55052688 ] } },
{ "type": "Feature", "properties": { "Latitud Origen": 14.56374699, "Longitud Origen": -88.1106092, "Usuario Origen": "Sotero Chavarria Funes/Erick Gutierrez Lanza" }, "geometry": { "type": "Point", "coordinates": [ -88.1106092, 14.56374699 ] } },
{ "type": "Feature", "properties": { "Latitud Origen": 14.56794444, "Longitud Origen": -87.8972194, "Usuario Origen": "Sotero Chavarria Funes/Erick Gutierrez Lanza" }, "geometry": { "type": "Point", "coordinates": [ -87.8972194, 14.56794444 ] } },
{ "type": "Feature", "properties": { "Latitud Origen": 14.57077778, "Longitud Origen": -87.95125, "Usuario Origen": "Sotero Chavarria Funes/Erick Gutierrez Lanza" }, "geometry": { "type": "Point", "coordinates": [ -87.95125, 14.57077778 ] } },
{ "type": "Feature", "properties": { "Latitud Origen": 14.58680556, "Longitud Origen": -87.8546111, "Usuario Origen": "Sotero Chavarria Funes/Erick Gutierrez Lanza" }, "geometry": { "type": "Point", "coordinates": [ -87.8546111, 14.58680556 ] } },
{ "type": "Feature", "properties": { "Latitud Origen": 14.59703192, "Longitud Origen": -87.8355861, "Usuario Origen": "Sotero Chavarria Funes/Erick Gutierrez Lanza" }, "geometry": { "type": "Point", "coordinates": [ -87.8355861, 14.59703192 ] } },
{ "type": "Feature", "properties": { "Latitud Origen": 14.60086111, "Longitud Origen": -87.8683611, "Usuario Origen": "Sotero Chavarria Funes/Erick Gutierrez Lanza" }, "geometry": { "type": "Point", "coordinates": [ -87.8683611, 14.60086111 ] } },
{ "type": "Feature", "properties": { "Latitud Origen": 14.64725, "Longitud Origen": -87.9065556, "Usuario Origen": "Sotero Chavarria Funes/Erick Gutierrez Lanza" }, "geometry": { "type": "Point", "coordinates": [ -87.9065556, 14.64725 ] } },
{ "type": "Feature", "properties": { "Latitud Origen": 14.65544578, "Longitud Origen": -88.0039698, "Usuario Origen": "Sotero Chavarria Funes/Erick Gutierrez Lanza" }, "geometry": { "type": "Point", "coordinates": [ -88.0039698, 14.65544578 ] } },
{ "type": "Feature", "properties": { "Latitud Origen": 14.66122222, "Longitud Origen": -87.9473611, "Usuario Origen": "Sotero Chavarria Funes/Erick Gutierrez Lanza" }, "geometry": { "type": "Point", "coordinates": [ -87.9473611, 14.66122222 ] } },
{ "type": "Feature", "properties": { "Latitud Origen": 14.70239735, "Longitud Origen": -87.9665036, "Usuario Origen": "Sotero Chavarria Funes/Erick Gutierrez Lanza" }, "geometry": { "type": "Point", "coordinates": [ -87.9665036, 14.70239735 ] } },
{ "type": "Feature", "properties": { "Latitud Origen": 14.72683333, "Longitud Origen": -87.9986944, "Usuario Origen": "Sotero Chavarria Funes/Erick Gutierrez Lanza" }, "geometry": { "type": "Point", "coordinates": [ -87.9986944, 14.72683333 ] } },
{ "type": "Feature", "properties": { "Latitud Origen": 14.72777849, "Longitud Origen": -87.9008372, "Usuario Origen": "Sotero Chavarria Funes/Erick Gutierrez Lanza" }, "geometry": { "type": "Point", "coordinates": [ -87.9008372, 14.72777849 ] } },
{ "type": "Feature", "properties": { "Latitud Origen": 14.74613709, "Longitud Origen": -88.1907743, "Usuario Origen": "Sotero Chavarria Funes/Erick Gutierrez Lanza" }, "geometry": { "type": "Point", "coordinates": [ -88.1907743, 14.74613709 ] } },
{ "type": "Feature", "properties": { "Latitud Origen": 14.75658411, "Longitud Origen": -88.1077262, "Usuario Origen": "Sotero Chavarria Funes/Erick Gutierrez Lanza" }, "geometry": { "type": "Point", "coordinates": [ -88.1077262, 14.75658411 ] } },
{ "type": "Feature", "properties": { "Latitud Origen": 14.76572222, "Longitud Origen": -87.9607222, "Usuario Origen": "Sotero Chavarria Funes/Erick Gutierrez Lanza" }, "geometry": { "type": "Point", "coordinates": [ -87.9607222, 14.76572222 ] } },
{ "type": "Feature", "properties": { "Latitud Origen": 14.80358605, "Longitud Origen": -88.0147208, "Usuario Origen": "Sotero Chavarria Funes/Erick Gutierrez Lanza" }, "geometry": { "type": "Point", "coordinates": [ -88.0147208, 14.80358605 ] } },
{ "type": "Feature", "properties": { "Latitud Origen": 14.80408333, "Longitud Origen": -88.156, "Usuario Origen": "Sotero Chavarria Funes/Erick Gutierrez Lanza" }, "geometry": { "type": "Point", "coordinates": [ -88.156, 14.80408333 ] } },
{ "type": "Feature", "properties": { "Latitud Origen": 14.80838536, "Longitud Origen": -88.2027746, "Usuario Origen": "Sotero Chavarria Funes/Erick Gutierrez Lanza" }, "geometry": { "type": "Point", "coordinates": [ -88.2027746, 14.80838536 ] } },
{ "type": "Feature", "properties": { "Latitud Origen": 14.8310818, "Longitud Origen": -88.3559456, "Usuario Origen": "Sotero Chavarria Funes/Erick Gutierrez Lanza" }, "geometry": { "type": "Point", "coordinates": [ -88.3559456, 14.8310818 ] } },
{ "type": "Feature", "properties": { "Latitud Origen": 14.83799722, "Longitud Origen": -87.9517667, "Usuario Origen": "Sotero Chavarria Funes/Erick Gutierrez Lanza" }, "geometry": { "type": "Point", "coordinates": [ -87.9517667, 14.83799722 ] } },
{ "type": "Feature", "properties": { "Latitud Origen": 14.84682898, "Longitud Origen": -88.2946361, "Usuario Origen": "Sotero Chavarria Funes/Erick Gutierrez Lanza" }, "geometry": { "type": "Point", "coordinates": [ -88.2946361, 14.84682898 ] } },
{ "type": "Feature", "properties": { "Latitud Origen": 14.919182, "Longitud Origen": -88.23618, "Usuario Origen": "Sotero Chavarria Funes/Erick Gutierrez Lanza" }, "geometry": { "type": "Point", "coordinates": [ -88.23618, 14.919182 ] } },
{ "type": "Feature", "properties": { "Latitud Origen": 14.92613889, "Longitud Origen": -88.2408333, "Usuario Origen": "Sotero Chavarria Funes/Erick Gutierrez Lanza" }, "geometry": { "type": "Point", "coordinates": [ -88.2408333, 14.92613889 ] } },
{ "type": "Feature", "properties": { "Latitud Origen": 14.95741667, "Longitud Origen": -88.2317222, "Usuario Origen": "Sotero Chavarria Funes/Erick Gutierrez Lanza" }, "geometry": { "type": "Point", "coordinates": [ -88.2317222, 14.95741667 ] } },
{ "type": "Feature", "properties": { "Latitud Origen": 14.99122222, "Longitud Origen": -88.32575, "Usuario Origen": "Sotero Chavarria Funes/Erick Gutierrez Lanza" }, "geometry": { "type": "Point", "coordinates": [ -88.32575, 14.99122222 ] } },
{ "type": "Feature", "properties": { "Latitud Origen": 15.01836111, "Longitud Origen": -88.0, "Usuario Origen": "Sotero Chavarria Funes/Erick Gutierrez Lanza" }, "geometry": { "type": "Point", "coordinates": [ -88.0, 15.01836111 ] } },
{ "type": "Feature", "properties": { "Latitud Origen": 15.04139081, "Longitud Origen": -87.9866372, "Usuario Origen": "Sotero Chavarria Funes/Erick Gutierrez Lanza" }, "geometry": { "type": "Point", "coordinates": [ -87.9866372, 15.04139081 ] } },
{ "type": "Feature", "properties": { "Latitud Origen": 15.0439435, "Longitud Origen": -87.9323319, "Usuario Origen": "Sotero Chavarria Funes/Erick Gutierrez Lanza" }, "geometry": { "type": "Point", "coordinates": [ -87.9323319, 15.0439435 ] } },
{ "type": "Feature", "properties": { "Latitud Origen": 15.49771862, "Longitud Origen": -88.0368655, "Usuario Origen": "Sotero Chavarria Funes/Erick Gutierrez Lanza" }, "geometry": { "type": "Point", "coordinates": [ -88.0368655, 15.49771862 ] } },
{ "type": "Feature", "properties": { "Latitud Origen": 15.5055, "Longitud Origen": -88.0301667, "Usuario Origen": "Sotero Chavarria Funes/Erick Gutierrez Lanza" }, "geometry": { "type": "Point", "coordinates": [ -88.0301667, 15.5055 ] } },
{ "type": "Feature", "properties": { "Latitud Origen": 15.51061624, "Longitud Origen": -88.018285, "Usuario Origen": "Sotero Chavarria Funes/Erick Gutierrez Lanza" }, "geometry": { "type": "Point", "coordinates": [ -88.018285, 15.51061624 ] } },
{ "type": "Feature", "properties": { "Latitud Origen": 15.74577577, "Longitud Origen": -86.888393, "Usuario Origen": "Sotero Chavarria Funes/Erick Gutierrez Lanza" }, "geometry": { "type": "Point", "coordinates": [ -86.888393, 15.74577577 ] } },
{ "type": "Feature", "properties": { "Latitud Origen": 15.77327872, "Longitud Origen": -86.7826379, "Usuario Origen": "Sotero Chavarria Funes/Erick Gutierrez Lanza" }, "geometry": { "type": "Point", "coordinates": [ -86.7826379, 15.77327872 ] } },
{ "type": "Feature", "properties": { "Latitud Origen": 15.78461111, "Longitud Origen": -86.7912778, "Usuario Origen": "Sotero Chavarria Funes/Erick Gutierrez Lanza" }, "geometry": { "type": "Point", "coordinates": [ -86.7912778, 15.78461111 ] } }
]
}
