{
"type": "FeatureCollection",
"name": "iv_predios_2016",
"crs": { "type": "name", "properties": { "name": "urn:ogc:def:crs:OGC:1.3:CRS84" } },
"features": [
{ "type": "Feature", "properties": { "id": null }, "geometry": { "type": "MultiPolygon", "coordinates": [ [ [ [ -88.187186628996884, 14.673460397900753 ], [ -88.187416954850889, 14.674024696243087 ], [ -88.187382405972784, 14.674066922649656 ], [ -88.187148241354535, 14.674101471527758 ], [ -88.186948625614392, 14.674074600178123 ], [ -88.18658010424798, 14.674009341186153 ], [ -88.186438069971331, 14.673986308600751 ], [ -88.186203905353082, 14.673779015332139 ], [ -88.185962063206375, 14.673809725446008 ], [ -88.185532121612212, 14.673552528242359 ], [ -88.185939030620972, 14.673525656892723 ], [ -88.185915998035568, 14.673379783851848 ], [ -88.185850739043602, 14.673126425412434 ], [ -88.185977418263306, 14.673034295070828 ], [ -88.18601580590564, 14.672957519786156 ], [ -88.187186628996884, 14.673460397900753 ] ] ] ] } },
{ "type": "Feature", "properties": { "id": null }, "geometry": { "type": "MultiPolygon", "coordinates": [ [ [ [ -88.18445056990997, 14.690771097543312 ], [ -88.184159014973105, 14.691369967143363 ], [ -88.183681350947126, 14.691302834973666 ], [ -88.183392101318972, 14.691126071312009 ], [ -88.183456379014117, 14.690601136801622 ], [ -88.183617073251995, 14.690301174224258 ], [ -88.184127495520471, 14.689959471637982 ], [ -88.18445056990997, 14.690771097543312 ] ] ] ] } },
{ "type": "Feature", "properties": { "id": null }, "geometry": { "type": "MultiPolygon", "coordinates": [ [ [ [ -88.183681350947126, 14.691302834973666 ], [ -88.183875339899402, 14.691527564406533 ], [ -88.183497106467783, 14.692930180048755 ], [ -88.183248890778287, 14.693190215532987 ], [ -88.183063713994059, 14.69317445580667 ], [ -88.183092138741614, 14.691559945754264 ], [ -88.183392101318972, 14.691126071312009 ], [ -88.183681350947126, 14.691302834973666 ] ] ] ] } },
{ "type": "Feature", "properties": { "id": null }, "geometry": { "type": "MultiPolygon", "coordinates": [ [ [ [ -88.185668008767976, 14.687504894264096 ], [ -88.185021859988979, 14.688261361127315 ], [ -88.184935181494225, 14.687867367969389 ], [ -88.184596347378417, 14.687229099053546 ], [ -88.184186594494165, 14.686819346169301 ], [ -88.184556948062621, 14.686732667674558 ], [ -88.184840623136324, 14.686976943432473 ], [ -88.185187337115309, 14.686819346169301 ], [ -88.18529765519952, 14.687197579600912 ], [ -88.185668008767976, 14.687504894264096 ] ] ] ] } },
{ "type": "Feature", "properties": { "id": null }, "geometry": { "type": "MultiPolygon", "coordinates": [ [ [ [ -88.185187337115337, 14.682540580474207 ], [ -88.18488790231531, 14.682847895137391 ], [ -88.183816240925751, 14.682737577053171 ], [ -88.183808361062589, 14.682619379105793 ], [ -88.184525428610016, 14.681878671968889 ], [ -88.185486771915365, 14.68143739963201 ], [ -88.186337797136488, 14.681531957989915 ], [ -88.189178215071109, 14.681352446270544 ], [ -88.18930850554726, 14.681689555253085 ], [ -88.187007585504972, 14.68198899005311 ], [ -88.185534051094322, 14.681910191421524 ], [ -88.185187337115337, 14.682540580474207 ] ] ] ] } },
{ "type": "Feature", "properties": { "id": null }, "geometry": { "type": "MultiPolygon", "coordinates": [ [ [ [ -88.187869439825107, 14.677304258855077 ], [ -88.187869439825107, 14.677116164399523 ], [ -88.187831820933994, 14.676852832161748 ], [ -88.188528399094551, 14.677024676263228 ], [ -88.189190307599873, 14.677552627094849 ], [ -88.189592180620963, 14.678190896010692 ], [ -88.189773417473617, 14.678947362873913 ], [ -88.189343964931481, 14.678990702121284 ], [ -88.188788434578797, 14.678458811358082 ], [ -88.188741155399839, 14.677745683742234 ], [ -88.187869439825107, 14.677304258855077 ] ] ] ] } },
{ "type": "Feature", "properties": { "id": null }, "geometry": { "type": "MultiPolygon", "coordinates": [ [ [ [ -88.19037622700526, 14.66854988343621 ], [ -88.190045272752599, 14.66838440630988 ], [ -88.189816756721001, 14.668494724394099 ], [ -88.189682799047304, 14.668597162615161 ], [ -88.189422763563073, 14.668329247267771 ], [ -88.189367604520967, 14.667935254109842 ], [ -88.189564601099917, 14.66784069575194 ], [ -88.190013753299965, 14.66800617287827 ], [ -88.19037622700526, 14.66827408822566 ], [ -88.19037622700526, 14.66854988343621 ] ] ] ] } }
]
}
