{
"type": "FeatureCollection",
"name": "Poligonos_Predios_Cuchilla El Naranjal",
"crs": { "type": "name", "properties": { "name": "urn:ogc:def:crs:OGC:1.3:CRS84" } },
"features": [
{ "type": "Feature", "properties": { "fid": 1, "begin": 16, "end": 19 }, "geometry": { "type": "MultiPolygon", "coordinates": [ [ [ [ -88.119444489820651, 14.615788389838395 ], [ -88.135449820090145, 14.61289549477825 ], [ -88.145734530185223, 14.637599695193886 ], [ -88.12971746940832, 14.640414540127786 ], [ -88.119444489820651, 14.615788389838395 ] ] ] ] } }
]
}
