{
"type": "FeatureCollection",
"name": "Poligonos_Predios_Rio Blanco",
"crs": { "type": "name", "properties": { "name": "urn:ogc:def:crs:OGC:1.3:CRS84" } },
"features": [
{ "type": "Feature", "properties": { "fid": 1, "begin": 1, "end": 6 }, "geometry": { "type": "MultiPolygon", "coordinates": [ [ [ [ -88.192151686953878, 14.662075194581991, 507.17 ], [ -88.191758477984848, 14.662418105806823, 0.0 ], [ -88.190605055895318, 14.66277215617187, 0.0 ], [ -88.190057224747676, 14.663203441715476, 0.0 ], [ -88.190060841038516, 14.663872923852436, 0.0 ], [ -88.189952981042978, 14.664275176410731, 0.0 ], [ -88.189430483735833, 14.664304630641062, 0.0 ], [ -88.189045234534433, 14.664279821608394, 0.0 ], [ -88.188469888990696, 14.664711244579305, 0.0 ], [ -88.187679389418221, 14.666054287165121, 0.0 ], [ -88.187353050028989, 14.666752235647428, 0.0 ], [ -88.187356514652862, 14.667394938936956, 0.0 ], [ -88.187551091246391, 14.667768865291867, 0.0 ], [ -88.187690941420158, 14.668196631196421, 0.0 ], [ -88.187583075516628, 14.668598882992686, 0.0 ], [ -88.187200561540365, 14.669082878177329, 0.0 ], [ -88.187037245092228, 14.669405072960231, 0.0 ], [ -88.186929521888942, 14.669834103847663, 0.0 ], [ -88.186768225059907, 14.670531208718272, 0.0 ], [ -88.186332420804305, 14.67133683542961, 0.0 ], [ -88.185705063584834, 14.672330899459283, 0.0 ], [ -88.185352498986788, 14.67327000010577, 0.0 ], [ -88.185271991483546, 14.673645331492649, 0.0 ], [ -88.185080151455523, 14.673780210422407, 0.0 ], [ -88.184777555727138, 14.673781753849672, 0.0 ], [ -88.184226805395397, 14.673677441796386, 0.0 ], [ -88.183951718414235, 14.67367884390843, 0.0 ], [ -88.183677927234982, 14.673921259611239, 0.0 ], [ -88.183597992588432, 14.674403707922663, 0.0 ], [ -88.183572355486817, 14.674751979283446, 0.0 ], [ -88.183463183929049, 14.674913215839965, 0.0 ], [ -88.183299426302341, 14.675155070596825, 0.0 ], [ -88.183024913047674, 14.675263589057222, 0.0 ], [ -88.182859859601479, 14.675264429598453, 0.0 ], [ -88.182612279412496, 14.675265690190523, 0.0 ], [ -88.182420148558165, 14.675347008467028, 0.0 ], [ -88.182283754567052, 14.675561943242162, 0.0 ], [ -88.182286055880894, 14.675990412570318, 0.0 ], [ -88.182315003278262, 14.676258065868664, 0.0 ], [ -88.182454850221731, 14.676685834978397, 0.0 ], [ -88.182566181471444, 14.676926288720679, 0.0 ], [ -88.18267880803981, 14.67740775631801, 0.0 ], [ -88.182681686032964, 14.677943342814059, 0.0 ], [ -88.18252612743774, 14.679711618625031, 0.0 ], [ -88.18230993641825, 14.680435780897946, 0.0 ], [ -88.182034984649874, 14.680463960694915, 0.0 ], [ -88.181593968775232, 14.680305524802744, 0.0 ], [ -88.181042627882476, 14.680094089022278, 0.0 ], [ -88.18060391209211, 14.680364120559576, 0.0 ], [ -88.180497178100154, 14.68098060477568, 0.0 ], [ -88.180499907842147, 14.681489412193253, 0.0 ], [ -88.18039159294068, 14.681811323657126, 0.0 ], [ -88.180007748954438, 14.682054295293366, 0.0 ], [ -88.179486642106127, 14.682351523815777, 0.0 ], [ -88.178856355221839, 14.68280998609278, 0.0 ], [ -88.178363615422555, 14.683267748764933, 0.0 ], [ -88.178254866381266, 14.683509321419166, 0.0 ], [ -88.178312037795834, 14.68391073248784, 0.0 ], [ -88.178561780057436, 14.684311166004333, 0.0 ], [ -88.178948212809303, 14.684550224616233, 0.0 ], [ -88.179280774580306, 14.685003796743125, 0.0 ], [ -88.179668070963601, 14.685403530013707, 0.0 ], [ -88.179863084257619, 14.685857800031298, 0.0 ], [ -88.179948344457699, 14.686366187850084, 0.0 ], [ -88.179977435054568, 14.68666062064689, 0.0 ], [ -88.180171300766972, 14.686900655604779, 0.0 ], [ -88.180199385927352, 14.687007633042819, 0.0 ], [ -88.180228764410387, 14.687355624413634, 0.0 ], [ -88.180202116151335, 14.68751644025158, 0.0 ], [ -88.180204271665573, 14.687918130137151, 0.0 ], [ -88.180180497441469, 14.688614532460866, 0.0 ], [ -88.179768700294062, 14.688777306370636, 0.0 ], [ -88.179276237357726, 14.689288630265517, 0.0 ], [ -88.179113757727748, 14.689771496903219, 0.0 ], [ -88.179119645133525, 14.690869449442609, 0.0 ], [ -88.17882090159587, 14.691594028791178, 0.0 ], [ -88.178300488900831, 14.692025152882422, 0.0 ], [ -88.177505106459364, 14.69248445150553, 0.0 ], [ -88.176874070890165, 14.692809013744712, 0.0 ], [ -88.175858162866277, 14.69318908526418, 0.0 ], [ -88.17500946564067, 14.693970007150195, 0.0 ], [ -88.174846830631594, 14.694426092199617, 0.0 ], [ -88.174877061356867, 14.694934760750813, 0.0 ], [ -88.17507236137385, 14.695442593253309, 0.0 ], [ -88.175184698138565, 14.695870505541327, 0.0 ], [ -88.175104024595043, 14.69621905523975, 0.0 ], [ -88.174746373692585, 14.696220866594297, 0.0 ], [ -88.174361211127447, 14.696222816667508, 0.0 ], [ -88.173839634522537, 14.696439697111842, 0.0 ], [ -88.173427674624946, 14.696575681723646, 0.0 ], [ -88.172962119910281, 14.696979737605572, 0.0 ], [ -88.172743169224717, 14.697195085384198, 0.0 ], [ -88.172040150023122, 14.697325181630092, 363.53 ], [ -88.174655030385793, 14.676010552476411, 745.09 ], [ -88.16399056875774, 14.669288149375813, 949.27 ], [ -88.165302116442547, 14.649885935950548, -1.7976931348623157e+308 ], [ -88.182481494245678, 14.651242009768945, 663.23 ], [ -88.192151686953878, 14.662075194581991, 507.17 ] ] ] ] } }
]
}
