{
"type": "FeatureCollection",
"name": "Poligonos_Predios_Las Lagunas",
"crs": { "type": "name", "properties": { "name": "urn:ogc:def:crs:OGC:1.3:CRS84" } },
"features": [
{ "type": "Feature", "properties": { "fid": 1, "begin": "2", "end": "5" }, "geometry": { "type": "MultiPolygon", "coordinates": [ [ [ [ -88.172040150023122, 14.697325181630092 ], [ -88.153558247180186, 14.688494034682739 ], [ -88.16399056875774, 14.669288149375813 ], [ -88.174655030385793, 14.676010552476411 ], [ -88.172040150023122, 14.697325181630092 ] ] ] ] } }
]
}
