{
"type": "FeatureCollection",
"name": "Rio Gualcarque",
"crs": { "type": "name", "properties": { "name": "urn:ogc:def:crs:OGC:1.3:CRS84" } },
"features": [
{ "type": "Feature", "properties": { "id": null }, "geometry": { "type": "MultiLineString", "coordinates": [ [ [ -88.162420011972841, 14.760925045932177 ], [ -88.162616490257236, 14.760351810197129 ], [ -88.162845230688248, 14.759921473794668 ], [ -88.163137193074178, 14.759531693798225 ], [ -88.163419903100092, 14.7593769901495 ], [ -88.163481984959873, 14.759202959705666 ], [ -88.163554078624159, 14.758936910550142 ], [ -88.163562840843952, 14.75860986806463 ], [ -88.163666491204125, 14.758353878693743 ], [ -88.164535181060984, 14.757807912010325 ], [ -88.164964137911753, 14.757509407965358 ], [ -88.165539451800157, 14.757087540823372 ], [ -88.165926348231309, 14.756779028574364 ], [ -88.166365366199472, 14.75639872187789 ], [ -88.166772662507967, 14.75597769980898 ], [ -88.167190240013966, 14.75551575043643 ], [ -88.167595952404, 14.754798393110834 ], [ -88.167793393774417, 14.754409085520839 ], [ -88.167976092168374, 14.754208898033236 ], [ -88.168094641327428, 14.753794442122084 ], [ -88.168322519419817, 14.75320571594736 ], [ -88.168540932126547, 14.752811192524353 ], [ -88.168796232438453, 14.752442029165984 ], [ -88.16896834595623, 14.752226566517734 ], [ -88.169130531559077, 14.752118450179156 ], [ -88.169256456262431, 14.752102485309617 ], [ -88.169519461173593, 14.752193123164002 ], [ -88.169867535464689, 14.752482594589011 ], [ -88.170079185115426, 14.752788083976794 ], [ -88.170244702512008, 14.753303289645796 ], [ -88.170346943873, 14.753767722077265 ], [ -88.170411859814322, 14.754125047255242 ], [ -88.170476093017697, 14.754354642338759 ], [ -88.170629609306886, 14.754588894592736 ], [ -88.170745362502757, 14.754634292414279 ], [ -88.170892317104361, 14.754623329391883 ], [ -88.171127133200784, 14.754351344845285 ], [ -88.171335587782409, 14.75405905631761 ], [ -88.171338568978754, 14.753634966058197 ], [ -88.171225469689745, 14.753104167795541 ], [ -88.170955518475637, 14.752696788103853 ], [ -88.170875370613558, 14.752436617683495 ], [ -88.170926725691089, 14.752221765279888 ], [ -88.171078163713375, 14.752067718011389 ], [ -88.171377182988607, 14.752020219093325 ], [ -88.171686429203419, 14.751921574572163 ], [ -88.172168331932355, 14.751709648884184 ], [ -88.172560979378687, 14.751498174942945 ], [ -88.172885564414898, 14.751322811039312 ], [ -88.173209464479712, 14.751019716754318 ], [ -88.173501424124964, 14.750635034791966 ], [ -88.173724773870234, 14.750184279435457 ], [ -88.173952934690988, 14.749651750094522 ], [ -88.174191293512152, 14.749062966092804 ], [ -88.174331075934319, 14.748694384010525 ], [ -88.17443410671892, 14.748325988521662 ], [ -88.174479577205076, 14.747993650704716 ], [ -88.174530653965306, 14.747727705781909 ], [ -88.174728433409641, 14.747404812976026 ], [ -88.175026074636392, 14.747101850004325 ], [ -88.175145978059689, 14.746942851331902 ], [ -88.175397491121331, 14.74684960510529 ], [ -88.175523055606135, 14.746767217522384 ], [ -88.175516379515415, 14.746501566008046 ], [ -88.175310363376994, 14.746267583620785 ], [ -88.175014903836882, 14.745998290101117 ], [ -88.174629864352823, 14.745668139077749 ], [ -88.174202606094468, 14.745297326960998 ], [ -88.174085597648883, 14.745016907349022 ], [ -88.173999788836923, 14.744680126563217 ], [ -88.173888140633764, 14.744420116945957 ], [ -88.173886716889783, 14.744154438535489 ], [ -88.174043151165094, 14.743954380338598 ], [ -88.174299418531376, 14.743769143259263 ], [ -88.174666265445538, 14.743644656450032 ], [ -88.174933552648042, 14.743556440180424 ], [ -88.175184787958045, 14.743412102456599 ], [ -88.17537288526573, 14.743242538624505 ], [ -88.17556582107909, 14.742996310012593 ], [ -88.175810680982138, 14.742642521268435 ], [ -88.175977585059002, 14.742437299378565 ], [ -88.176102378931702, 14.742211854136574 ], [ -88.176111864165378, 14.742022760461751 ], [ -88.176136934872986, 14.741802931527184 ], [ -88.176241002527874, 14.741628684971939 ], [ -88.176392429794049, 14.741474634900111 ], [ -88.176691570292192, 14.741452676199248 ], [ -88.1768543204021, 14.741451848329483 ], [ -88.178355903371369, 14.741459532744914 ], [ -88.178639101060497, 14.741401887415481 ], [ -88.178963996134144, 14.741287826600017 ], [ -88.179273003366049, 14.741148299679502 ], [ -88.179397765575644, 14.740917743748501 ], [ -88.17961636702681, 14.740564085358482 ], [ -88.179719606041147, 14.740236561731578 ], [ -88.17980637966339, 14.739776279415127 ], [ -88.17981280833736, 14.739020065539968 ], [ -88.179894111482341, 14.73851893642939 ], [ -88.17999116408842, 14.738017726979912 ], [ -88.179972608435378, 14.737496669726548 ], [ -88.179982719078239, 14.736449205014379 ], [ -88.179828794959562, 14.736138320518625 ], [ -88.179643537108859, 14.735858251605778 ], [ -88.179232508367619, 14.735574223706319 ], [ -88.178705874017567, 14.735270346483732 ], [ -88.17834198627358, 14.734965639386457 ], [ -88.178204474199291, 14.734777294048691 ], [ -88.178072541705831, 14.734650232247031 ], [ -88.17786659005472, 14.734426469674826 ], [ -88.177607262251854, 14.734039479675182 ], [ -88.177494930229258, 14.733651741525742 ], [ -88.177518489871204, 14.733150906549417 ], [ -88.177506983437098, 14.731986035954188 ], [ -88.177482554459516, 14.731347492882024 ], [ -88.177173185754839, 14.730439603886849 ], [ -88.177066545375325, 14.730133585733331 ], [ -88.176864807015264, 14.729715645461585 ], [ -88.176726888531022, 14.729450660802431 ], [ -88.176568739121535, 14.729328840400923 ], [ -88.176379310886659, 14.729248053546552 ], [ -88.176148268740803, 14.729239008724303 ], [ -88.175865386990679, 14.729352851184675 ], [ -88.175583162297499, 14.729589314206013 ], [ -88.175289999385058, 14.729744082962124 ], [ -88.174976056134625, 14.729939831589808 ], [ -88.174598841777339, 14.73008480742101 ], [ -88.174158028115116, 14.73011769966689 ], [ -88.173716503203536, 14.730017751706749 ], [ -88.173116885267305, 14.729806198417602 ], [ -88.172738030178621, 14.729644618772305 ], [ -88.172485114375803, 14.729472181989133 ], [ -88.172252706220291, 14.729207672795798 ], [ -88.17209313922065, 14.728820170205061 ], [ -88.172071048093912, 14.728615908096366 ], [ -88.172180144906221, 14.728400763138463 ], [ -88.172425842823429, 14.728205363851471 ], [ -88.1728135278141, 14.728055229278121 ], [ -88.173221910318944, 14.727848786394407 ], [ -88.173525243757908, 14.727632656599145 ], [ -88.173629854552715, 14.727560595514904 ], [ -88.173634283993664, 14.727407292663109 ], [ -88.173564561926838, 14.727131741328511 ], [ -88.173400537516557, 14.726892433291827 ], [ -88.173168158633729, 14.726633034049133 ], [ -88.172919840100647, 14.726337949832676 ], [ -88.172603058380275, 14.726002337206497 ], [ -88.17239722998174, 14.725799005435743 ], [ -88.172238976318653, 14.7256567448208 ], [ -88.172138304982766, 14.72548353652334 ], [ -88.1720737259825, 14.725187521091756 ], [ -88.172072333676439, 14.724926951279441 ], [ -88.172092021739232, 14.724681602819789 ], [ -88.172225562953884, 14.724129117069975 ], [ -88.172307208420236, 14.723689299667674 ], [ -88.172347457685476, 14.723362097501948 ], [ -88.172245395147868, 14.722928319305785 ], [ -88.172091001266168, 14.722525461961803 ], [ -88.171905683804852, 14.722230057312535 ], [ -88.171814558517198, 14.721877973082936 ], [ -88.171733332359466, 14.721413432961036 ], [ -88.171720950659363, 14.72106095028351 ], [ -88.171849842115904, 14.720620893946109 ], [ -88.172066937640935, 14.719986235895128 ], [ -88.172191015113199, 14.719627953413108 ], [ -88.172331059022966, 14.719310464900028 ], [ -88.172518238627617, 14.71897230034892 ], [ -88.172706209457971, 14.718782302875017 ], [ -88.172925949820382, 14.718643237937226 ], [ -88.173250843003402, 14.718534296408516 ], [ -88.17345951012129, 14.718287990713653 ], [ -88.173636625437382, 14.718031625995994 ], [ -88.17376097267551, 14.717724435006193 ], [ -88.1738167763706, 14.717361388391337 ], [ -88.173810461244827, 14.71716215570957 ], [ -88.17376215076051, 14.716963135778771 ], [ -88.173561497964755, 14.716744450108823 ], [ -88.173271523609444, 14.716510888502995 ], [ -88.173096954918009, 14.71626141416213 ], [ -88.173011571857174, 14.716001269464343 ], [ -88.172910085914694, 14.715674784642838 ], [ -88.172856499975993, 14.715470681770908 ], [ -88.172813440217752, 14.715271634951984 ], [ -88.17280707161315, 14.715062183705932 ], [ -88.172847674422158, 14.714801401183459 ], [ -88.173056311495003, 14.714549986788068 ], [ -88.173380188234347, 14.714252004561285 ], [ -88.173689053577917, 14.714092050475799 ], [ -88.174050821818923, 14.714008468263165 ], [ -88.174701604669011, 14.713979623476128 ], [ -88.1753995492694, 14.713935209614622 ], [ -88.176034364427693, 14.71386556731141 ], [ -88.176332947376494, 14.713746536831835 ], [ -88.176604598704174, 14.71349990903566 ], [ -88.176854622170751, 14.713135875797832 ], [ -88.1771156639482, 14.712868863969973 ], [ -88.177360737965131, 14.71256105823068 ], [ -88.177605783904156, 14.71224814306764 ], [ -88.177866851139896, 14.711986239726578 ], [ -88.178069709535009, 14.711637773127174 ], [ -88.178230737584656, 14.711320175112828 ], [ -88.17827655538639, 14.71105425619329 ], [ -88.178080769756676, 14.710764018675327 ], [ -88.177843840174901, 14.71063237979042 ], [ -88.177345461393358, 14.710691114693109 ], [ -88.176785597063983, 14.71103117489556 ], [ -88.176346464480716, 14.711370621115758 ], [ -88.175691699101094, 14.711634520289369 ], [ -88.17508316397668, 14.711709137338319 ], [ -88.174494696267047, 14.711609933157634 ], [ -88.174136624074862, 14.711402263975334 ], [ -88.173841161552119, 14.711122746159553 ], [ -88.173676112413403, 14.710689286951121 ], [ -88.173648009061651, 14.710341993199416 ], [ -88.173645769820425, 14.709923037513276 ], [ -88.173654220287631, 14.709539793166851 ], [ -88.173976259287329, 14.708899493143042 ], [ -88.174378482764439, 14.708529582302457 ], [ -88.174843148773164, 14.708057167338827 ], [ -88.175313226034845, 14.707615380242641 ], [ -88.176155637838448, 14.707105282064118 ], [ -88.176344334768686, 14.707053231160156 ], [ -88.176553453562732, 14.706893780105158 ], [ -88.176600039273225, 14.70677091926523 ], [ -88.176740973147858, 14.70662203280294 ], [ -88.17660867647011, 14.706423439582975 ], [ -88.17633971030439, 14.706189774286424 ], [ -88.175965214521611, 14.705854456876963 ], [ -88.175712680851944, 14.705748441212579 ], [ -88.175297560464841, 14.705668796254514 ], [ -88.174887962751257, 14.705640216084792 ], [ -88.174520358290522, 14.705611422458549 ], [ -88.174257409126781, 14.705520785965431 ], [ -88.173898856034086, 14.705221149646563 ], [ -88.173740289754505, 14.70501757817388 ], [ -88.173507335206764, 14.704645774309265 ], [ -88.17346868081313, 14.704288314976253 ], [ -88.173566339739935, 14.703899509616122 ], [ -88.173643111144202, 14.70353124737305 ], [ -88.173704053170482, 14.70314773716156 ], [ -88.173791404234677, 14.702794749403095 ], [ -88.17389518475683, 14.702569412373176 ], [ -88.174056704884975, 14.702343782992546 ], [ -88.174197392251585, 14.702148915140111 ], [ -88.174438057368576, 14.701999525127226 ], [ -88.174862958326287, 14.701946279358001 ], [ -88.175172625642134, 14.701939600986023 ], [ -88.175408915389411, 14.701953731543197 ], [ -88.17580264963442, 14.701961954285723 ], [ -88.176133449834182, 14.701980714249114 ], [ -88.176369739611118, 14.701994843819151 ], [ -88.176568519901451, 14.701866101577025 ], [ -88.176693758476986, 14.701727513632299 ], [ -88.176829330804395, 14.701558217076258 ], [ -88.176959708617844, 14.701399165519755 ], [ -88.176979610070717, 14.701194690425993 ], [ -88.177020699221856, 14.70102587326717 ], [ -88.177029172028753, 14.700647738185378 ], [ -88.176822161490023, 14.700219603034366 ], [ -88.176579557715399, 14.70000624103889 ], [ -88.176295317887423, 14.699859511521726 ], [ -88.17591654161933, 14.699703042233715 ], [ -88.175569533192018, 14.699597504830429 ], [ -88.175133264691254, 14.699487309782031 ], [ -88.174681468053606, 14.69941806737905 ], [ -88.173904288123666, 14.69936068983897 ], [ -88.173442321332303, 14.699352808753849 ], [ -88.17295924940467, 14.699324596038823 ], [ -88.172559561822666, 14.699183554859989 ], [ -88.172222426630185, 14.698960447060237 ], [ -88.171942649558147, 14.69866551786221 ], [ -88.171800055085484, 14.698502738699018 ], [ -88.171720530330191, 14.698354968933524 ], [ -88.171619192649558, 14.698054028440898 ], [ -88.171670456680374, 14.697823848203754 ], [ -88.171805867489297, 14.697623899073493 ], [ -88.172067634537797, 14.69749484254473 ], [ -88.172444169693506, 14.697232362308432 ], [ -88.172658695307746, 14.697103543927271 ], [ -88.173407194831668, 14.696706338272396 ], [ -88.173779105549471, 14.696561394713171 ], [ -88.174244950599544, 14.696313787963492 ], [ -88.174538644875682, 14.696266316964588 ], [ -88.174811179448056, 14.696188296610179 ], [ -88.175041722425533, 14.696110488641844 ], [ -88.175298837651198, 14.696093858124621 ], [ -88.175424046754131, 14.695950161764062 ], [ -88.175417513737884, 14.695710055078791 ], [ -88.175248291970689, 14.695475881942155 ], [ -88.175068545458942, 14.695236652601647 ], [ -88.174935930178577, 14.694976746977375 ], [ -88.17482964159376, 14.694732036016573 ], [ -88.174828467469851, 14.694512339542337 ], [ -88.174848589238593, 14.694348738175512 ], [ -88.175109339982484, 14.694030637456603 ], [ -88.175381243306845, 14.693835104585709 ], [ -88.175616568030108, 14.693670412910519 ], [ -88.17610785648769, 14.693274502653974 ], [ -88.176421830746293, 14.693094083497865 ], [ -88.177134196740468, 14.692814565463854 ], [ -88.177579691305695, 14.692689680503896 ], [ -88.177925621731333, 14.692595956295095 ], [ -88.178145443008574, 14.692477325147914 ], [ -88.178527813333162, 14.692327212171348 ], [ -88.17887193466828, 14.691896278494017 ], [ -88.179101375555305, 14.691614098353041 ], [ -88.179236721077402, 14.691403927137529 ], [ -88.179292512334001, 14.69104087956587 ], [ -88.179316865548699, 14.690688210452121 ], [ -88.179278096411338, 14.690310315329841 ], [ -88.179235147237819, 14.690131706204109 ], [ -88.179212645257124, 14.689850806098843 ], [ -88.179300312486873, 14.689559127490586 ], [ -88.179362119360277, 14.689339111219645 ], [ -88.179382922565409, 14.689303240031554 ], [ -88.179513209633001, 14.689128859910436 ], [ -88.17967034316186, 14.689066749045212 ], [ -88.179806728309927, 14.689050727728416 ], [ -88.179958722596908, 14.689009080212465 ], [ -88.180084034448157, 14.688885818629711 ], [ -88.180119980542003, 14.6887374646347 ], [ -88.180123968116831, 14.688502414139299 ], [ -88.180169726171499, 14.688226276431875 ], [ -88.180176242128326, 14.687973330339377 ], [ -88.180209316948179, 14.687779006757923 ], [ -88.180339204932878, 14.687530542673972 ], [ -88.180301189027858, 14.687293151082471 ], [ -88.180144830828766, 14.687010377002204 ], [ -88.180007569836022, 14.686862903571424 ], [ -88.179978290883582, 14.686786412106766 ], [ -88.179935712076841, 14.686676777443493 ], [ -88.179963771297651, 14.686525908876883 ], [ -88.180023445915694, 14.686397871685596 ], [ -88.180085580341583, 14.686239165855511 ], [ -88.180082270732456, 14.686111448837904 ], [ -88.179971102998721, 14.685935741236911 ], [ -88.179865526678512, 14.685823872076638 ], [ -88.179770146368156, 14.685655748143647 ], [ -88.179665402957127, 14.685454460933776 ], [ -88.179411659327059, 14.685118532787769 ], [ -88.179271369597942, 14.685017697038599 ], [ -88.17919004511478, 14.684901233626055 ], [ -88.179126321928223, 14.68476360468696 ], [ -88.178906532854683, 14.684519471813289 ], [ -88.17884316931297, 14.684448901249135 ], [ -88.17874062583671, 14.684413017753736 ], [ -88.178641957276298, 14.684365618485343 ], [ -88.178541238403881, 14.684302901509239 ], [ -88.178452072424562, 14.684192225619251 ], [ -88.178358887964833, 14.684066242011831 ], [ -88.178259675772054, 14.68391729684059 ], [ -88.17817001758678, 14.683714654875629 ], [ -88.178129842375938, 14.683563494018903 ], [ -88.178152168360427, 14.683321963562541 ], [ -88.178234013120814, 14.683168267493841 ], [ -88.178339589366558, 14.683035527063517 ], [ -88.178698871507095, 14.682865094579263 ], [ -88.179318632707563, 14.682451921584146 ], [ -88.180280223937118, 14.681918217231514 ], [ -88.180526800433469, 14.681652554596988 ], [ -88.180714659031196, 14.681448502572918 ], [ -88.180854704474712, 14.681137397127465 ], [ -88.180820560489892, 14.680643240689948 ], [ -88.180850283311315, 14.680313536155882 ], [ -88.181038119976748, 14.680105652043192 ], [ -88.181463209651056, 14.68009582567392 ], [ -88.181731337282997, 14.680178765701925 ], [ -88.182039281916275, 14.680345807056126 ], [ -88.182220603337385, 14.680390868187468 ], [ -88.182393434324439, 14.680321011974275 ], [ -88.182479252630159, 14.680174958449722 ], [ -88.182470556205672, 14.680021722160349 ], [ -88.182501017797065, 14.679829966331454 ], [ -88.182640792071837, 14.67946904520883 ], [ -88.182678920301811, 14.679238930177773 ], [ -88.182716513041512, 14.678909185495215 ], [ -88.182706745745676, 14.678556689907651 ], [ -88.182658562126363, 14.678380662609616 ], [ -88.182679668132053, 14.677913049341001 ], [ -88.182701968409873, 14.677667686837243 ], [ -88.182728369736907, 14.677452959564766 ], [ -88.182754873986568, 14.677257391839261 ], [ -88.182773526114417, 14.677065696111878 ], [ -88.182752526583997, 14.67682055409116 ], [ -88.182688721625539, 14.676667598386897 ], [ -88.182557010973554, 14.676331051656224 ], [ -88.182473483522728, 14.676170532245939 ], [ -88.182381733642501, 14.675944910383148 ], [ -88.182329573532954, 14.675761239130878 ], [ -88.182328544440637, 14.675569643575225 ], [ -88.182520332813013, 14.675365570462191 ], [ -88.182697404990563, 14.675353172917175 ], [ -88.182976800576554, 14.67533642214215 ], [ -88.183326287489621, 14.675177529436853 ], [ -88.183514158858742, 14.674977307552552 ], [ -88.183591648729745, 14.674746991859699 ], [ -88.183629672510122, 14.674497717168068 ], [ -88.183619389457149, 14.674049423836873 ], [ -88.183732470319043, 14.673849582889103 ], [ -88.18394041317336, 14.673722066745288 ], [ -88.184196085761613, 14.673686275479518 ], [ -88.184542704952591, 14.673726660502455 ], [ -88.18488532608194, 14.673755569350636 ], [ -88.18511647320706, 14.673551293590229 ], [ -88.185355451177301, 14.673339313644924 ], [ -88.185574726721626, 14.673123602015515 ], [ -88.185695182574975, 14.67283175431367 ], [ -88.18570989579554, 14.672640078587568 ], [ -88.185740581018166, 14.672490473483768 ], [ -88.185927560441741, 14.67212547792554 ], [ -88.186064069957112, 14.671891028323854 ], [ -88.186207687867295, 14.671514757905335 ], [ -88.18630106335425, 14.671311184509097 ], [ -88.186414264345615, 14.671134333938799 ], [ -88.186692208401695, 14.670849345647573 ], [ -88.186840958752924, 14.670695305411313 ], [ -88.186958115883996, 14.670522266423909 ], [ -88.186947971467518, 14.670100796929454 ], [ -88.186891769928252, 14.669897987366143 ], [ -88.186929521035452, 14.669598897587996 ], [ -88.187006757946477, 14.669322598180621 ], [ -88.187104047436065, 14.66911517253607 ], [ -88.187338359600375, 14.668769094359249 ], [ -88.187569499386257, 14.668564816635076 ], [ -88.187761566287648, 14.668414386578249 ], [ -88.187901904610968, 14.668160756495219 ], [ -88.187932050568676, 14.667911521651895 ], [ -88.187851735878908, 14.667616867284366 ], [ -88.187700715217787, 14.667349398305182 ], [ -88.187554333544824, 14.667212193907348 ], [ -88.187431589640241, 14.667078700644678 ], [ -88.187395234669538, 14.66690644582879 ], [ -88.187448750138145, 14.666611107448659 ], [ -88.187639968445581, 14.666303569410742 ], [ -88.187928721682056, 14.66583458824714 ], [ -88.188116250585622, 14.66557305289219 ], [ -88.188279748922, 14.665235000027192 ], [ -88.188490604199885, 14.664919697005603 ], [ -88.188572042810378, 14.664693191892436 ], [ -88.188602746052823, 14.664547418445643 ], [ -88.188924266074039, 14.664315853442133 ], [ -88.18925446433208, 14.664233692069732 ], [ -88.189573723036176, 14.664312530677158 ], [ -88.189817906235845, 14.66433810498518 ], [ -88.189986786063145, 14.664268264299995 ], [ -88.190257176245751, 14.664044623340235 ], [ -88.19039355239309, 14.663787180334904 ], [ -88.190384189497237, 14.663511323571253 ], [ -88.190284690105273, 14.663308736537912 ], [ -88.190323181427175, 14.663147595022144 ], [ -88.190645028849275, 14.662977338360168 ], [ -88.190998612901581, 14.662852902804191 ], [ -88.191332599037779, 14.662743895206713 ], [ -88.191568514649859, 14.662696701988677 ], [ -88.191882488207071, 14.662526484078166 ], [ -88.192035082643415, 14.662357093316471 ], [ -88.192266584672467, 14.662221785874427 ], [ -88.192501669904217, 14.662021315707753 ], [ -88.192598764694964, 14.66177940115478 ], [ -88.192656975845722, 14.66162582222597 ], [ -88.192742905189121, 14.661502757145302 ], [ -88.192667000286022, 14.661296218131691 ], [ -88.192548193120189, 14.661162707298651 ], [ -88.192334838211423, 14.661014353262983 ], [ -88.192149035841837, 14.660865857732555 ], [ -88.192034434730274, 14.660782141140862 ], [ -88.191599605876178, 14.660439489296895 ], [ -88.191306433808293, 14.660088446746537 ], [ -88.191044833677921, 14.659752570066859 ], [ -88.19087032360811, 14.659508215254091 ], [ -88.190790568056684, 14.659317023186542 ], [ -88.190805131911119, 14.65909852398771 ], [ -88.190981196137912, 14.658902189709798 ], [ -88.191342583462344, 14.658766218062398 ], [ -88.191621894466934, 14.658737962785281 ], [ -88.191865988611454, 14.658748207787157 ], [ -88.192054626421466, 14.658693592676475 ], [ -88.192297331583148, 14.658447099736131 ], [ -88.192342925797334, 14.658144137224719 ], [ -88.192211732332837, 14.657903393298557 ], [ -88.192167607438066, 14.657750339138538 ], [ -88.192075794922999, 14.657513225213389 ], [ -88.192023404524662, 14.657287405191857 ], [ -88.192041737358366, 14.657038230575683 ], [ -88.192134542625965, 14.656731194055562 ], [ -88.192224116383571, 14.656554462411046 ], [ -88.192243215852429, 14.65644706822 ], [ -88.192198780433671, 14.65623653547088 ], [ -88.19215069929804, 14.656079669533339 ], [ -88.192138000331482, 14.655914958193065 ], [ -88.192192253918407, 14.655757567669005 ], [ -88.192250609177975, 14.655630812190021 ], [ -88.19233266292612, 14.655519263246516 ], [ -88.192481503187267, 14.65538437979489 ], [ -88.1926660776641, 14.655306793161381 ], [ -88.192807481116105, 14.655252419859911 ], [ -88.193019772791331, 14.65520534688234 ], [ -88.193342540161126, 14.655207523017525 ], [ -88.193771619215298, 14.655216817070627 ], [ -88.194094407282577, 14.655222824061733 ], [ -88.194353992031409, 14.655187003094893 ], [ -88.194510972528136, 14.655101892738392 ], [ -88.194663892373043, 14.654993811097475 ], [ -88.194859837255507, 14.654835692241363 ], [ -88.194992640924809, 14.654647241600696 ], [ -88.195074007395519, 14.654409239103053 ], [ -88.195096355782596, 14.654175371842763 ], [ -88.195169289313526, 14.653833948460072 ], [ -88.195246781777598, 14.65360746184759 ], [ -88.195273211284373, 14.653400397652403 ], [ -88.195553084434422, 14.652751350148405 ], [ -88.195908672944412, 14.652274353452798 ], [ -88.196353974116349, 14.651647446699888 ], [ -88.196431402368219, 14.651409464103114 ], [ -88.196583487004602, 14.651148105461054 ], [ -88.196818244991022, 14.650890153446893 ], [ -88.197032865583907, 14.650548000715052 ], [ -88.197303398675814, 14.650355008301661 ], [ -88.197597421452713, 14.650138902657327 ], [ -88.197812435587679, 14.649869555393407 ], [ -88.198071388643697, 14.649718773854207 ], [ -88.19829512710271, 14.649606493468847 ], [ -88.198459557239516, 14.64944470233686 ], [ -88.198686023043422, 14.649110151311403 ], [ -88.198759491402285, 14.648868356527052 ], [ -88.198782044040001, 14.648672808112437 ], [ -88.198874753794954, 14.648350442075429 ], [ -88.198885769691572, 14.648204769152096 ], [ -88.198935310377252, 14.647905617550901 ], [ -88.198929624918065, 14.647583758475465 ], [ -88.198900887166815, 14.647365482287297 ], [ -88.198907883952657, 14.647204502044982 ], [ -88.198942639486603, 14.647081698824502 ], [ -88.198918254162265, 14.646940040294322 ], [ -88.198849617323631, 14.646622337520087 ], [ -88.198789831021656, 14.646484693345203 ], [ -88.198741414803052, 14.646266518470508 ], [ -88.198740519383307, 14.646101746862303 ], [ -88.198767153478286, 14.645933001435544 ], [ -88.198805865531568, 14.645814009855421 ], [ -88.198887662614823, 14.645656476260768 ], [ -88.198934433507461, 14.645571931193667 ], [ -88.199051235623031, 14.645337577107842 ], [ -88.199196025155914, 14.645183550865436 ], [ -88.199404098894675, 14.645086678473389 ], [ -88.199588641328305, 14.645005255219065 ], [ -88.199738137048371, 14.644992988578224 ], [ -88.200029069333581, 14.644934008532749 ], [ -88.200265234649578, 14.644936622653994 ], [ -88.200540444562691, 14.644881555073077 ], [ -88.200877937786771, 14.644699709704183 ], [ -88.201074223887034, 14.644606728724673 ], [ -88.20117603137804, 14.644510403229477 ], [ -88.20131328121748, 14.644417726755867 ], [ -88.201340163612372, 14.644294963913687 ], [ -88.201295785616651, 14.64409592884506 ], [ -88.201184458730694, 14.643889575288366 ], [ -88.201097080144422, 14.643744410122231 ], [ -88.200981859642937, 14.643545740536418 ], [ -88.200933755034399, 14.643385044615341 ], [ -88.200905767048667, 14.643304716955166 ], [ -88.200822178621081, 14.643132708068961 ], [ -88.200742442622612, 14.642945351252299 ], [ -88.200741358240464, 14.642746092652855 ], [ -88.200826838368144, 14.64254255547073 ], [ -88.20101066897756, 14.642330846811266 ], [ -88.201261155621083, 14.642072809999712 ], [ -88.201480886484063, 14.64194905181575 ], [ -88.201732206902733, 14.641844290368619 ], [ -88.201944149376828, 14.641735899998865 ], [ -88.202057595275576, 14.641608858100071 ], [ -88.202233469060616, 14.641381861676344 ], [ -88.202370340735129, 14.641220210637986 ], [ -88.202550337508541, 14.64102768073483 ], [ -88.202694996528962, 14.640850661296064 ], [ -88.202741305558192, 14.6406818139496 ], [ -88.202807418133872, 14.640535856285569 ], [ -88.202909118633357, 14.640420370730377 ], [ -88.20306573017865, 14.640270113350422 ], [ -88.203183173028563, 14.640154546335545 ], [ -88.203312339127535, 14.640023590666813 ], [ -88.203382428586281, 14.639885276319029 ], [ -88.203503785816096, 14.639765856929632 ], [ -88.203731363439672, 14.639638224282839 ], [ -88.203971374845239, 14.639625487151733 ], [ -88.204187667818559, 14.639593712458764 ], [ -88.204333600161746, 14.639650437574502 ], [ -88.204519223621105, 14.639768269234667 ], [ -88.204728607567134, 14.639912801770947 ], [ -88.204902905700976, 14.64011882768788 ], [ -88.20502974617763, 14.640282947121111 ], [ -88.205274237888574, 14.640369817382208 ], [ -88.205565601743572, 14.640391300662378 ], [ -88.205805299641256, 14.640321083238938 ], [ -88.206052533597571, 14.640189514568506 ], [ -88.206232777495401, 14.640042964781724 ], [ -88.206349652892357, 14.639823935294041 ], [ -88.206415176265139, 14.639570683899059 ], [ -88.206362504878427, 14.639295052996626 ], [ -88.206267253845823, 14.63914993062367 ], [ -88.206144683914076, 14.639047101716553 ], [ -88.20595803436197, 14.63874150875124 ], [ -88.205803372722372, 14.63852771789692 ], [ -88.205668640654125, 14.638359807698887 ], [ -88.205538263005892, 14.638268514844301 ], [ -88.205451260918721, 14.638192325331639 ], [ -88.205332585659875, 14.63808181175988 ], [ -88.205257369622188, 14.638001729147341 ], [ -88.205197749610022, 14.637894741777565 ], [ -88.205204762963191, 14.637737593482177 ], [ -88.205263232088029, 14.637633826825761 ], [ -88.205353227824517, 14.637537560949154 ], [ -88.205537510447954, 14.637410150879951 ], [ -88.205698304860675, 14.637305854304946 ], [ -88.205949701540959, 14.637216416381312 ], [ -88.206201328336178, 14.637169128994342 ], [ -88.206429341446281, 14.637121963695675 ], [ -88.206687353186211, 14.637162778673092 ], [ -88.206846440911235, 14.637106390173948 ], [ -88.206967438515932, 14.636921827092666 ], [ -88.207143261692167, 14.636687163761792 ], [ -88.207312240294954, 14.636640303691118 ], [ -88.207496793452478, 14.636562706757759 ], [ -88.207693132244501, 14.636481216562396 ], [ -88.207893427426313, 14.636403537684537 ], [ -88.208046264865757, 14.636283952898921 ], [ -88.208248097548221, 14.63612770983022 ], [ -88.208247216654428, 14.635966770544307 ], [ -88.208166869453194, 14.635668291690855 ], [ -88.208000695063276, 14.635508209932798 ], [ -88.207913525629863, 14.635401366197145 ], [ -88.207849382595569, 14.635187107061961 ], [ -88.207880112272221, 14.635048995765104 ], [ -88.207957733060169, 14.634849329277467 ], [ -88.208098490212222, 14.634679991220413 ], [ -88.208318209692678, 14.634556227359523 ], [ -88.208632801474238, 14.634508610872857 ], [ -88.20901890434682, 14.634583246596 ], [ -88.209389559133101, 14.634711609825111 ], [ -88.209808028846865, 14.634947019890514 ], [ -88.21017060346152, 14.635037103828523 ], [ -88.210540335024362, 14.634996862177287 ], [ -88.210886074800001, 14.634887768816672 ], [ -88.211120988317518, 14.634664291572891 ], [ -88.211182737692141, 14.634441714803351 ], [ -88.211172890569628, 14.634081558626477 ], [ -88.211147721837165, 14.633798121991935 ], [ -88.211083282058937, 14.633530217540216 ], [ -88.21092476833482, 14.633331778100167 ], [ -88.210789615832553, 14.633087233146361 ], [ -88.210717473832446, 14.632850024529764 ], [ -88.21084922183168, 14.632473804155957 ], [ -88.211021038935385, 14.632227663201125 ], [ -88.211185194865294, 14.632019881923501 ], [ -88.211443634090372, 14.631780954228523 ], [ -88.211803764520312, 14.631426537429812 ], [ -88.211968423879483, 14.631310720905743 ], [ -88.212070199531482, 14.631210559486677 ], [ -88.212265879608125, 14.631010277498223 ], [ -88.212374474061903, 14.630718480819503 ], [ -88.212443881914538, 14.630457544020777 ], [ -88.212513415859988, 14.630219598509932 ], [ -88.2126226829687, 14.630050422024436 ], [ -88.212810574830172, 14.629865508182618 ], [ -88.212865418652768, 14.629819238720698 ], [ -88.212904099742985, 14.629696413548604 ], [ -88.213009304584347, 14.629504266109176 ], [ -88.213221018830552, 14.629357547862046 ], [ -88.213350425346746, 14.629272570038259 ], [ -88.213444370683661, 14.629180112882899 ], [ -88.213459228192818, 14.62901909181382 ], [ -88.213439150992642, 14.628946388539523 ], [ -88.213474127796886, 14.628865734508656 ], [ -88.213489595838453, 14.628815838034996 ], [ -88.213481219684184, 14.628723913849484 ], [ -88.213524088360558, 14.62864705069722 ], [ -88.213539640596537, 14.628612481752086 ], [ -88.213538966860952, 14.628489861505802 ], [ -88.213495003441807, 14.628367466754197 ], [ -88.213502474282421, 14.628294619981924 ], [ -88.213537240442179, 14.628175647118695 ], [ -88.213544542838349, 14.628072145282751 ], [ -88.213528380088633, 14.627995589623399 ], [ -88.213528001131792, 14.627926615731091 ], [ -88.213495949366973, 14.627823318882303 ], [ -88.213495444111373, 14.627731353690015 ], [ -88.213616852455345, 14.627623425487077 ], [ -88.213730663586531, 14.62756535270913 ], [ -88.213840539244032, 14.627507300383856 ], [ -88.213926676028834, 14.627426379748881 ], [ -88.214028406953702, 14.627318553882557 ], [ -88.214059342614178, 14.627218760883938 ], [ -88.214105977739223, 14.627111222086818 ], [ -88.214172500457096, 14.627041899562467 ], [ -88.21423538262863, 14.627026243882806 ], [ -88.214306409440425, 14.627060361632047 ], [ -88.214400732682989, 14.627036878052751 ], [ -88.21449074127095, 14.626944441077613 ], [ -88.214517657006539, 14.626829341021594 ], [ -88.214525001084553, 14.626733502945815 ], [ -88.214552085336535, 14.626649057942219 ], [ -88.214606822667676, 14.626583628738175 ], [ -88.214740120296398, 14.626490966009783 ], [ -88.214885076457804, 14.62637141848271 ], [ -88.214990636443517, 14.626244412333204 ], [ -88.214990425684405, 14.62620609351929 ], [ -88.214994044931572, 14.626148594776677 ], [ -88.215048297248686, 14.625995032214206 ], [ -88.215150069139852, 14.625894869700565 ], [ -88.215244223139166, 14.625840730773382 ], [ -88.215448778496011, 14.62582433584191 ], [ -88.215755063147171, 14.625700114220415 ], [ -88.215825646831348, 14.625653762037011 ], [ -88.215974980141851, 14.625614662860588 ], [ -88.21625748315914, 14.625459908804741 ], [ -88.216430259662857, 14.625390031062368 ], [ -88.216633928105523, 14.62521269619508 ], [ -88.216766295392048, 14.624951429738578 ], [ -88.216764733654429, 14.624667870668867 ], [ -88.216755470079278, 14.624415007725721 ], [ -88.216628230549631, 14.624178088716548 ], [ -88.216627217697678, 14.623994158488323 ], [ -88.216641608608455, 14.623748835995613 ], [ -88.216671614244092, 14.623480440035667 ], [ -88.216725780451981, 14.62331154966917 ], [ -88.216866481604583, 14.623134543471769 ], [ -88.217023134898412, 14.622995773794541 ], [ -88.21717999908229, 14.62289532281917 ], [ -88.217305253881221, 14.622772044923 ], [ -88.217524956188868, 14.622648273560596 ], [ -88.217641790996552, 14.62242540777514 ], [ -88.217648648050172, 14.622241436466956 ], [ -88.217734295730423, 14.622072381441219 ], [ -88.217953701409371, 14.621894963439305 ], [ -88.21820467363861, 14.621732708213186 ], [ -88.218400804850376, 14.621616723304934 ], [ -88.218620294046787, 14.621454632256023 ], [ -88.21873725397171, 14.621254757299178 ], [ -88.218752487933571, 14.621162709922675 ], [ -88.218767552816828, 14.621040007523932 ], [ -88.218798443368371, 14.620932550321118 ], [ -88.218840463444195, 14.620702411292518 ], [ -88.218933494114026, 14.620445181577212 ], [ -88.218998554955178, 14.620111458351392 ], [ -88.219173824202329, 14.619780990682447 ], [ -88.219338217390728, 14.619619187274804 ], [ -88.219463511468973, 14.619503572175613 ], [ -88.219525968159957, 14.619411277709899 ], [ -88.219627692779596, 14.619303449821951 ], [ -88.219745242907237, 14.619210867035557 ], [ -88.219862369942362, 14.619041646661383 ], [ -88.21987760335206, 14.618949599242317 ], [ -88.219892667553893, 14.618826896808095 ], [ -88.219939922887249, 14.618476022648442 ], [ -88.219858341906999, 14.617955299245635 ], [ -88.21952600651295, 14.617635151050136 ], [ -88.219130201320453, 14.617223366492366 ], [ -88.218955023090402, 14.616856411550721 ], [ -88.21889036934023, 14.616550190437579 ], [ -88.218888679044468, 14.616243640114126 ], [ -88.219060137455727, 14.61593618449527 ], [ -88.219310806473615, 14.615720282281467 ], [ -88.21970322634246, 14.615518966276445 ], [ -88.220080243084055, 14.615379042076245 ], [ -88.220378301823928, 14.615193546736441 ], [ -88.220408260260982, 14.614917486789084 ], [ -88.220373648383045, 14.614350533698083 ], [ -88.220308909116895, 14.614028985498472 ], [ -88.22036967204248, 14.613630140688668 ], [ -88.220367726253002, 14.613277607922806 ], [ -88.220397769237962, 14.613016875463625 ], [ -88.220458870275891, 14.612679340679261 ], [ -88.220535711690928, 14.612341723499833 ], [ -88.2205658390439, 14.612096318536024 ], [ -88.220563808552328, 14.611728458237057 ], [ -88.220639718933242, 14.6112222383932 ], [ -88.220591059392731, 14.610961917816995 ], [ -88.220558309589322, 14.610732169867797 ], [ -88.220556786873189, 14.610456274611703 ], [ -88.220587167902195, 14.610256852171771 ], [ -88.220680256527885, 14.610011117667833 ], [ -88.220679072133066, 14.609796532465763 ], [ -88.220598509394478, 14.6094597390176 ], [ -88.220345141989583, 14.609185161539322 ], [ -88.220170983976445, 14.609002137150837 ], [ -88.219791272823898, 14.608651580059213 ], [ -88.219601206406779, 14.608437982436453 ], [ -88.219521406523356, 14.608239136122259 ], [ -88.219488235926462, 14.607932750234246 ], [ -88.219581156021718, 14.607656361055131 ], [ -88.219690238664853, 14.607456527167869 ], [ -88.219939883692234, 14.607056694647806 ], [ -88.219955201182472, 14.606979974720254 ], [ -88.220156948551306, 14.606457768790973 ], [ -88.22018732969039, 14.606258346351076 ], [ -88.220295354311091, 14.605866918230223 ], [ -88.220340545284941, 14.605498810701867 ], [ -88.220440276594061, 14.605030786093478 ], [ -88.220420985473098, 14.604387112476577 ], [ -88.220316815862844, 14.604050442091033 ], [ -88.220172620616381, 14.603591357205248 ], [ -88.219815388536247, 14.603033754179313 ], [ -88.219380472772585, 14.602660492092861 ], [ -88.219001154445806, 14.602378906491126 ], [ -88.218643463127364, 14.601736999782274 ], [ -88.218389770046656, 14.601401108975349 ], [ -88.218049762305469, 14.601111652313616 ], [ -88.217732901152004, 14.600737770395643 ], [ -88.21757411258973, 14.600485687175617 ], [ -88.217571161183045, 14.599949223103208 ], [ -88.21767969433985, 14.599649761138293 ], [ -88.217764912978936, 14.599404068735675 ], [ -88.217763521476158, 14.599151164242159 ], [ -88.217667397366029, 14.59884510605292 ], [ -88.217445736464981, 14.598608678595459 ], [ -88.217363624494013, 14.5979883233653 ], [ -88.217432091892761, 14.597558782572666 ], [ -88.21743006871769, 14.597190921385598 ], [ -88.217357428857142, 14.59686174845509 ], [ -88.217309156949327, 14.59667040031823 ], [ -88.21737838285577, 14.596378807478063 ], [ -88.217534385970708, 14.596125082007463 ], [ -88.217674185689376, 14.595787137030767 ], [ -88.217728093125643, 14.595572263973185 ], [ -88.217780525044262, 14.595089158777533 ], [ -88.217676702089307, 14.594813796507232 ], [ -88.217604526552591, 14.594568925093235 ], [ -88.217595097501615, 14.594285406418546 ], [ -88.217704049960858, 14.594062582279618 ], [ -88.217954823845361, 14.59386967427047 ], [ -88.218135445448866, 14.593799755974205 ], [ -88.218528588460543, 14.593736392437231 ], [ -88.2187565539095, 14.593689218558437 ], [ -88.219079207626137, 14.593687534018391 ], [ -88.219370214074218, 14.593655358354725 ], [ -88.219652928660537, 14.593546585737251 ], [ -88.219856904813142, 14.5934305602138 ], [ -88.220092570233888, 14.593352688878886 ], [ -88.220359713807426, 14.593274652785311 ], [ -88.220461215802388, 14.593128506416575 ], [ -88.220522862885502, 14.592890600482729 ], [ -88.220561323608905, 14.592729455644315 ], [ -88.220528028939299, 14.592400078131011 ], [ -88.220330234259976, 14.592209512230895 ], [ -88.219960070014793, 14.592157798645742 ], [ -88.219708117912134, 14.592136122947194 ], [ -88.219409032968471, 14.592130021114009 ], [ -88.21914125742542, 14.59209309944702 ], [ -88.218944265665087, 14.592048143957978 ], [ -88.218794364690979, 14.591979950512743 ], [ -88.218754848262265, 14.591949500798876 ], [ -88.2187303539026, 14.59178868475888 ], [ -88.21883875580528, 14.591466231158154 ], [ -88.218979141688237, 14.591235578491682 ], [ -88.219205880907708, 14.590966154930465 ], [ -88.219472684461849, 14.590826809849885 ], [ -88.219881307403298, 14.590717379630304 ], [ -88.22012412171739, 14.590509183244164 ], [ -88.220554662670267, 14.590093077737343 ], [ -88.220569261243938, 14.589886073667882 ], [ -88.220559322285581, 14.589510590030072 ], [ -88.220502209025867, 14.589143016916722 ], [ -88.220390474523981, 14.588860033117397 ], [ -88.220145720143478, 14.588715696113891 ], [ -88.219743451092199, 14.588549189560419 ], [ -88.219309873696517, 14.588413501707485 ], [ -88.219009444104728, 14.588162158134214 ], [ -88.218780430118187, 14.588017737413278 ], [ -88.218731822232087, 14.587765079156949 ], [ -88.218714312539532, 14.58744328263078 ], [ -88.218744061320649, 14.587128903498648 ], [ -88.218805245324333, 14.586806696330846 ], [ -88.218928118919607, 14.586254247295676 ], [ -88.218981222344098, 14.585893762273868 ], [ -88.218987531442778, 14.585610161424835 ], [ -88.218947257207489, 14.585441763634515 ], [ -88.21903141602435, 14.585004476555225 ], [ -88.218943378044798, 14.584736696017563 ], [ -88.218831268727598, 14.58438473702841 ], [ -88.218672365767901, 14.584109662060179 ], [ -88.218608147164673, 14.583880077061753 ], [ -88.218598465515186, 14.583550575556149 ], [ -88.218525661499385, 14.583190747278589 ], [ -88.218436571505492, 14.582731371871931 ], [ -88.218308262363806, 14.582295192906694 ], [ -88.218220226580598, 14.582027411884638 ], [ -88.218124616737697, 14.581813318314564 ], [ -88.21796596944337, 14.581584225296901 ], [ -88.217807659402027, 14.58141644241468 ], [ -88.217712218697869, 14.581233003751526 ], [ -88.217648212683983, 14.581041737216346 ], [ -88.217678299735127, 14.580788668280585 ], [ -88.217755601575746, 14.580535353279538 ], [ -88.218005476582448, 14.580181506716592 ], [ -88.218215499769812, 14.57973589965588 ], [ -88.218449677142942, 14.579389798550753 ], [ -88.218605373648657, 14.579082426542962 ], [ -88.218744615244745, 14.578644852222251 ], [ -88.218931197103814, 14.578230022933724 ], [ -88.218991831551804, 14.57780818650958 ], [ -88.219067698132321, 14.57729430258216 ], [ -88.219074387080127, 14.577079675604834 ], [ -88.219111624850413, 14.576696281205187 ], [ -88.219157490156022, 14.576450793854564 ], [ -88.219281707995279, 14.57614358573942 ], [ -88.219461134755306, 14.575859081544001 ], [ -88.219499973723487, 14.575766910867637 ], [ -88.219474048339947, 14.575345525962144 ], [ -88.219258341490971, 14.574756522963201 ], [ -88.219066790398273, 14.574267025743291 ], [ -88.218938949745464, 14.573915148175978 ], [ -88.218866613031651, 14.573639621160595 ], [ -88.218896403470595, 14.573332905593528 ], [ -88.218926362372684, 14.573056845166754 ], [ -88.218908644676475, 14.572696729258581 ], [ -88.219024950217857, 14.572381898560909 ], [ -88.219165451829767, 14.572174237726646 ], [ -88.219259540793587, 14.572112434993532 ], [ -88.21942423849184, 14.572011943914109 ], [ -88.219707305658304, 14.571972147243224 ], [ -88.219856897726601, 14.571986694754017 ], [ -88.220116400424359, 14.571954684553061 ], [ -88.220289008568301, 14.571861815618737 ], [ -88.220571189509215, 14.571661078494007 ], [ -88.220632790203624, 14.571415508795152 ], [ -88.22067848445576, 14.571139366123079 ], [ -88.220699939525105, 14.570748389954906 ], [ -88.220831683897671, 14.570379829940071 ], [ -88.22092509660628, 14.570195406102538 ], [ -88.22111234352306, 14.569903196165216 ], [ -88.221182487151736, 14.56978020578952 ], [ -88.221244382185603, 14.569588282458422 ], [ -88.221219130314338, 14.569289518247636 ], [ -88.221115233540885, 14.568998828740728 ], [ -88.221027665111237, 14.568815349947061 ], [ -88.220908790738847, 14.568662690580538 ], [ -88.220734666902956, 14.568479663556163 ], [ -88.220655094232654, 14.56831913485035 ], [ -88.220582884334675, 14.568066599615989 ], [ -88.220582083109107, 14.567920987702092 ], [ -88.220581113216369, 14.567744720645942 ], [ -88.220641827594974, 14.567338211461582 ], [ -88.220852383520665, 14.56699223211319 ], [ -88.221047581181693, 14.566715308844175 ], [ -88.221204194588069, 14.566576539002751 ], [ -88.221258051556404, 14.566354001639457 ], [ -88.221256912485458, 14.566147079467498 ], [ -88.221161181365602, 14.565909995198085 ], [ -88.221081440752243, 14.565718811415396 ], [ -88.221017353127039, 14.565512217862674 ], [ -88.221094056657378, 14.565151609149842 ], [ -88.221092369523248, 14.564845057732381 ], [ -88.221012081158605, 14.564554244657806 ], [ -88.220948078364643, 14.564362978607354 ], [ -88.220781405065139, 14.564103272349998 ], [ -88.22067793344155, 14.563889220163073 ], [ -88.220526913597013, 14.563614103959681 ], [ -88.220337099456103, 14.56343882213203 ], [ -88.220108027295396, 14.563279072919869 ], [ -88.219887203150705, 14.563188256531749 ], [ -88.219634736624585, 14.563066948864222 ], [ -88.219421697137534, 14.562960763394317 ], [ -88.219191910284579, 14.562670728719327 ], [ -88.219096435717546, 14.562479626004537 ], [ -88.219048045954807, 14.562265285834407 ], [ -88.218952234945974, 14.562012872683219 ], [ -88.218943103624667, 14.561782999874762 ], [ -88.21895770401099, 14.56157599544483 ], [ -88.219012025523909, 14.561437760156657 ], [ -88.219192579030334, 14.561360179136157 ], [ -88.219459895918305, 14.561320465794667 ], [ -88.219735291737749, 14.561319030089141 ], [ -88.220002987594881, 14.561348290257349 ], [ -88.220215435784624, 14.561347182246466 ], [ -88.220451110002344, 14.56127697678992 ], [ -88.220474631054657, 14.561261526063205 ], [ -88.220655689640907, 14.561275909433201 ], [ -88.220805358764295, 14.561305784483427 ], [ -88.220985742773777, 14.561197546981827 ], [ -88.22115034755322, 14.561081727710011 ], [ -88.221275820846643, 14.561004432653656 ], [ -88.221518898731617, 14.560849883441522 ], [ -88.221659475834542, 14.560657549231477 ], [ -88.221721073243415, 14.560411979351983 ], [ -88.221814186344048, 14.560173908884416 ], [ -88.221931157603308, 14.55998169782535 ], [ -88.222055997059314, 14.559789445622007 ], [ -88.222165268336809, 14.559627930713352 ], [ -88.222329744722018, 14.559489119378405 ], [ -88.222494685206627, 14.559434609578116 ], [ -88.222737507202083, 14.559234076572247 ], [ -88.222862514442568, 14.55907247915072 ], [ -88.222963747537293, 14.558880349919511 ], [ -88.223112063870502, 14.558664982521991 ], [ -88.223189860486173, 14.55850363174277 ], [ -88.223283351433651, 14.558334534889568 ], [ -88.223376715536673, 14.558142446657667 ], [ -88.223454554039392, 14.557988759595927 ], [ -88.223728593384848, 14.557742078469621 ], [ -88.223994214490105, 14.557395809055759 ], [ -88.224118712724632, 14.55714224570775 ], [ -88.224227220558831, 14.556842781947562 ], [ -88.224367328001549, 14.55656614482978 ], [ -88.224397617614102, 14.556351394275186 ], [ -88.224412170676672, 14.55613672605342 ], [ -88.224449948067303, 14.555852960289231 ], [ -88.224488021260314, 14.555622840992605 ], [ -88.224652831476334, 14.555545338574278 ], [ -88.224762902175186, 14.555529434547404 ], [ -88.224975132999646, 14.555490003746465 ], [ -88.225179537796464, 14.55545827773048 ], [ -88.225352850284807, 14.555495690346978 ], [ -88.22544663453067, 14.555380239269136 ], [ -88.225548033085047, 14.55521876428273 ], [ -88.225664575639513, 14.554949913944817 ], [ -88.225647654686952, 14.554735410545765 ], [ -88.225654042235718, 14.554467137070812 ], [ -88.225629253184778, 14.554252674862282 ], [ -88.225604210393627, 14.553992229965621 ], [ -88.225556070770935, 14.553823874015215 ], [ -88.225546891366506, 14.553586338034235 ], [ -88.225663856236906, 14.553394125526337 ], [ -88.225883445275088, 14.553262687512028 ], [ -88.226189837520408, 14.553176778586767 ], [ -88.226473217672265, 14.553198285853284 ], [ -88.226851269624007, 14.55326528055088 ], [ -88.227228982917381, 14.553270964415935 ], [ -88.227598658567075, 14.553246033839237 ], [ -88.227819008915517, 14.553252542037406 ], [ -88.227995787814791, 14.553205630659512 ], [ -88.228105390768604, 14.553105423663203 ], [ -88.228222459068888, 14.552932369493893 ], [ -88.228244961358968, 14.552732987538615 ], [ -88.228200584644526, 14.552533956514049 ], [ -88.228192017169519, 14.552407545541129 ], [ -88.228175623988122, 14.552288839622877 ], [ -88.228190131051107, 14.552066507626492 ], [ -88.228196430943825, 14.551782906721579 ], [ -88.228219229912412, 14.55163717117285 ], [ -88.228344101935065, 14.551452580046021 ], [ -88.228532087887501, 14.551298313624542 ], [ -88.22890911914628, 14.551181374685154 ], [ -88.229333909791208, 14.551163816278812 ], [ -88.229617117625367, 14.551154664839117 ], [ -88.229931797651787, 14.551145347702855 ], [ -88.230151976001153, 14.551121198789563 ], [ -88.230372026916399, 14.551074058369377 ], [ -88.230623082828117, 14.550942450863353 ], [ -88.230748334619861, 14.550826832532827 ], [ -88.23087358628058, 14.550711214144387 ], [ -88.231006960710033, 14.550641536921873 ], [ -88.23101385177965, 14.55046522892245 ], [ -88.230910547991783, 14.550281836359645 ], [ -88.230861683479219, 14.549983197660616 ], [ -88.23081315887022, 14.549745869073146 ], [ -88.230756554060434, 14.549470262986789 ], [ -88.230715600472394, 14.549179246613051 ], [ -88.230801001791164, 14.548971869900484 ], [ -88.230910134288948, 14.548787360373103 ], [ -88.231082507668432, 14.548656166217972 ], [ -88.231435928980773, 14.548539347751014 ], [ -88.231664014944712, 14.548522820008692 ], [ -88.231884530400521, 14.5485599798004 ], [ -88.232057795620648, 14.548589724041458 ], [ -88.232498614182632, 14.5486257238317 ], [ -88.232726444889678, 14.548563212477353 ], [ -88.232946152269506, 14.548454759772071 ], [ -88.233133536750557, 14.548193197402348 ], [ -88.233218850345054, 14.547970492474557 ], [ -88.233327725027806, 14.547739999432411 ], [ -88.233421076410451, 14.547547908053259 ], [ -88.233569545609612, 14.547363190256007 ], [ -88.23370261922426, 14.54723986537763 ], [ -88.233859296410373, 14.547116416054516 ], [ -88.233952221426989, 14.54684768690821 ], [ -88.234029836158342, 14.546655678267614 ], [ -88.234192081663068, 14.546118344263659 ], [ -88.234246092388176, 14.545926459979126 ], [ -88.234283984145407, 14.545665684788114 ], [ -88.234361768560504, 14.545504331113429 ], [ -88.234486759922035, 14.545342728566299 ], [ -88.23469068498747, 14.545226693705338 ], [ -88.234942711342384, 14.545271348668422 ], [ -88.235171304677863, 14.545346782881747 ], [ -88.235463096576311, 14.545467867333299 ], [ -88.235613949451334, 14.545712318804538 ], [ -88.235874782185789, 14.545925533806624 ], [ -88.236072501939958, 14.546108425719858 ], [ -88.236277663434521, 14.546214638359924 ], [ -88.236380329549377, 14.546283072113484 ], [ -88.236513656793107, 14.546205728319492 ], [ -88.236654425224216, 14.54605170537636 ], [ -88.236771035302453, 14.545798178242068 ], [ -88.236809265344959, 14.545598712897178 ], [ -88.236894019732162, 14.54527637816574 ], [ -88.236923955146764, 14.545000316837699 ], [ -88.23690591571949, 14.544586557290064 ], [ -88.236919774209312, 14.544249269037779 ], [ -88.23697339824237, 14.543988410535974 ], [ -88.236994740483667, 14.543582106936618 ], [ -88.237062819961778, 14.543091252701521 ], [ -88.237170579232739, 14.542661500688556 ], [ -88.23734931834224, 14.542262029593394 ], [ -88.237613406686194, 14.541647516044705 ], [ -88.237799883946863, 14.541225011870875 ], [ -88.23793252475356, 14.541025047475713 ], [ -88.238127893237333, 14.54078643158079 ], [ -88.238252665842111, 14.540586508626248 ], [ -88.238566817125772, 14.540485216070099 ], [ -88.239117766738104, 14.540520622181786 ], [ -88.239472495106156, 14.540641369057546 ], [ -88.239747777716417, 14.540624584327029 ], [ -88.240014465735499, 14.540477557230734 ], [ -88.240186185712034, 14.540231401018257 ], [ -88.240183791095362, 14.539802231209952 ], [ -88.240087284482314, 14.539427207408647 ], [ -88.24000724023594, 14.539182383952896 ], [ -88.239856772512994, 14.53900690894473 ], [ -88.239863101243515, 14.538730972368171 ], [ -88.239901156793877, 14.538500851723116 ], [ -88.240025798361899, 14.538277936768988 ], [ -88.240260115297232, 14.537970137467076 ], [ -88.240534752979997, 14.53783839586956 ], [ -88.240928002520803, 14.537813321376692 ], [ -88.241218888132906, 14.537773460620222 ], [ -88.241485357782466, 14.537588113440131 ], [ -88.241657758933911, 14.537464576299801 ], [ -88.241893100182125, 14.537340705433198 ], [ -88.242096114666566, 14.537063726330988 ], [ -88.242266973433118, 14.536664294061154 ], [ -88.242406404473556, 14.536272692314533 ], [ -88.242428979126942, 14.536088637341573 ], [ -88.242427094794365, 14.535751432662254 ], [ -88.242465275880122, 14.535544303022965 ], [ -88.242503114298771, 14.535275863436393 ], [ -88.242564940458465, 14.535076272375971 ], [ -88.24292607221382, 14.534936405672791 ], [ -88.243398376209925, 14.534979883801389 ], [ -88.24382338987742, 14.535008284055364 ], [ -88.244192988382707, 14.534975666045126 ], [ -88.244499690074633, 14.534951045474024 ], [ -88.244704415220284, 14.534980613959998 ], [ -88.24498059107637, 14.535124762112266 ], [ -88.245248899818037, 14.535268951718439 ], [ -88.245485953707814, 14.535451626932165 ], [ -88.245738442336943, 14.535580572085991 ], [ -88.245951078552878, 14.535617761327261 ], [ -88.246116381183214, 14.53563221021682 ], [ -88.246321150019597, 14.535669440952722 ], [ -88.246650294387138, 14.535437771240771 ], [ -88.246656528998727, 14.535146507614709 ], [ -88.246520591280628, 14.534756368836327 ], [ -88.246487188285869, 14.534411668310218 ], [ -88.246446347618274, 14.534143646929241 ], [ -88.246452024150798, 14.533752754738563 ], [ -88.246544886321033, 14.533476358212774 ], [ -88.246653869705469, 14.533268851549973 ], [ -88.246708597632434, 14.533207248730195 ], [ -88.24692032921979, 14.533083498907091 ], [ -88.247195300353965, 14.533013060086255 ], [ -88.247533640127855, 14.53301892322405 ], [ -88.247793392221539, 14.533040532229441 ], [ -88.248092653223637, 14.533092586364045 ], [ -88.248360444860182, 14.533144807739253 ], [ -88.248573208038167, 14.533204985938342 ], [ -88.248746075001023, 14.533165745106803 ], [ -88.248934246213182, 14.533049783043229 ], [ -88.249145158342415, 14.532780420541721 ], [ -88.249285522191116, 14.532557417680518 ], [ -88.249283455739544, 14.532189558882266 ], [ -88.249257356905247, 14.531745188622386 ], [ -88.249216556744386, 14.531484831617755 ], [ -88.249167932449296, 14.531232180248676 ], [ -88.249166899411833, 14.531048250821989 ], [ -88.249156750894372, 14.530642115255439 ], [ -88.249178889309633, 14.530381422770612 ], [ -88.249232410650578, 14.530105235116004 ], [ -88.249294401746852, 14.529936297695409 ], [ -88.249348267241231, 14.529721419836417 ], [ -88.249346889811832, 14.52947618058557 ], [ -88.249329605782108, 14.529200370281503 ], [ -88.249234166122633, 14.529016943962032 ], [ -88.249099476627904, 14.528849054650657 ], [ -88.249012291806835, 14.528734559841226 ], [ -88.248885857094123, 14.528635602016118 ], [ -88.248735691817373, 14.528513778649865 ], [ -88.248451139151811, 14.528277711521572 ], [ -88.248378829145196, 14.528009858023935 ], [ -88.248353765408964, 14.527749416864088 ], [ -88.248524262721503, 14.527288671341461 ], [ -88.248632983560555, 14.527035181658198 ], [ -88.248756578149226, 14.526628333528427 ], [ -88.248762982777251, 14.5263677247943 ], [ -88.248895089237223, 14.526075790670202 ], [ -88.249098214454534, 14.52582179794361 ], [ -88.249448145905063, 14.525091857375685 ], [ -88.249619543126613, 14.524792049607338 ], [ -88.249791714708323, 14.524630188857412 ], [ -88.250026865546616, 14.524475656219387 ], [ -88.250261843808232, 14.524290468460153 ], [ -88.250316525603083, 14.524221201280559 ], [ -88.250575492096729, 14.524104860938342 ], [ -88.250606744911096, 14.524066374476341 ], [ -88.250692507033534, 14.523927965851266 ], [ -88.250935868149838, 14.52383470024771 ], [ -88.251108511968198, 14.523757139631693 ], [ -88.251155627960884, 14.523741560334189 ], [ -88.251305395935034, 14.523308737772746 ], [ -88.25153360994581, 14.522601787547591 ], [ -88.251591700784914, 14.522220194157526 ], [ -88.25143817499584, 14.521661861589999 ], [ -88.251214110330721, 14.521505206875423 ], [ -88.250682994087455, 14.521348552049913 ], [ -88.250467228113621, 14.521207964291527 ], [ -88.250342747744128, 14.520661679582277 ], [ -88.249869722339966, 14.519882418177056 ], [ -88.249380099553221, 14.519095120361612 ], [ -88.249089645357685, 14.518532763063867 ], [ -88.248724502940448, 14.51842029143279 ], [ -88.248060607636361, 14.518564897805097 ], [ -88.247579283540901, 14.518356021903651 ], [ -88.247562686158304, 14.517777595301288 ], [ -88.247446504480095, 14.517488381433056 ], [ -88.246815803941217, 14.517496415156721 ], [ -88.246400869376174, 14.517624954695719 ], [ -88.246185103402354, 14.517536583770678 ], [ -88.245811662293804, 14.517247369587427 ], [ -88.24537183165485, 14.517191133452339 ], [ -88.245189260446239, 14.51734377435718 ], [ -88.2449154036333, 14.517673157003587 ], [ -88.244326196550944, 14.517576752377344 ], [ -88.243678898629454, 14.517600853537846 ], [ -88.24342993789044, 14.51772135930096 ], [ -88.242990107251487, 14.517697258153587 ], [ -88.242541977921235, 14.517311639438596 ], [ -88.242317913256102, 14.516990289996073 ], [ -88.242127043356177, 14.51674927760792 ], [ -88.241952770838864, 14.516580568780023 ], [ -88.241745303556328, 14.516596636292986 ], [ -88.241421654595598, 14.516765345108634 ], [ -88.241197589930479, 14.516773378858549 ], [ -88.241015018721853, 14.516564501265892 ], [ -88.240766057982825, 14.515921799744136 ], [ -88.240459006404677, 14.515327299174647 ], [ -88.239927890161439, 14.514989879222052 ], [ -88.239471462139889, 14.514628357273388 ], [ -88.238890553748831, 14.514323071612385 ], [ -88.238475619183774, 14.514194530155452 ], [ -88.238417528344684, 14.513929413164748 ], [ -88.238483917875072, 14.513471483069166 ], [ -88.238683086466295, 14.512555620035682 ], [ -88.238940345896637, 14.51200931396569 ], [ -88.239230800092159, 14.511543345958177 ], [ -88.23911461841395, 14.510892595892473 ], [ -88.238483917875072, 14.510306115799303 ], [ -88.238276450592551, 14.509719634152436 ], [ -88.239239098783457, 14.509060844696355 ], [ -88.239985981000544, 14.508530598100544 ], [ -88.240218344356975, 14.508144963415072 ], [ -88.239861500631037, 14.507437964747298 ], [ -88.239662332039813, 14.507068396363456 ], [ -88.239828305865842, 14.506698827362811 ], [ -88.240044071839677, 14.506538144996238 ], [ -88.240185149591781, 14.505726697263928 ], [ -88.240085565296184, 14.50488310983552 ], [ -88.240068967913572, 14.504264477012448 ], [ -88.240326227343914, 14.503661910913166 ], [ -88.240948629191479, 14.503228062306619 ], [ -88.241446550669536, 14.502617459124439 ], [ -88.241562732347745, 14.501669414006086 ], [ -88.241537836273849, 14.500504437753639 ], [ -88.241438251978252, 14.499821517791926 ], [ -88.241488044126058, 14.499484074210244 ], [ -88.241861485234594, 14.499315352226672 ], [ -88.242160238121429, 14.49911449255489 ], [ -88.242301315873547, 14.498728841474627 ], [ -88.242367705403964, 14.49839139622876 ], [ -88.242525380538666, 14.497933434001652 ], [ -88.242907120338515, 14.497362988500244 ], [ -88.243073094164515, 14.496776472580304 ], [ -88.242898821647202, 14.496366713961702 ], [ -88.242483887082159, 14.495828402468117 ], [ -88.242151939430101, 14.495563263490647 ], [ -88.241836589160684, 14.495073157272943 ], [ -88.241471446743446, 14.494558946305663 ], [ -88.241247382078299, 14.494076872440328 ], [ -88.240956927882777, 14.493490347823604 ], [ -88.240334526035198, 14.493016306245837 ], [ -88.239761916335425, 14.492678852301573 ], [ -88.239695526805008, 14.492212843629218 ], [ -88.240068967913572, 14.491827180538808 ], [ -88.241031616104465, 14.491409378100366 ], [ -88.241537836273835, 14.490967470818218 ], [ -88.24196936822149, 14.490236313198787 ], [ -88.242218328960504, 14.489497118429032 ], [ -88.242276419799623, 14.488798095020853 ], [ -88.242077251208372, 14.488187452079229 ], [ -88.241595927112925, 14.487673225139828 ], [ -88.240550292009019, 14.487255414873482 ], [ -88.239853201939724, 14.486853673490383 ], [ -88.239703825496321, 14.486347478311428 ], [ -88.239844903248425, 14.48601001421688 ], [ -88.239550299707204, 14.485809142488231 ], [ -88.23914366383346, 14.48588949120135 ], [ -88.238678937120596, 14.486098397719681 ], [ -88.238313794703359, 14.486066258268133 ], [ -88.23801504181651, 14.485953770151029 ], [ -88.23771628892969, 14.48588949120135 ], [ -88.237483925573244, 14.485921630678519 ], [ -88.237234964834229, 14.486146606888271 ], [ -88.237002601477784, 14.486339443457839 ], [ -88.236853225034395, 14.486387652574024 ], [ -88.236687251208366, 14.486403722277094 ], [ -88.236405095704114, 14.486339443457839 ], [ -88.236239121878114, 14.486114467443713 ], [ -88.236039953286877, 14.485841281976869 ], [ -88.235907174226057, 14.485648444974135 ], [ -88.235608421339222, 14.485632375216341 ], [ -88.235359460600179, 14.48572879374565 ], [ -88.235127097243762, 14.485857351719527 ], [ -88.234977720800345, 14.486050188540613 ], [ -88.234795149591733, 14.486243025194016 ], [ -88.23459598100051, 14.486435861679738 ], [ -88.234363617644064, 14.486564419243727 ], [ -88.233998475226826, 14.48653227985972 ], [ -88.233815904018201, 14.486355513164398 ], [ -88.233649930192186, 14.486098397719681 ], [ -88.233450761600963, 14.485953770151029 ], [ -88.233434164218352, 14.485712723993675 ], [ -88.233434164218352, 14.485519886879162 ], [ -88.233400969453157, 14.485391328709664 ], [ -88.233251593009754, 14.485359189155647 ], [ -88.233052424418517, 14.485423468259022 ], [ -88.232886450592488, 14.485519886879162 ], [ -88.232654087236085, 14.485616305457379 ], [ -88.232122970992805, 14.485712723993675 ], [ -88.23182421810597, 14.485712723993675 ], [ -88.231259907097495, 14.485648444974135 ], [ -88.230745388236841, 14.485487747343772 ], [ -88.23034705105438, 14.485182421525295 ], [ -88.230297258906603, 14.485222595999112 ], [ -88.230305557597902, 14.485503817112047 ], [ -88.230131285080574, 14.485680584486234 ], [ -88.229957012563261, 14.48575289837143 ], [ -88.229658259676413, 14.485704689117256 ], [ -88.229500584541711, 14.485552026409891 ], [ -88.229475688467801, 14.485375258933241 ], [ -88.229492285850412, 14.4851422470442 ], [ -88.229442493702606, 14.484861025472792 ], [ -88.229459091085204, 14.484619978127768 ], [ -88.229210130346161, 14.48454766387318 ], [ -88.228645819337714, 14.484539628954543 ], [ -88.228430053363894, 14.484724432009445 ], [ -88.228297274303074, 14.484869060379779 ], [ -88.228280676920463, 14.485278840250224 ], [ -88.228380261216088, 14.485632375216341 ], [ -88.228388559907387, 14.485744863496461 ], [ -88.22823918346397, 14.485889491201354 ], [ -88.228056612255358, 14.485961805018428 ], [ -88.227782755442405, 14.486066258268133 ], [ -88.22740101564257, 14.486010014216712 ], [ -88.226952886312333, 14.485817177360698 ], [ -88.226745419029783, 14.485503817112047 ], [ -88.226612639968963, 14.485126177249727 ], [ -88.226496458290768, 14.484965479240939 ], [ -88.226297289699531, 14.484901200004822 ], [ -88.226164510638725, 14.484901200004822 ], [ -88.225940445973592, 14.484949409433657 ], [ -88.225724679999757, 14.485013688655805 ], [ -88.225533810099847, 14.485029758458426 ], [ -88.225301446743416, 14.485013688655805 ], [ -88.225235057213013, 14.484933339625211 ], [ -88.225235057213013, 14.484676222531705 ], [ -88.225243355904311, 14.484467314673756 ], [ -88.225284849360818, 14.484290546332574 ], [ -88.225284849360818, 14.484025393556644 ], [ -88.225160368991297, 14.4838405899193 ], [ -88.224952901708789, 14.483671856028986 ], [ -88.224737135734955, 14.483583471559031 ], [ -88.224488174995926, 14.483511156966504 ], [ -88.224297305095988, 14.483422772432508 ], [ -88.224206019491689, 14.483318317937837 ], [ -88.22404004566566, 14.483157618619217 ], [ -88.224023448283063, 14.482956744307218 ], [ -88.224031746974347, 14.482699624922429 ], [ -88.22404004566566, 14.482466610222527 ], [ -88.223990253517854, 14.482257700283485 ], [ -88.22387407183966, 14.482121105216965 ], [ -88.223600215026707, 14.481847914831603 ], [ -88.223276566065977, 14.481711319512756 ], [ -88.223011007944336, 14.481558654056869 ], [ -88.2227205537488, 14.481534548975286 ], [ -88.222164541431638, 14.481462233714808 ], [ -88.221940476766505, 14.481422058559913 ], [ -88.221733009483984, 14.481397953463487 ], [ -88.221600230423164, 14.481116727144954 ], [ -88.221442555288448, 14.480907815934696 ], [ -88.221218490623315, 14.480867640679401 ], [ -88.2210525167973, 14.48095602623145 ], [ -88.220961231192987, 14.481261357867583 ], [ -88.220878244279973, 14.481454198684411 ], [ -88.220728867836556, 14.481606864212186 ], [ -88.220405218875811, 14.481823809781448 ], [ -88.219948790854261, 14.481944335006032 ], [ -88.219583648437009, 14.481944335006032 ], [ -88.219284895550174, 14.481880054894402 ], [ -88.219002740045937, 14.481767564654232 ], [ -88.21877037668952, 14.481590794161576 ], [ -88.218529714641789, 14.481446163653725 ], [ -88.218297351285358, 14.481317603123143 ], [ -88.218255857828851, 14.481181007477767 ], [ -88.218164572224552, 14.481012271564419 ], [ -88.218164572224552, 14.48081139530977 ], [ -88.218280753902761, 14.480586413688625 ], [ -88.218396935580969, 14.480409642254815 ], [ -88.218421831654879, 14.48024894082913 ], [ -88.218396935580969, 14.479967713054091 ], [ -88.218289052594059, 14.47973469548473 ], [ -88.218040091855016, 14.479509712771751 ], [ -88.217757936350793, 14.479421326643521 ], [ -88.217409391316167, 14.479469537263284 ], [ -88.217118937120617, 14.479614169059722 ], [ -88.217002755442394, 14.479798976217962 ], [ -88.216712301246858, 14.479935572714247 ], [ -88.216396950977426, 14.480015923555131 ], [ -88.216056704634084, 14.48000788847235 ], [ -88.215691562216833, 14.479935572714247 ], [ -88.215442601477818, 14.479686484922581 ], [ -88.215251731577894, 14.479477572365559 ], [ -88.215102355134476, 14.479244554281427 ], [ -88.214994472147566, 14.479027606190014 ], [ -88.214869991778045, 14.478826728138458 ], [ -88.21470401795203, 14.478730306609112 ], [ -88.214322278152181, 14.478963325233304 ], [ -88.214230992547883, 14.479180273387572 ], [ -88.214015226574048, 14.479533818073339 ], [ -88.213749668452422, 14.479798976217962 ], [ -88.213434318182962, 14.480015923555131 ], [ -88.213168760061336, 14.480048063883334 ], [ -88.212911500631009, 14.480056098964658 ], [ -88.212629345126786, 14.479903432369747 ], [ -88.212463371300757, 14.479662379637579 ], [ -88.212363787005145, 14.479340975587304 ], [ -88.21231399485734, 14.479164203161195 ], [ -88.212081631500922, 14.479019571071447 ], [ -88.211816073379296, 14.479083852011859 ], [ -88.211509021801163, 14.479236519170716 ], [ -88.211268359753433, 14.479381151119046 ], [ -88.21093641210139, 14.479614169059722 ], [ -88.210571269684152, 14.479758800761875 ], [ -88.210139737736498, 14.479750765669785 ], [ -88.209691608406246, 14.479718625298508 ], [ -88.209409452902008, 14.479758800761875 ], [ -88.209060907867368, 14.47988736219575 ], [ -88.208645973302325, 14.480080204206883 ], [ -88.20818954528076, 14.480160554995388 ], [ -88.207633532963598, 14.480056098964662 ], [ -88.207450961754972, 14.479911467456306 ], [ -88.207334780076764, 14.47973469548473 ], [ -88.207226897089853, 14.4795257829731 ], [ -88.20713561148554, 14.479180273387572 ], [ -88.206936442894289, 14.478722271479779 ], [ -88.206704079537857, 14.478657990434611 ], [ -88.206413625342321, 14.478657990434611 ], [ -88.2062061580598, 14.478682095828736 ], [ -88.206048482925098, 14.478666025566277 ], [ -88.205948898629472, 14.478601744504815 ], [ -88.205475873225296, 14.478433006629869 ], [ -88.205044341277656, 14.478336584929435 ], [ -88.204753887082134, 14.478167846852852 ], [ -88.204579614564807, 14.478055354730509 ], [ -88.204363848590972, 14.47785447579877 ], [ -88.204148082617138, 14.477605385670859 ], [ -88.203791238891213, 14.477300049003595 ], [ -88.203517382078275, 14.477042923063193 ], [ -88.203301616104454, 14.476793832024322 ], [ -88.202264279691818, 14.475974240181069 ], [ -88.201948929422372, 14.475548372636162 ], [ -88.201616981770343, 14.475251068394014 ], [ -88.201268436735702, 14.475042151661283 ], [ -88.201011177305375, 14.47487341107974 ], [ -88.200056827805753, 14.474857340541478 ], [ -88.19985765921453, 14.474937693221168 ], [ -88.199625295858098, 14.474953763753616 ], [ -88.199459322032084, 14.474809128919691 ], [ -88.199276750823444, 14.474576105933455 ], [ -88.199152270453936, 14.474391294425587 ], [ -88.199077582232221, 14.47411809452338 ], [ -88.198836920184505, 14.473619905600733 ], [ -88.198745634580206, 14.473338669424816 ], [ -88.19872073850631, 14.473145821555393 ] ] ] } },
{ "type": "Feature", "properties": { "id": null }, "geometry": { "type": "MultiLineString", "coordinates": [ [ [ -88.208246182196447, 14.636137299760177 ], [ -88.208243777720512, 14.636417047982764 ], [ -88.208363732925235, 14.636761305174105 ], [ -88.208440418037128, 14.637109618840119 ], [ -88.208398217407861, 14.637309101652621 ], [ -88.208313144691857, 14.637585446873704 ], [ -88.208259032201568, 14.63776583150638 ], [ -88.208157587500779, 14.637927301765089 ], [ -88.2079890485779, 14.638054632143117 ], [ -88.207772799864429, 14.63809407399126 ], [ -88.207622995162524, 14.638048867090635 ], [ -88.207406075577055, 14.637965688177598 ], [ -88.207271740970072, 14.637870584848921 ], [ -88.207101462138567, 14.637679867851896 ], [ -88.207006358107748, 14.637561568968732 ], [ -88.206891324765976, 14.637397389368275 ], [ -88.206772481705542, 14.637256221430192 ], [ -88.206693246101608, 14.637160832133846 ] ] ] } }
]
}
