{
"type": "FeatureCollection",
"name": "TIS",
"crs": { "type": "name", "properties": { "name": "urn:ogc:def:crs:OGC:1.3:CRS84" } },
"features": [
{ "type": "Feature", "properties": { "fid": 1, "id": 1, "etnia_id": 36, "etnia": "Isleno" }, "geometry": { "type": "MultiPolygon", "coordinates": [ [ [ [ -86.953399727404459, 16.010248205457742 ], [ -86.959518420833959, 16.010667791087673 ], [ -86.962409939106124, 16.011062631019573 ], [ -86.964958142077435, 16.011472593400782 ], [ -86.967643724130923, 16.011810333971628 ], [ -86.970283501414968, 16.012559909439112 ], [ -86.972328234115494, 16.012817403058371 ], [ -86.974868811080626, 16.013525001361476 ], [ -86.984527591044909, 16.015489669191627 ], [ -86.999298051349584, 16.025032044118177 ], [ -87.006347691795568, 16.027309407861203 ], [ -87.026336742365075, 16.040117388539436 ], [ -87.02784724049441, 16.042091290576742 ], [ -87.02961737116641, 16.043546574690684 ], [ -87.034233126989093, 16.050729674642994 ], [ -87.038177487578579, 16.055973087385766 ], [ -87.039527907340286, 16.058744554044637 ], [ -87.040420589600032, 16.06062127223354 ], [ -87.045272776529558, 16.083540010610353 ], [ -87.044609022092587, 16.08987042570487 ], [ -87.044212285087255, 16.093669898631429 ], [ -87.043830846940395, 16.096275400732267 ], [ -87.040222155426122, 16.113090465248913 ], [ -87.03898621344041, 16.115198027364734 ], [ -87.035057049232677, 16.12149229024055 ], [ -87.030563418518454, 16.128692595694432 ], [ -87.028663666095667, 16.130903349955108 ], [ -87.024932897219585, 16.134866813445331 ], [ -87.021263170336866, 16.138128396651215 ], [ -87.018791128522736, 16.140352175654559 ], [ -87.015029900765825, 16.143550840939238 ], [ -87.012611370827358, 16.145404846751696 ], [ -87.009468060173575, 16.147857673290552 ], [ -86.996887228410642, 16.154703036228348 ], [ -86.993896445477048, 16.155973390132633 ], [ -86.99176782293172, 16.156518918776783 ], [ -86.989181533697987, 16.15731045948187 ], [ -86.987258889702375, 16.158233730279299 ], [ -86.981124834148559, 16.16032038636283 ], [ -86.978271523036625, 16.160825799569725 ], [ -86.975349473692262, 16.16213415166704 ], [ -86.97061912968401, 16.165348022864681 ], [ -86.968040527529823, 16.167095097563465 ], [ -86.965331995995072, 16.169231381102385 ], [ -86.959350634109938, 16.172386267525983 ], [ -86.956443718101298, 16.1743718353252 ], [ -86.95364382068928, 16.175571519005775 ], [ -86.946296692594458, 16.178134846899603 ], [ -86.942634565609083, 16.178691967784442 ], [ -86.938545220835621, 16.179798003402244 ], [ -86.928268486657061, 16.180637443910992 ], [ -86.925826996811097, 16.180602931517697 ], [ -86.923683170063441, 16.180263618121309 ], [ -86.921623286275874, 16.180389370125134 ], [ -86.918312043893849, 16.179624453963427 ], [ -86.911552392766581, 16.178821416254131 ], [ -86.909393374416624, 16.178607984373741 ], [ -86.873954790535208, 16.206726136565944 ], [ -86.872207635485893, 16.207763792702647 ], [ -86.868163994299707, 16.210960358062593 ], [ -86.799530033365031, 16.255090806178941 ], [ -86.743202281931474, 16.289045277104478 ], [ -86.681465183632923, 16.326465466303834 ], [ -86.678138674618666, 16.328123010910893 ], [ -86.63639829333944, 16.349079218433413 ], [ -86.634010353691025, 16.351728387448883 ], [ -86.632461579754235, 16.353397474960087 ], [ -86.630706831864686, 16.354858253130136 ], [ -86.629302970733534, 16.356462603785928 ], [ -86.62745671564015, 16.358537701076525 ], [ -86.623497032077111, 16.361377693399721 ], [ -86.618728646147048, 16.364376167194038 ], [ -86.613929703714234, 16.367385744498417 ], [ -86.609748828848709, 16.370584490439263 ], [ -86.607574446228455, 16.372695882497535 ], [ -86.602333141953594, 16.376964487091854 ], [ -86.6005248703771, 16.378723096694532 ], [ -86.597175616637429, 16.381002271972271 ], [ -86.591713002933204, 16.385196744053452 ], [ -86.587265071699747, 16.387510412473979 ], [ -86.579498338599777, 16.392005800997019 ], [ -86.565361041216377, 16.399927257285238 ], [ -86.558952273433874, 16.402078741299952 ], [ -86.554855309715251, 16.403575940812718 ], [ -86.54210659121442, 16.412485110025624 ], [ -86.441261330591544, 16.463050966294805 ], [ -86.436393674618017, 16.465229151389533 ], [ -86.43377685062957, 16.465724863155803 ], [ -86.431953478925294, 16.466798678986237 ], [ -86.340286189362232, 16.495246793235481 ], [ -86.325599659247104, 16.497444218653829 ], [ -86.322608987931233, 16.498033507679157 ], [ -86.194374118937205, 16.499572680002117 ], [ -86.142433179532318, 16.524370220550729 ], [ -86.138534566669122, 16.526067666878784 ], [ -86.115425137780292, 16.53040112364442 ], [ -86.104774452022241, 16.529439999610794 ], [ -86.015556326849122, 16.513576424877456 ], [ -86.013572671991867, 16.513191218312944 ], [ -85.967231750155136, 16.503374140343752 ], [ -85.966178861491258, 16.50601196579974 ], [ -85.952743566894327, 16.525507060186751 ], [ -85.942359948159975, 16.532125522180802 ], [ -85.938392606279891, 16.538292028972673 ], [ -85.936042821797955, 16.54037842185377 ], [ -85.934104951092991, 16.542804674499358 ], [ -85.930961585532117, 16.545301312158504 ], [ -85.924484234813633, 16.553939840294259 ], [ -85.90173343157133, 16.56487659129591 ], [ -85.890228302155037, 16.569622089479282 ], [ -85.886688206884457, 16.570852355334967 ], [ -85.880660980363032, 16.573274461852549 ], [ -85.866462714608531, 16.575427970515666 ], [ -85.863014223012271, 16.576106909935881 ], [ -85.860420211027659, 16.575881824651692 ], [ -85.85762022787415, 16.57586478593684 ], [ -85.853530889229262, 16.575439522960735 ], [ -85.850311313195874, 16.57594502475634 ], [ -85.84813691725833, 16.575849427043948 ], [ -85.83997346670003, 16.575170495468225 ], [ -85.833702061869374, 16.573472821762778 ], [ -85.831336992756405, 16.572816765671888 ], [ -85.828086822728281, 16.572261716703128 ], [ -85.826065050928364, 16.571415066055543 ], [ -85.823295608974874, 16.570291513641806 ], [ -85.820129390951621, 16.568693156104462 ], [ -85.803405794292885, 16.564561713662393 ], [ -85.798790005293824, 16.562465588074549 ], [ -85.794364914663603, 16.559423531212083 ], [ -85.788619964170934, 16.556127547229803 ], [ -85.782981869487514, 16.551269399320741 ], [ -85.777320840395873, 16.542997273037997 ], [ -85.77343752155744, 16.53871345815568 ], [ -85.771759051539746, 16.536044948643649 ], [ -85.769302368041281, 16.533071589138039 ], [ -85.768096922606361, 16.531168009318129 ], [ -85.765533435443714, 16.526142184391443 ], [ -85.763992343686539, 16.523261926533465 ], [ -85.759323096854573, 16.500415914010727 ], [ -85.759811419292376, 16.493377765343002 ], [ -85.763145459112977, 16.481187891565728 ], [ -85.763511679047269, 16.479175529387483 ], [ -85.76419067890825, 16.476835120427129 ], [ -85.765235908746007, 16.47461116686241 ], [ -85.766059838899849, 16.472347137559481 ], [ -85.779457127586468, 16.452589103177196 ], [ -85.795913667672465, 16.441444413483868 ], [ -85.798500092368783, 16.44046603716675 ], [ -85.800766002305267, 16.438570124339801 ], [ -85.804771430125783, 16.433355395899465 ], [ -85.806579555041267, 16.430473424839796 ], [ -85.809486356143083, 16.427316787959171 ], [ -85.811462394294523, 16.423786145024945 ], [ -85.819671665951404, 16.414075910511428 ], [ -85.829574558047625, 16.406436877983243 ], [ -85.840454098919693, 16.400861677681494 ], [ -85.851104737851287, 16.39804843680627 ], [ -85.854385345707541, 16.397182491158901 ], [ -85.858467073164903, 16.396820038655484 ], [ -85.861701958736404, 16.394098253783415 ], [ -85.898086512948964, 16.367134127061878 ], [ -85.912376368192568, 16.356719870241658 ], [ -85.926185628278333, 16.349090557501288 ], [ -85.949272172916565, 16.344776101722477 ], [ -85.954513563714613, 16.345634505087929 ], [ -85.958091752594598, 16.345815635638978 ], [ -85.965110786075314, 16.347366212317578 ], [ -85.968505870460788, 16.347921406401095 ], [ -85.973136873869194, 16.348903698532613 ], [ -85.976570132685453, 16.350179559242431 ], [ -85.978378293063713, 16.351224857610415 ], [ -86.031311058337835, 16.369161451179128 ], [ -86.07394406219781, 16.377593863854418 ], [ -86.136604325560924, 16.368413798490884 ], [ -86.139556884020919, 16.368206003353169 ], [ -86.182678195613406, 16.364555210639995 ], [ -86.185974151564736, 16.364263573203377 ], [ -86.18959047369863, 16.361806716961564 ], [ -86.191978422755312, 16.360645413988248 ], [ -86.193824791610183, 16.359653445001612 ], [ -86.195930464438106, 16.358217344729763 ], [ -86.197936979620238, 16.357232926241743 ], [ -86.20322418821668, 16.354764836552338 ], [ -86.226303084115429, 16.350421812970104 ], [ -86.228439334866451, 16.350454195166517 ], [ -86.249557492507293, 16.354757362154775 ], [ -86.266410884072712, 16.350465733801851 ], [ -86.273597676894624, 16.350076734365835 ], [ -86.276847875743499, 16.350416258045747 ], [ -86.279144286670785, 16.350286420084874 ], [ -86.283309958028255, 16.348655655907141 ], [ -86.285202064108347, 16.34731682134549 ], [ -86.290016121973224, 16.344623535313364 ], [ -86.294639574443053, 16.341491640078257 ], [ -86.296714715933788, 16.34078022772427 ], [ -86.299400343960443, 16.339222027418018 ], [ -86.309272748017733, 16.336236969621272 ], [ -86.313384959270479, 16.335700917640231 ], [ -86.315635618272339, 16.335212743282288 ], [ -86.317901559588364, 16.334844709000762 ], [ -86.319900570696689, 16.334356298092452 ], [ -86.323661749949878, 16.334035899987054 ], [ -86.328064028783317, 16.333560926097075 ], [ -86.331939678861616, 16.333349253711628 ], [ -86.33470157358515, 16.332298220019403 ], [ -86.340026816772522, 16.331035651583441 ], [ -86.343833921122652, 16.330131384411374 ], [ -86.345161499598447, 16.328144058948123 ], [ -86.34688566142529, 16.326419888163699 ], [ -86.348854024316722, 16.324798701159406 ], [ -86.354972783338184, 16.319747855352762 ], [ -86.359405473879221, 16.317178743219536 ], [ -86.361770692306848, 16.31542405038708 ], [ -86.36353304467309, 16.314472297638009 ], [ -86.368362358968966, 16.31226724207626 ], [ -86.378799393873848, 16.30888356852553 ], [ -86.382720891335126, 16.308416411370487 ], [ -86.385353154422177, 16.307752508022016 ], [ -86.388183653936224, 16.30756750390362 ], [ -86.389900259542699, 16.306470790681658 ], [ -86.39595794064941, 16.305326475262504 ], [ -86.401435807860892, 16.303407528819161 ], [ -86.410133354001687, 16.302129797617727 ], [ -86.423744269673463, 16.29804224039674 ], [ -86.426170393055443, 16.297120924487881 ], [ -86.428169236975407, 16.295879311999666 ], [ -86.430908208961696, 16.295360623942084 ], [ -86.432868970670114, 16.294193282411822 ], [ -86.435264547489467, 16.291231119312815 ], [ -86.436355643537183, 16.28944585954552 ], [ -86.438598661353282, 16.286985381359358 ], [ -86.439872760450911, 16.285047401405489 ], [ -86.44207770947061, 16.28281412599771 ], [ -86.457427953724647, 16.271753338144183 ], [ -86.463348438722591, 16.269044770774141 ], [ -86.469306885862551, 16.26786614815509 ], [ -86.482978865114063, 16.264244004963167 ], [ -86.492149348467834, 16.2635898735066 ], [ -86.494590718417527, 16.263347548769204 ], [ -86.497985852846099, 16.261957036932127 ], [ -86.501617415136408, 16.260770738002062 ], [ -86.503791822947193, 16.260051638503235 ], [ -86.50598904133534, 16.259327011494722 ], [ -86.508560175150322, 16.258642060461046 ], [ -86.511238113323856, 16.257991835778618 ], [ -86.514701781265444, 16.257232567476059 ], [ -86.518844673174684, 16.256788234050823 ], [ -86.521003662508875, 16.254621512304603 ], [ -86.523178171065268, 16.253028898707285 ], [ -86.525375311484453, 16.251350493122089 ], [ -86.526802115592602, 16.249666112459032 ], [ -86.528930677746814, 16.248077419531057 ], [ -86.533386195958144, 16.243829828308307 ], [ -86.606536876790017, 16.190931305907093 ], [ -86.646797155032829, 16.163425365661965 ], [ -86.64932248320244, 16.161790877464728 ], [ -86.72481529588552, 16.115507019309561 ], [ -86.727058389816094, 16.114383580997114 ], [ -86.826827959928764, 16.061168642576238 ], [ -86.828819239859186, 16.057674379299364 ], [ -86.832763677682891, 16.053138805031292 ], [ -86.834106516623592, 16.051376237981295 ], [ -86.835533168808112, 16.049965002123031 ], [ -86.837158144713783, 16.048431291636639 ], [ -86.838546708052363, 16.046859824241068 ], [ -86.840477019691846, 16.045204141225863 ], [ -86.842109642171494, 16.043861273928535 ], [ -86.844032316682132, 16.042274340441178 ], [ -86.846771223709041, 16.040014247908083 ], [ -86.853019667813427, 16.036548679930767 ], [ -86.855537421390295, 16.034786275420373 ], [ -86.857505772710894, 16.034122578808127 ], [ -86.859664896875358, 16.032959061702478 ], [ -86.868141225322759, 16.030065460786378 ], [ -86.875877356087884, 16.02901261501319 ], [ -86.879714991471488, 16.02813346899115 ], [ -86.884170528252085, 16.027975031411625 ], [ -86.8863601001935, 16.027961724022369 ], [ -86.889236378513431, 16.02855112968588 ], [ -86.891494736876027, 16.028280339080453 ], [ -86.893539449836894, 16.027564974420834 ], [ -86.896766694371962, 16.026351957330519 ], [ -86.90374750041552, 16.024200345775036 ], [ -86.907081631275574, 16.022905429490073 ], [ -86.909172065873349, 16.022190088350889 ], [ -86.914108244182714, 16.0205249754537 ], [ -86.916168205780068, 16.020156797233675 ], [ -86.921066279655932, 16.017641059094803 ], [ -86.923629784970188, 16.016143896119608 ], [ -86.925865240927664, 16.015325467236465 ], [ -86.936065723920763, 16.011945603747439 ], [ -86.948036241894513, 16.01032253806833 ], [ -86.950531054053911, 16.010250143027182 ], [ -86.953399727404459, 16.010248205457742 ] ], [ [ -86.368393014549582, 16.4104899704102 ], [ -86.35670471965129, 16.413713530840301 ], [ -86.357177687035062, 16.417007384087032 ], [ -86.359245326504322, 16.416893046364748 ], [ -86.361961428604857, 16.415931789730308 ], [ -86.364250134237381, 16.414918776892186 ], [ -86.36641693911649, 16.414632812790718 ], [ -86.368385349594135, 16.412717702332323 ], [ -86.368393014549582, 16.4104899704102 ] ] ] ] } }
]
}
