{
"type": "FeatureCollection",
"name": "TMC",
"crs": { "type": "name", "properties": { "name": "urn:ogc:def:crs:OGC:1.3:CRS84" } },
"features": [
{ "type": "Feature", "properties": { "fid": 21, "id": 21, "etnia_id": 38, "etnia": "Maya Chorti" }, "geometry": { "type": "MultiPolygon", "coordinates": [ [ [ [ -88.795736440246401, 15.054138243616656 ], [ -88.778586554651483, 15.052579163108023 ], [ -88.7739093131256, 15.049461002090723 ], [ -88.773909313125586, 15.043224680056129 ], [ -88.781704715668738, 15.030752035986939 ], [ -88.783263796177366, 15.01983847242639 ], [ -88.783263796177351, 15.00268858683126 ], [ -88.783263796177337, 14.985538701236123 ], [ -88.787941037703234, 14.977743298692879 ], [ -88.80665000380678, 14.960593413097721 ], [ -88.825358969910297, 14.943443527502561 ], [ -88.84718609703107, 14.923175480890105 ], [ -88.867454143643215, 14.910702836820903 ], [ -88.889281270763959, 14.89511203173439 ], [ -88.907990236867434, 14.877962146139227 ], [ -88.925140122462281, 14.865489502070028 ], [ -88.926699202970894, 14.848339616474878 ], [ -88.922021961444997, 14.818717086810569 ], [ -88.940730927548472, 14.818717086810553 ], [ -88.950085410600209, 14.826512489353778 ], [ -88.964117135177801, 14.838985133422945 ], [ -88.978148859755365, 14.824953408845097 ], [ -89.006212308910477, 14.801567201215317 ], [ -89.038952999591416, 14.779740074094185 ], [ -89.06545736823783, 14.770385591042253 ], [ -89.090402656375645, 14.76726743002491 ], [ -89.10599346146175, 14.773503752059483 ], [ -89.12314334705647, 14.781299154602692 ], [ -89.144970474176972, 14.775062832568045 ], [ -89.16212035977162, 14.764149269007467 ], [ -89.168356681806031, 14.751676624938272 ], [ -89.180829325874896, 14.761031107990133 ], [ -89.20265645299537, 14.779740074093871 ], [ -89.222924499607231, 14.806244442740844 ], [ -89.23851530469328, 14.826512489353247 ], [ -89.240074385201908, 14.848339616474323 ], [ -89.218247258081504, 14.848339616474378 ], [ -89.210451855538466, 14.837426052913854 ], [ -89.199538291978243, 14.829630650370644 ], [ -89.180829325874996, 14.829630650370685 ], [ -89.15432495722871, 14.83898513342263 ], [ -89.126261508073782, 14.848339616474576 ], [ -89.104434380953251, 14.856135019017865 ], [ -89.081048173324092, 14.867048582578452 ], [ -89.063898287729344, 14.876403065630372 ], [ -89.040512080100129, 14.891993870716899 ], [ -89.018684952979527, 14.910702836820718 ], [ -88.99841690636751, 14.924734561398585 ], [ -88.979707940264078, 14.935648124959155 ], [ -88.956321732634777, 14.937207205467828 ], [ -88.92358104195371, 14.93876628597652 ], [ -88.895517592798512, 14.951238930045745 ], [ -88.878367707203637, 14.97306605716685 ], [ -88.861217821608776, 14.996452264796593 ], [ -88.850304258048382, 15.018279391917686 ], [ -88.830036211436237, 15.038547438530141 ], [ -88.795736440246401, 15.054138243616656 ] ] ] ] } },
{ "type": "Feature", "properties": { "fid": 22, "id": 22, "etnia_id": 38, "etnia": "Maya Chorti" }, "geometry": { "type": "MultiPolygon", "coordinates": [ [ [ [ -89.317990159078775, 14.506399757843742 ], [ -89.304325121795358, 14.50861570983577 ], [ -89.29656928982368, 14.506399757843809 ], [ -89.287705481856037, 14.498274600539879 ], [ -89.28290425254022, 14.489041467239931 ], [ -89.281426951212254, 14.481654960599986 ], [ -89.283642903204139, 14.469836549976035 ], [ -89.290290759179854, 14.461342067340064 ], [ -89.301001193807394, 14.455063536696066 ], [ -89.313188929762859, 14.448046355388072 ], [ -89.321314087066483, 14.439921198084084 ], [ -89.331655196362007, 14.435119968768085 ], [ -89.344950908313422, 14.433642667440047 ], [ -89.35676931893687, 14.433642667440008 ], [ -89.363786500244558, 14.436597270095973 ], [ -89.368218404228358, 14.448785006051892 ], [ -89.369326380224322, 14.45875679001583 ], [ -89.368218404228401, 14.464296669995806 ], [ -89.356769318936955, 14.469097899311818 ], [ -89.340888329661695, 14.47685373128383 ], [ -89.329808569702195, 14.483132261927823 ], [ -89.319098135074668, 14.488302816575837 ], [ -89.31725150841477, 14.49125741923182 ], [ -89.317990159078775, 14.506399757843742 ] ] ] ] } },
{ "type": "Feature", "properties": { "fid": 23, "id": 23, "etnia_id": 38, "etnia": "Maya Chorti" }, "geometry": { "type": "MultiPolygon", "coordinates": [ [ [ [ -89.18540236489585, 14.441398499412442 ], [ -89.166936098296503, 14.452847584704418 ], [ -89.152163085017023, 14.459864766012414 ], [ -89.142929951717321, 14.461342067340423 ], [ -89.13148086642569, 14.460234091344452 ], [ -89.124463685117888, 14.452108934040513 ], [ -89.119662455802043, 14.442875800740568 ], [ -89.116338527814122, 14.428102787460652 ], [ -89.115599877150146, 14.414437750176734 ], [ -89.117446503810072, 14.403727315548783 ], [ -89.121509082461941, 14.398187435568808 ], [ -89.127418287773736, 14.393016880920818 ], [ -89.134435469081495, 14.387846326272838 ], [ -89.139606023729328, 14.381937120960854 ], [ -89.144037927713171, 14.374181288988884 ], [ -89.144776578377133, 14.367533433012925 ], [ -89.144037927713157, 14.361254902368962 ], [ -89.142929951717164, 14.353499070397001 ], [ -89.142929951717164, 14.347959190417029 ], [ -89.149208482360947, 14.345004587761036 ], [ -89.159549591656614, 14.347220539753001 ], [ -89.166566772964359, 14.353129745064956 ], [ -89.17395327960412, 14.354976371724929 ], [ -89.187987642219625, 14.35645367305289 ], [ -89.199806052843201, 14.359777601040843 ], [ -89.210147162138838, 14.363470854360799 ], [ -89.218641644774536, 14.370118710336746 ], [ -89.224550850086317, 14.378243867640688 ], [ -89.225289500750307, 14.390062278264622 ], [ -89.224181524754357, 14.402250014220561 ], [ -89.219010970106581, 14.408897870196538 ], [ -89.213471090126788, 14.419977630156493 ], [ -89.205715258155095, 14.429210763456462 ], [ -89.202391330167231, 14.431796040780457 ], [ -89.18540236489585, 14.441398499412442 ] ] ] ] } }
]
}
