{
"type": "FeatureCollection",
"name": "TME",
"crs": { "type": "name", "properties": { "name": "urn:ogc:def:crs:OGC:1.3:CRS84" } },
"features": [
{ "type": "Feature", "properties": { "fid": 3, "id": 3, "etnia_id": 40, "etnia": "Multietnico/Multiethnic" }, "geometry": { "type": "MultiPolygon", "coordinates": [ [ [ [ -84.816772460263834, 15.951815629113211 ], [ -84.813491826690509, 15.949248200538888 ], [ -84.809745781126566, 15.946318726415464 ], [ -84.801170343784435, 15.927270763650281 ], [ -84.804664603836272, 15.916191955686882 ], [ -84.810821524566521, 15.909716730078884 ], [ -84.826492309830812, 15.896799117410671 ], [ -84.828514099937081, 15.893344966086906 ], [ -84.834083551889009, 15.88523384182934 ], [ -84.836730951855685, 15.87423526249853 ], [ -84.840621955297749, 15.865290540779908 ], [ -84.842407218210795, 15.856733311100252 ], [ -84.845413199633555, 15.851454673387851 ], [ -84.854698185174129, 15.85073087680405 ], [ -84.872360226078129, 15.856213618711317 ], [ -84.886283878723063, 15.855940869209865 ], [ -84.895553589089658, 15.85684873296819 ], [ -84.905212402606878, 15.861025818107052 ], [ -84.917434693557823, 15.862368546579654 ], [ -84.925003053469993, 15.864891160131238 ], [ -84.93756103630291, 15.874812232553859 ], [ -84.945922851607946, 15.881834037256141 ], [ -84.955139160080904, 15.88845523834928 ], [ -84.964324951856568, 15.897933902055133 ], [ -84.966369628487328, 15.904487458727665 ], [ -84.969085693946624, 15.909284642075749 ], [ -84.952316286270175, 15.912364807689787 ], [ -84.941474916634363, 15.913588648644934 ], [ -84.933074951671927, 15.919429822436442 ], [ -84.93075561460509, 15.928558293013062 ], [ -84.929100034314018, 15.93336102877227 ], [ -84.927619934669366, 15.935168250049573 ], [ -84.926544190932276, 15.937790032268547 ], [ -84.925628662238097, 15.940350469660739 ], [ -84.923919678419637, 15.944103280011928 ], [ -84.920394898148444, 15.946031679618548 ], [ -84.91389464999861, 15.945620618681509 ], [ -84.907058717610326, 15.940234177319288 ], [ -84.900604249624919, 15.937336910375464 ], [ -84.894775387690999, 15.934647586381653 ], [ -84.888343814620285, 15.92911910554999 ], [ -84.877716062176361, 15.92537022764086 ], [ -84.8622817987508, 15.920560706900707 ], [ -84.845443730564995, 15.910271674450964 ], [ -84.841018684682879, 15.913264382355351 ], [ -84.839286810142809, 15.916163506687425 ], [ -84.837898255077505, 15.91861143746077 ], [ -84.841781614463201, 15.920489257491694 ], [ -84.859962463087584, 15.928082372600308 ], [ -84.862632754439147, 15.929196435477495 ], [ -84.884170534710975, 15.937254847708708 ], [ -84.894348140027432, 15.942335247098859 ], [ -84.897354124323783, 15.943835147988604 ], [ -84.88589477383789, 15.966039537771705 ], [ -84.856178280780725, 15.964438396238918 ], [ -84.825920113045257, 15.950405077752528 ], [ -84.816772460263834, 15.951815629113211 ] ] ] ] } },
{ "type": "Feature", "properties": { "fid": 5, "id": 5, "etnia_id": 40, "etnia": "Multietnico/Multiethnic" }, "geometry": { "type": "MultiPolygon", "coordinates": [ [ [ [ -84.968612670970117, 15.422984170303767 ], [ -84.984428406270681, 15.414500279746298 ], [ -85.013236999492193, 15.405069404124808 ], [ -85.046966552790792, 15.402946499462606 ], [ -85.081993106938612, 15.395982738644573 ], [ -85.101844787201955, 15.409478200022068 ], [ -85.106651309681197, 15.430112798129162 ], [ -85.100257877926012, 15.447016760855698 ], [ -85.068756102977943, 15.477028897128756 ], [ -85.040527344961376, 15.498016387706008 ], [ -85.040946959635576, 15.503716464721501 ], [ -85.033531189424806, 15.524650533673213 ], [ -85.026138306700716, 15.543084147221137 ], [ -85.017738342247554, 15.55800820933969 ], [ -85.000228881894344, 15.578000948444799 ], [ -84.988349914709133, 15.592002885326533 ], [ -84.966148375649524, 15.605908331777201 ], [ -84.951950074895549, 15.617555632345324 ], [ -84.949104310108325, 15.619404839380026 ], [ -84.943305971322303, 15.634591091791332 ], [ -84.942352293771364, 15.637092643368282 ], [ -84.939414979232936, 15.6493539959418 ], [ -84.946823119861165, 15.66034692399395 ], [ -84.935485838175595, 15.666612672247847 ], [ -84.913314817053575, 15.675504618555454 ], [ -84.891181945453155, 15.680754672563515 ], [ -84.868980403984565, 15.692372320924726 ], [ -84.845474247499837, 15.694417891314513 ], [ -84.822425843806272, 15.693376588850045 ], [ -84.819648734988064, 15.693251551836404 ], [ -84.817283639137202, 15.692163394071144 ], [ -84.808303840542493, 15.688025522023008 ], [ -84.801795963472145, 15.685026140026919 ], [ -84.794403081577187, 15.681620630332565 ], [ -84.775367736409194, 15.660947784937473 ], [ -84.777915954636867, 15.642768801665191 ], [ -84.788040152434277, 15.618295684534372 ], [ -84.785415650577818, 15.600520135961869 ], [ -84.794456478108216, 15.588777530125029 ], [ -84.809600834102199, 15.578006705159043 ], [ -84.807411197693028, 15.562965442984058 ], [ -84.812286378638305, 15.546175012994166 ], [ -84.821563728622749, 15.544271450503716 ], [ -84.829216003106552, 15.542700818547551 ], [ -84.837852476882546, 15.542333613995174 ], [ -84.846595770604154, 15.541961639687734 ], [ -84.853721620374884, 15.5338383087698 ], [ -84.865066528857724, 15.526211754968086 ], [ -84.87457275676816, 15.514469134670561 ], [ -84.88543701165446, 15.50820164264387 ], [ -84.898414609779167, 15.524255699889659 ], [ -84.902931211611161, 15.541595386033256 ], [ -84.923187253457229, 15.534503980037259 ], [ -84.926063536700539, 15.52861403176893 ], [ -84.95121002171841, 15.50199412231667 ], [ -84.957603455869346, 15.491001093639902 ], [ -84.958847046481068, 15.488865879654888 ], [ -84.958969114738878, 15.476121908000536 ], [ -84.967872620695942, 15.469125737072751 ], [ -84.969848633594125, 15.467574095727318 ], [ -84.979660033872719, 15.467514949646356 ], [ -84.983520508088759, 15.467492037330045 ], [ -84.979698182171191, 15.462142864366205 ], [ -84.986457824250792, 15.450042717462162 ], [ -84.984374999726867, 15.436430938536809 ], [ -84.971183776642235, 15.427725791365413 ], [ -84.968612670970117, 15.422984170303767 ] ] ] ] } },
{ "type": "Feature", "properties": { "fid": 27, "id": 27, "etnia_id": 40, "etnia": "Multietnico/Multiethnic" }, "geometry": { "type": "MultiPolygon", "coordinates": [ [ [ [ -86.006661923509967, 15.902968500566597 ], [ -86.008949268884919, 15.902188287047688 ], [ -86.011360176191204, 15.901355785620535 ], [ -86.013542178085331, 15.90144717752154 ], [ -86.015724211176405, 15.901264249325944 ], [ -86.018531802833564, 15.90070442526175 ], [ -86.018547050250959, 15.896445124821593 ], [ -86.019859345208573, 15.88575551254757 ], [ -86.020088170668629, 15.876648810304314 ], [ -86.018386820450786, 15.873246226155176 ], [ -86.020194984162913, 15.868075495484984 ], [ -86.023643477805749, 15.867484201348114 ], [ -86.033653288399378, 15.867141640747851 ], [ -86.059257504444346, 15.868803945985988 ], [ -86.080856348636303, 15.871220473612839 ], [ -86.112426787257434, 15.881036646348901 ], [ -86.125473005047425, 15.887578019717509 ], [ -86.125297513614981, 15.89693916267983 ], [ -86.123870850044625, 15.900532584644662 ], [ -86.123062144584523, 15.902618438981289 ], [ -86.124473580058179, 15.904106956225316 ], [ -86.127037071674934, 15.904052788079399 ], [ -86.127113330881528, 15.901199293601833 ], [ -86.128883354230865, 15.899276646377134 ], [ -86.13103485174355, 15.89775953877138 ], [ -86.133575465396348, 15.896878290089521 ], [ -86.136238096044636, 15.896776193133048 ], [ -86.13837434553129, 15.897005146339559 ], [ -86.14051057992387, 15.8970070913704 ], [ -86.142715480181295, 15.895627026960629 ], [ -86.145301842918457, 15.894606565128266 ], [ -86.148063630426691, 15.892662006794204 ], [ -86.149902345897502, 15.891841945665959 ], [ -86.153106676406921, 15.890900692875718 ], [ -86.154991181709448, 15.890033598678745 ], [ -86.159317037953329, 15.888147468656083 ], [ -86.161972076283561, 15.88772208124138 ], [ -86.165000881450538, 15.887337780735095 ], [ -86.168617216418042, 15.887674382259044 ], [ -86.171081536835388, 15.88771428818035 ], [ -86.173179604348661, 15.887991827272691 ], [ -86.175605788827752, 15.888307591531028 ], [ -86.179527249043517, 15.887212599648267 ], [ -86.181114185950108, 15.885983578193338 ], [ -86.183418274662188, 15.885061336589928 ], [ -86.186820990824614, 15.884161901318226 ], [ -86.189300554175304, 15.882499681079421 ], [ -86.193115206352331, 15.880946258297309 ], [ -86.197250336298026, 15.880951783729238 ], [ -86.199897775400146, 15.880481766095652 ], [ -86.201911953489756, 15.87933532601123 ], [ -86.204696681669461, 15.878357020701152 ], [ -86.207000729419789, 15.877571963892388 ], [ -86.208335864134654, 15.875290853037409 ], [ -86.210395784313221, 15.874189424809339 ], [ -86.212417584917446, 15.873226181372855 ], [ -86.214721689674391, 15.872119992929434 ], [ -86.217498815018303, 15.870910638356396 ], [ -86.219497656949699, 15.87105366737379 ], [ -86.221672035637098, 15.870639787503809 ], [ -86.223464965543712, 15.867796750159993 ], [ -86.226196273512656, 15.866772564367956 ], [ -86.230194123627982, 15.862871284213638 ], [ -86.23149112258092, 15.861326121881847 ], [ -86.233535800778697, 15.859122290467122 ], [ -86.235351588589069, 15.857565902085149 ], [ -86.238151486119847, 15.85507012712754 ], [ -86.240943918818928, 15.852343567282448 ], [ -86.242507934146531, 15.850057580684039 ], [ -86.243934634100285, 15.848050034561288 ], [ -86.246330270802758, 15.846710236793641 ], [ -86.24877929019037, 15.845877596199594 ], [ -86.251998901213881, 15.845257696378916 ], [ -86.253562888839298, 15.842971769869823 ], [ -86.254524282504221, 15.841112108162964 ], [ -86.255950926413632, 15.839196151468283 ], [ -86.257324255934122, 15.83686833207442 ], [ -86.258667009213823, 15.835092519949731 ], [ -86.260246224959829, 15.833356889399614 ], [ -86.259572404968225, 15.808215791715321 ], [ -86.329782559748409, 15.862529307677407 ], [ -86.316383320255895, 15.863927712024017 ], [ -86.298866243053993, 15.8781127596058 ], [ -86.294235171734499, 15.887888010652771 ], [ -86.283172591852932, 15.894971937184806 ], [ -86.274879429970881, 15.90028371657335 ], [ -86.264724798964451, 15.911819553299473 ], [ -86.248130742823477, 15.921552642029873 ], [ -86.235229504154901, 15.929517820089718 ], [ -86.218643173429754, 15.935688090544602 ], [ -86.206672674198018, 15.939204160237388 ], [ -86.192855811833198, 15.944493340162056 ], [ -86.174453757029113, 15.947092912438478 ], [ -86.167091377069724, 15.947065425626169 ], [ -86.141281115629326, 15.960313810708424 ], [ -86.122879060705699, 15.962020002750611 ], [ -86.113678012646929, 15.961981756168154 ], [ -86.096679657204305, 15.958350994465405 ], [ -86.081970212216291, 15.955618784227362 ], [ -86.066345234567265, 15.953771487653613 ], [ -86.063327857429826, 15.954288591663898 ], [ -86.006661923509967, 15.902968500566597 ] ] ] ] } },
{ "type": "Feature", "properties": { "fid": 29, "id": 29, "etnia_id": 40, "etnia": "Multietnico/Multiethnic" }, "geometry": { "type": "MultiPolygon", "coordinates": [ [ [ [ -86.76855812020878, 15.795232711732789 ], [ -86.769676209032312, 15.794903785977747 ], [ -86.771469139440057, 15.796361916911538 ], [ -86.775184691867395, 15.795096313872847 ], [ -86.775978021764359, 15.797009520697006 ], [ -86.778404299769491, 15.79696846460917 ], [ -86.780975290893721, 15.795606641901593 ], [ -86.783355648234078, 15.793837544623235 ], [ -86.787735040945805, 15.792435696793001 ], [ -86.790405277062661, 15.789574552968039 ], [ -86.793212844610551, 15.788761114113417 ], [ -86.79540251364962, 15.787582319501054 ], [ -86.797981205993835, 15.78485771217667 ], [ -86.799598729883201, 15.78363227305244 ], [ -86.803657517687867, 15.780502243472359 ], [ -86.807510417626119, 15.778233496704225 ], [ -86.810081440233901, 15.777055658058858 ], [ -86.812599132097063, 15.776332774939634 ], [ -86.814941400702068, 15.774380725267946 ], [ -86.81698603357863, 15.773384977627243 ], [ -86.82156366370512, 15.769978573652102 ], [ -86.823654130974347, 15.76998428223135 ], [ -86.826080280044835, 15.769079222944496 ], [ -86.827796872887973, 15.767763054128574 ], [ -86.830360415656941, 15.766675864226128 ], [ -86.834068273192187, 15.76613705630189 ], [ -86.836112907949868, 15.765731849089464 ], [ -86.839584324013813, 15.765328406483375 ], [ -86.842765818559684, 15.765062367689712 ], [ -86.846900961796067, 15.764432897664214 ], [ -86.848945615380401, 15.764164019955096 ], [ -86.852889956048145, 15.763670934442285 ], [ -86.85612490956747, 15.763176839809857 ], [ -86.858924878410065, 15.762818301228821 ], [ -86.862731948452151, 15.762688653075804 ], [ -86.86628718688786, 15.762604719376109 ], [ -86.870903035627791, 15.762249975013148 ], [ -86.873985352729676, 15.761845623114695 ], [ -86.876365682906737, 15.761304827832607 ], [ -86.879455603345548, 15.761492744046162 ], [ -86.88211818879897, 15.760814584913025 ], [ -86.883262622376563, 15.758815816430623 ], [ -86.885635309899229, 15.759230557793853 ], [ -86.888488790481091, 15.758961731224886 ], [ -86.891197181071107, 15.758785217466251 ], [ -86.892585725908688, 15.757104804750934 ], [ -86.894912730109667, 15.756153084321499 ], [ -86.897956894815053, 15.754975365040657 ], [ -86.903900210306588, 15.753941478744347 ], [ -86.906516964488659, 15.753856672256708 ], [ -86.908844062634358, 15.754087371932508 ], [ -86.912780734197526, 15.754640526653477 ], [ -86.914962835265712, 15.75478173108892 ], [ -86.917388871244455, 15.754785474663299 ], [ -86.920234646546689, 15.754610087171816 ], [ -86.923233001217895, 15.754660610418929 ], [ -86.926361017254735, 15.754940056757725 ], [ -86.92845157859702, 15.755126000829414 ], [ -86.931823735301208, 15.755723875997447 ], [ -86.935951289190214, 15.756505042155695 ], [ -86.938133300441734, 15.75737474081188 ], [ -86.941314735378498, 15.757652238840222 ], [ -86.944480867488011, 15.758057545992534 ], [ -86.946670564363629, 15.75869939395233 ], [ -86.948181121363262, 15.754842793653784 ], [ -86.951255753033195, 15.751738554979152 ], [ -86.953330920971027, 15.749421117256604 ], [ -86.956268359053311, 15.748963384103885 ], [ -86.956268337962413, 15.744366589672488 ], [ -86.959121707352708, 15.740339314108958 ], [ -86.964912417468682, 15.736548375116348 ], [ -86.969398503197354, 15.737023393343778 ], [ -86.970047018871554, 15.740893293267238 ], [ -86.971885742576006, 15.745292600296944 ], [ -86.972938571007575, 15.747804651378518 ], [ -86.986274652867948, 15.748151821735236 ], [ -86.991668720848537, 15.743295655667106 ], [ -87.002853426942167, 15.739560072530795 ], [ -87.013267520824229, 15.74367047221015 ], [ -87.016189507366917, 15.743966999179511 ], [ -87.015441951285098, 15.739869164373182 ], [ -87.019142180097404, 15.741604733853912 ], [ -87.020744362398943, 15.743246086041678 ], [ -87.021759078334426, 15.751512578219847 ], [ -87.025611873895215, 15.761598596135176 ], [ -87.082893332462291, 15.766814149197879 ], [ -87.095626810640326, 15.768676722835059 ], [ -87.110282920786361, 15.772779472213383 ], [ -87.127639734546946, 15.771649413027255 ], [ -87.145393379637369, 15.777988411873922 ], [ -87.160049505676142, 15.783207932491651 ], [ -87.172782889811245, 15.783571162755932 ], [ -87.179534938391626, 15.782444878639206 ], [ -87.185317979060088, 15.783560766158347 ], [ -87.196121242682651, 15.78355209217912 ], [ -87.209236189750527, 15.7835397856387 ], [ -87.228141767618752, 15.786135606639949 ], [ -87.239715593934733, 15.785749358358899 ], [ -87.248199500875344, 15.786113678991867 ], [ -87.253997792282561, 15.790963223743963 ], [ -87.260177626410666, 15.797679897269827 ], [ -87.270599297330051, 15.803643278012675 ], [ -87.28256220461617, 15.808111110083244 ], [ -87.282188390683359, 15.814087882702323 ], [ -87.277374264506605, 15.817128222786737 ], [ -87.280204829544587, 15.818580575462349 ], [ -87.282478314778871, 15.819314001185456 ], [ -87.285560593315438, 15.820364890881979 ], [ -87.288497882044155, 15.82155411533469 ], [ -87.291442926467994, 15.822060536997281 ], [ -87.294158940304072, 15.820609964692398 ], [ -87.295097391300601, 15.823295607004138 ], [ -87.297271789975355, 15.824118624148822 ], [ -87.299461365304609, 15.824624059740993 ], [ -87.301567009707767, 15.824910110156749 ], [ -87.303771992891825, 15.825769359565497 ], [ -87.305999695751382, 15.826682984832431 ], [ -87.308799673519474, 15.827143657597153 ], [ -87.311363265226021, 15.827784478250102 ], [ -87.313636762363686, 15.828927081946299 ], [ -87.316200322142336, 15.829341835395304 ], [ -87.320671036537078, 15.82762146311083 ], [ -87.321899373748977, 15.829443976769944 ], [ -87.324035692682628, 15.830311772483208 ], [ -87.326362678813211, 15.830771422619407 ], [ -87.33053595895764, 15.83091544760785 ], [ -87.333152783642461, 15.830466232127108 ], [ -87.335060132729765, 15.829695671346137 ], [ -87.3370056665877, 15.828516883093547 ], [ -87.339851320497147, 15.829932269790602 ], [ -87.339218089670823, 15.833571363327197 ], [ -87.341873184810069, 15.834804550856632 ], [ -87.344764751548652, 15.835492063303031 ], [ -87.347183203536304, 15.836226386208939 ], [ -87.349082887259016, 15.836866358328473 ], [ -87.351119981352895, 15.83759877716717 ], [ -87.353256193177629, 15.838375042459832 ], [ -87.35595706659285, 15.839836122047595 ], [ -87.358039829054476, 15.840477023213886 ], [ -87.360603399230826, 15.840618075949227 ], [ -87.36076356987968, 15.840674196987022 ], [ -87.407010185048136, 15.892426361580281 ], [ -87.400093030053085, 15.89579007655392 ], [ -87.382629373729259, 15.902051862802484 ], [ -87.368835495264904, 15.902075881449015 ], [ -87.34675591728346, 15.897662117516207 ], [ -87.319152799041461, 15.888804497541985 ], [ -87.301673926363222, 15.88526902751919 ], [ -87.267639221087322, 15.876413298543135 ], [ -87.239120504249868, 15.867544996157061 ], [ -87.221183836130123, 15.864004166502029 ], [ -87.212905948493813, 15.863122877262338 ], [ -87.198188853940948, 15.856905937304319 ], [ -87.171516355536525, 15.849807692707166 ], [ -87.155883849149163, 15.848039557190136 ], [ -87.118186919048, 15.843613595311584 ], [ -87.082328732441482, 15.841849261420581 ], [ -87.065780632115661, 15.839184705023902 ], [ -87.041870071096369, 15.832070390332367 ], [ -87.014289904985489, 15.832963892414188 ], [ -86.996818494361506, 15.830294571733615 ], [ -86.977516108094875, 15.824952101261234 ], [ -86.958213815391971, 15.817829174851385 ], [ -86.937065142068747, 15.816043855063215 ], [ -86.920516914478966, 15.812478082738503 ], [ -86.908569352893849, 15.812473296961578 ], [ -86.883743346199168, 15.820471807590186 ], [ -86.854324397947266, 15.821344405060337 ], [ -86.83638759451236, 15.830232550519614 ], [ -86.826271027970591, 15.838234925047825 ], [ -86.809715209008544, 15.845341679095316 ], [ -86.807997233641672, 15.846503559195543 ], [ -86.76855812020878, 15.795232711732789 ] ] ] ] } },
{ "type": "Feature", "properties": { "fid": 30, "id": 31, "etnia_id": 40, "etnia": "Multietnico/Multiethnic" }, "geometry": { "type": "MultiPolygon", "coordinates": [ [ [ [ -87.864783605800284, 15.858854012587539 ], [ -87.881774825982504, 15.859336786548042 ], [ -87.887970067000566, 15.857660138370635 ], [ -87.891174227829509, 15.857748935251449 ], [ -87.893165714756293, 15.858969717145685 ], [ -87.895477314527511, 15.857705004090269 ], [ -87.896652206405903, 15.855723453601964 ], [ -87.898468068851656, 15.853259204212158 ], [ -87.897315996682238, 15.851370676500199 ], [ -87.894897320214014, 15.849981189551446 ], [ -87.895530697628303, 15.847801136035187 ], [ -87.898239151990182, 15.842500723353586 ], [ -87.90159613586799, 15.838130903558737 ], [ -87.904792850560895, 15.834229398877147 ], [ -87.906387305216796, 15.832511950948936 ], [ -87.909111149978031, 15.830944955144396 ], [ -87.913604682720461, 15.828903125031252 ], [ -87.917137160069672, 15.828266059341392 ], [ -87.920669595914092, 15.828407263545417 ], [ -87.921966642768297, 15.830423314629588 ], [ -87.924537663495016, 15.830723761895358 ], [ -87.92758936195041, 15.831022320117116 ], [ -87.929046707512256, 15.833193786302589 ], [ -87.930503834858015, 15.834897995755291 ], [ -87.930511364555855, 15.838164274362171 ], [ -87.92987822790505, 15.84018994931847 ], [ -87.928283555192408, 15.842373832064215 ], [ -87.926200741950822, 15.843938915016574 ], [ -87.924278326160177, 15.845346388688025 ], [ -87.921562238691749, 15.84738057451473 ], [ -87.91948697990334, 15.850344702203726 ], [ -87.92337802252419, 15.863569151555065 ], [ -87.928115873390553, 15.863614030882367 ], [ -87.931076121540215, 15.863601554166237 ], [ -87.931732222341537, 15.867038774623277 ], [ -87.933692839454551, 15.863834403988538 ], [ -87.945289664810105, 15.864425705269696 ], [ -87.954063417828124, 15.863905875612838 ], [ -87.958854560099525, 15.861480765407872 ], [ -87.963577393256543, 15.851856206056594 ], [ -87.964737022747769, 15.844946820184298 ], [ -87.962234493017903, 15.841752013547131 ], [ -87.956146095594562, 15.840459803022833 ], [ -87.948493838469233, 15.841011945373738 ], [ -87.94360340431686, 15.840514121555655 ], [ -87.93721765704565, 15.837695174333218 ], [ -87.934234645179544, 15.836746222545418 ], [ -87.932891953414668, 15.833065903159804 ], [ -87.933509738663034, 15.822965655473277 ], [ -87.936469963625342, 15.818625480291477 ], [ -87.941909770008579, 15.814595169934258 ], [ -87.952301083685157, 15.806696832779512 ], [ -87.958083968928804, 15.804427168736348 ], [ -87.962638857180622, 15.803525014548407 ], [ -87.962074356570312, 15.801386860041884 ], [ -87.963294933569586, 15.799697800010902 ], [ -87.966888428021875, 15.798309368956527 ], [ -87.969795351409317, 15.79892064244493 ], [ -87.968582071998725, 15.801109281961429 ], [ -87.976249718441522, 15.801822637499004 ], [ -87.979553095043514, 15.79821008450492 ], [ -87.982376072488663, 15.795343425220242 ], [ -87.990135323960502, 15.791782339692363 ], [ -87.996643049418992, 15.788048684478854 ], [ -88.000579738233355, 15.78665448069084 ], [ -88.009422194912645, 15.785848558897207 ], [ -88.019920345068726, 15.786105128277702 ], [ -88.028289936883667, 15.785531074180042 ], [ -88.035552897746129, 15.785093297775786 ], [ -88.045044032017714, 15.783190718201922 ], [ -88.049835127164187, 15.781725834863222 ], [ -88.049987690912417, 15.779320707314994 ], [ -88.047309856773637, 15.775486963859672 ], [ -88.047286910604825, 15.768595629561691 ], [ -88.049415614389645, 15.763937931276299 ], [ -88.052215722968612, 15.761360203419752 ], [ -88.055008054293111, 15.758461890907235 ], [ -88.058311518841791, 15.756522098132608 ], [ -88.061111324839757, 15.75458430639042 ], [ -88.065582349453734, 15.754082658481325 ], [ -88.068870423442604, 15.750540756551416 ], [ -88.074981674009294, 15.74874786002526 ], [ -88.078285201078884, 15.74776931280897 ], [ -88.079093806310468, 15.74440007945068 ], [ -88.078102024550901, 15.740598675303774 ], [ -88.077575826238004, 15.737516450577452 ], [ -88.077888521746772, 15.73430917468154 ], [ -88.083480925532868, 15.728992498062931 ], [ -88.086128308640738, 15.728178033163292 ], [ -88.091423067690002, 15.728471691547711 ], [ -88.096389898656724, 15.728446909429042 ], [ -88.099029454904596, 15.727312021796697 ], [ -88.10083775072394, 15.725219754830469 ], [ -88.102806045111166, 15.721684441647319 ], [ -88.104927129655636, 15.717024722630109 ], [ -88.106567379343005, 15.714292463179472 ], [ -88.107536405125941, 15.710280375905505 ], [ -88.105537456985687, 15.707245817702459 ], [ -88.102401704171371, 15.708864172510291 ], [ -88.099418756167395, 15.707596794904441 ], [ -88.100555431090243, 15.703584638382557 ], [ -88.103523138838952, 15.701165120124708 ], [ -88.106155340440353, 15.699068966749021 ], [ -88.107963584130516, 15.697457270151746 ], [ -88.109275782954924, 15.695046454685562 ], [ -88.114357049579198, 15.686366042933393 ], [ -88.118804963491741, 15.683298051098795 ], [ -88.12706754784017, 15.681652970724294 ], [ -88.135627840065197, 15.67937188720102 ], [ -88.134567218394324, 15.677540713349753 ], [ -88.133659506707104, 15.674962957284093 ], [ -88.133010948095006, 15.671569797623908 ], [ -88.132164044602831, 15.669658687286036 ], [ -88.131523211277326, 15.667514823267092 ], [ -88.131996113558017, 15.665192651290026 ], [ -88.132850674655842, 15.662996313840171 ], [ -88.130958467013372, 15.661853726528461 ], [ -88.131286544552239, 15.659753719545781 ], [ -88.133193895879117, 15.658369098389118 ], [ -88.138213978937969, 15.658343299444585 ], [ -88.142761327963058, 15.65703766499565 ], [ -88.149986235457916, 15.66485692009617 ], [ -88.15196219556924, 15.66676044276883 ], [ -88.154106051041765, 15.667584366995429 ], [ -88.155571050364642, 15.66960147939742 ], [ -88.157730080719219, 15.670648504377438 ], [ -88.159439022828337, 15.671911214596854 ], [ -88.161453284931767, 15.672041945587571 ], [ -88.163841104948219, 15.673323632702958 ], [ -88.165550143065573, 15.674891467090383 ], [ -88.167060758873163, 15.676955167173595 ], [ -88.167747594753862, 15.679022788095986 ], [ -88.167602452297587, 15.682722127264737 ], [ -88.177391051173686, 15.687638311805035 ], [ -88.18552389351126, 15.691921279987104 ], [ -88.19167318770657, 15.697176866474356 ], [ -88.197822437685574, 15.701790819276855 ], [ -88.201812828685576, 15.705615030726227 ], [ -88.205146895186942, 15.709923703669187 ], [ -88.208968983848962, 15.712467161279751 ], [ -88.212623613282332, 15.715010593736121 ], [ -88.213806023266585, 15.719982168992356 ], [ -88.213882401766696, 15.726138687677391 ], [ -88.214614949028871, 15.785100868301884 ], [ -88.189582903012365, 15.78042221564702 ], [ -88.168312175736773, 15.766820899147183 ], [ -88.165298339498563, 15.762822128083762 ], [ -88.162582531691214, 15.759649215167455 ], [ -88.159271279319384, 15.757155395115394 ], [ -88.147323507082561, 15.773394638872796 ], [ -88.126205512097997, 15.787220950829937 ], [ -88.122963043653215, 15.791829097720077 ], [ -88.11189264432501, 15.799071287074977 ], [ -88.10984038081962, 15.80087189060467 ], [ -88.108833383250371, 15.804219233292432 ], [ -88.094779840001863, 15.824818537457697 ], [ -88.093116842195442, 15.826442707647791 ], [ -88.071990912888822, 15.840265321306907 ], [ -88.06932053466781, 15.841285652163418 ], [ -88.063209399658234, 15.84346969035869 ], [ -88.055061392973172, 15.845811699823946 ], [ -88.050064164466704, 15.84691323274464 ], [ -88.035888632345504, 15.848487895889225 ], [ -88.030616661314994, 15.848513491259363 ], [ -88.025764503873347, 15.873012504033357 ], [ -88.018982078511215, 15.885117434738442 ], [ -88.005073659663054, 15.904947200547442 ], [ -87.999709980528692, 15.909639301738796 ], [ -87.991394037451926, 15.916139681503541 ], [ -87.975616570560135, 15.925260433768926 ], [ -87.956039442393788, 15.929946807296892 ], [ -87.9493714033337, 15.930515206570382 ], [ -87.943939183912633, 15.930758553114114 ], [ -87.9434890201955, 15.928379021776204 ], [ -87.91220240496412, 15.936221527012782 ], [ -87.864783605800284, 15.858854012587539 ] ] ] ] } },
{ "type": "Feature", "properties": { "fid": 32, "id": 37, "etnia_id": 40, "etnia": "Multietnico/Multiethnic" }, "geometry": { "type": "MultiPolygon", "coordinates": [ [ [ [ -87.848609140696851, 14.452115913421446 ], [ -87.840193914779903, 14.454057888633058 ], [ -87.817201851517311, 14.463637914992463 ], [ -87.801873809342254, 14.484713972983187 ], [ -87.778881746079676, 14.515370057333325 ], [ -87.761637698632725, 14.547942146955341 ], [ -87.750141667001415, 14.544110136411573 ], [ -87.734813624826359, 14.530698099508381 ], [ -87.715653572107513, 14.509622041517668 ], [ -87.69457751411683, 14.492377994070724 ], [ -87.669669445582329, 14.471301936080003 ], [ -87.648593387591632, 14.45022587808929 ], [ -87.631349340144681, 14.427233814826685 ], [ -87.61985330851337, 14.388913709389016 ], [ -87.612189287425835, 14.356341619766996 ], [ -87.631349340144681, 14.362089635582651 ], [ -87.660089419222928, 14.352509609223228 ], [ -87.677333466669864, 14.34676159340758 ], [ -87.698409524660576, 14.335265561776282 ], [ -87.708594972083972, 14.314894666929515 ], [ -87.761517927074877, 14.360600855330766 ], [ -87.826944007282535, 14.41239650216186 ], [ -87.848609140696851, 14.452115913421446 ] ] ] ] } },
{ "type": "Feature", "properties": { "fid": 33, "id": 38, "etnia_id": 40, "etnia": "Multietnico/Multiethnic" }, "geometry": { "type": "MultiPolygon", "coordinates": [ [ [ [ -88.042321382324701, 13.97346349205109 ], [ -88.042487996273806, 13.974757166964709 ], [ -88.04161829360406, 13.976619719954181 ], [ -88.043029772150717, 13.97819611920484 ], [ -88.045135465982696, 13.978042588650501 ], [ -88.047218287813322, 13.977714523414328 ], [ -88.049362279587598, 13.97834965622533 ], [ -88.051506119000095, 13.978737824864529 ], [ -88.053169205302282, 13.977278691583811 ], [ -88.055359001297305, 13.977048855511757 ], [ -88.057578996010903, 13.976704579135982 ], [ -88.059738213207922, 13.976387972745162 ], [ -88.0613630820785, 13.977875705643491 ], [ -88.062934950498189, 13.979268066121477 ], [ -88.064292792834451, 13.980891226099011 ], [ -88.066299431905279, 13.981604559851725 ], [ -88.067097373107089, 13.983267161526765 ], [ -88.091190605396335, 13.986552602293481 ], [ -88.127594705562046, 13.975056570662177 ], [ -88.175494837359025, 13.978888581205943 ], [ -88.211898937524722, 13.98655260229347 ], [ -88.222502016306493, 13.985227217445745 ], [ -88.249487441956532, 14.066183494396123 ], [ -88.219500488528112, 14.131609574603816 ], [ -88.118635281541472, 14.137061747954471 ], [ -88.05048311465859, 14.101622621175306 ], [ -88.034126594606676, 14.03074436761697 ], [ -88.036852681281999, 13.984400894136519 ], [ -88.042321382324701, 13.97346349205109 ] ] ] ] } },
{ "type": "Feature", "properties": { "fid": 35, "id": 33, "etnia_id": 40, "etnia": "Multietnico/Multiethnic" }, "geometry": { "type": "MultiPolygon", "coordinates": [ [ [ [ -85.31462107210649, 14.864555360100912 ], [ -85.314865122596089, 14.86759085390193 ], [ -85.315574644296078, 14.87497331959475 ], [ -85.315696721123246, 14.885911018854062 ], [ -85.315841662276867, 14.892004055604799 ], [ -85.317062384047958, 14.893968500454292 ], [ -85.318542464486484, 14.892339715044475 ], [ -85.319694527843424, 14.890440006307335 ], [ -85.321151730350167, 14.888385771052114 ], [ -85.323120133503679, 14.887436896443104 ], [ -85.325332641911203, 14.887101122701623 ], [ -85.327545172525134, 14.885937635819431 ], [ -85.32934569834913, 14.884884877011608 ], [ -85.330032349607151, 14.882933555400504 ], [ -85.332519541257142, 14.882777143652049 ], [ -85.334281934586116, 14.883805248992651 ], [ -85.336662307583737, 14.883942595573007 ], [ -85.33881379287844, 14.883389469281497 ], [ -85.340980523964831, 14.883586812143895 ], [ -85.342857367581885, 14.885398844400477 ], [ -85.344810493428895, 14.884923851259918 ], [ -85.346847534976902, 14.886384916333727 ], [ -85.349166876171523, 14.885712559608072 ], [ -85.351104723700857, 14.88633816536737 ], [ -85.353111282511648, 14.886949559887215 ], [ -85.355140697595672, 14.887172615495727 ], [ -85.357429492419513, 14.886276292687203 ], [ -85.359664914622456, 14.886968658368041 ], [ -85.360435487593193, 14.885043160156863 ], [ -85.362632733702512, 14.884192422225633 ], [ -85.363220229102595, 14.881903575815713 ], [ -85.364616394392229, 14.88039784316055 ], [ -85.365425093956034, 14.878275793766884 ], [ -85.365852370344456, 14.876181555813986 ], [ -85.368026737642253, 14.874712950916793 ], [ -85.369941703032254, 14.873973869445157 ], [ -85.369529723410778, 14.871932014029802 ], [ -85.372688300134129, 14.871378831661028 ], [ -85.374389636750593, 14.870259250857371 ], [ -85.376914963334372, 14.86932471318822 ], [ -85.375907909138149, 14.867523166492981 ], [ -85.374809261985362, 14.863742874350459 ], [ -85.377418524248398, 14.861943166330665 ], [ -85.379669197727139, 14.861953657980402 ], [ -85.38163756819516, 14.861327189183619 ], [ -85.383102428700667, 14.863615071257234 ], [ -85.385452270222444, 14.862540183854257 ], [ -85.388000492977156, 14.861973764400616 ], [ -85.389030458958743, 14.86389732446165 ], [ -85.390159624772849, 14.866108854260782 ], [ -85.391098014755528, 14.868067773153687 ], [ -85.39228057084901, 14.869718524340968 ], [ -85.394485466959139, 14.869594588063119 ], [ -85.395561214783129, 14.867808258003476 ], [ -85.397598269009819, 14.869063381609221 ], [ -85.399971007811857, 14.870076200730663 ], [ -85.402091997001747, 14.871456191996687 ], [ -85.403953544964523, 14.870097090049876 ], [ -85.403617866662643, 14.867858828686904 ], [ -85.403961173930057, 14.865638754385092 ], [ -85.405677784160218, 14.864124276684089 ], [ -85.407852167266824, 14.864028007138707 ], [ -85.410018936019668, 14.865061804479581 ], [ -85.412292496956127, 14.865777933892883 ], [ -85.414253252615751, 14.866896576819139 ], [ -85.416580203929811, 14.866676279348788 ], [ -85.418769854279645, 14.866970976528071 ], [ -85.421607989237884, 14.86824040732626 ], [ -85.423683154917143, 14.86782644472806 ], [ -85.426696769618459, 14.868359600614969 ], [ -85.428482067526659, 14.869330436815769 ], [ -85.43047333420165, 14.869995099791016 ], [ -85.430686959591711, 14.872138915739086 ], [ -85.429801929098289, 14.874971315847619 ], [ -85.430885330963832, 14.877060895105149 ], [ -85.431411759542144, 14.879280989225258 ], [ -85.433937081145061, 14.880002031421995 ], [ -85.435714706557349, 14.881651931541759 ], [ -85.437187204032583, 14.883019483759202 ], [ -85.438415520918213, 14.885142251327681 ], [ -85.437362668835533, 14.886984788493331 ], [ -85.439338694452928, 14.88829414306106 ], [ -85.441352850066551, 14.888972318809815 ], [ -85.443893415225446, 14.888402878313732 ], [ -85.445121763032674, 14.890526731633274 ], [ -85.447067278225816, 14.891711155986989 ], [ -85.448966972190718, 14.892588635308718 ], [ -85.450813276172227, 14.894145033644989 ], [ -85.453498855818907, 14.89424795697772 ], [ -85.453834531306455, 14.896318388525959 ], [ -85.457580560692435, 14.895025224837834 ], [ -85.459465018267721, 14.89618586390201 ], [ -85.461540229090758, 14.896057162240755 ], [ -85.463523847203987, 14.897365576192387 ], [ -85.465835575439428, 14.897495190480441 ], [ -85.467704770718214, 14.896779020849975 ], [ -85.469947812431641, 14.896848601542919 ], [ -85.471946728846447, 14.896657997072245 ], [ -85.473953259207761, 14.897167168275784 ], [ -85.475929244567936, 14.898142833786995 ], [ -85.477920521422718, 14.89865679021004 ], [ -85.479515071696753, 14.900130258391702 ], [ -85.481765761663652, 14.901396800223399 ], [ -85.483993539534708, 14.902088198575566 ], [ -85.485992432398604, 14.903752263903735 ], [ -85.487342846650904, 14.90568631965238 ], [ -85.489334094081684, 14.906099334281045 ], [ -85.492607110546274, 14.920160271958446 ], [ -85.493492109199906, 14.928827325551589 ], [ -85.494117725962013, 14.935521997855838 ], [ -85.472068777714682, 14.976667456648416 ], [ -85.473625172891175, 14.981839107890723 ], [ -85.479629508259791, 14.999617570324228 ], [ -85.483428960952367, 15.013009127370029 ], [ -85.484802242708071, 15.015867209939609 ], [ -85.483512874659752, 15.017407345315515 ], [ -85.481719974752821, 15.018376383591718 ], [ -85.479927073789057, 15.017432233054928 ], [ -85.477912904035435, 15.016874281595724 ], [ -85.475807182039304, 15.017058401342354 ], [ -85.473709104893487, 15.01789086525336 ], [ -85.471641546041241, 15.017775458947289 ], [ -85.469680792298149, 15.016738918445302 ], [ -85.467582717565975, 15.016540449203742 ], [ -85.465827942952131, 15.017807977222636 ], [ -85.46362305192568, 15.01811978224819 ], [ -85.461334217302038, 15.017904333021917 ], [ -85.459197995361464, 15.017832751674881 ], [ -85.457580574756946, 15.016607238561136 ], [ -85.455711350753134, 15.015236897649226 ], [ -85.453186024184589, 15.015731777237653 ], [ -85.451065049021594, 15.016571959187331 ], [ -85.447784414023346, 15.016914395651266 ], [ -85.445480330850515, 15.016674026759862 ], [ -85.443504318535929, 15.016332561255645 ], [ -85.441627503675249, 15.015368410746191 ], [ -85.439598095151453, 15.012632344048388 ], [ -85.438438411191271, 15.010947230952453 ], [ -85.43705748040577, 15.00924396113032 ], [ -85.435012825284858, 15.009815134332726 ], [ -85.433013918159602, 15.009735140889816 ], [ -85.431930535602561, 15.008032801905783 ], [ -85.431724563108105, 15.006016657228901 ], [ -85.429656975362377, 15.005801148392107 ], [ -85.427535993377091, 15.006073982837309 ], [ -85.425369277505922, 15.006020581172892 ], [ -85.423225408433183, 15.005723900343915 ], [ -85.421073900998209, 15.005517907891287 ], [ -85.418899524420311, 15.006152131623008 ], [ -85.41722869356505, 15.007501642261374 ], [ -85.415283220247105, 15.008526762791389 ], [ -85.413642878142568, 15.010098417791895 ], [ -85.411529551876669, 15.009369780624192 ], [ -85.410621635453779, 15.007442525479957 ], [ -85.408889784123488, 15.006142647044591 ], [ -85.406944280346877, 15.005031580756095 ], [ -85.405601489585365, 15.003438028851278 ], [ -85.40481568666452, 15.001429543665942 ], [ -85.402839672283747, 15.000717186771659 ], [ -85.400741594244693, 15.000754393560529 ], [ -85.39859007735113, 15.000674224780379 ], [ -85.396537785061128, 15.001091973337267 ], [ -85.396255504062509, 15.003160435795609 ], [ -85.394317615441366, 15.002456665525926 ], [ -85.392608639187131, 15.001311248245882 ], [ -85.388427742035759, 15.001123475153037 ], [ -85.386062634013825, 15.000546428968866 ], [ -85.384475697605154, 14.999112172364883 ], [ -85.385200494492011, 14.99724391403257 ], [ -85.383422869459196, 14.995677882515873 ], [ -85.381172198428615, 14.996183430694636 ], [ -85.379463190065579, 14.997222897270792 ], [ -85.37734220960786, 14.997484123167462 ], [ -85.375221257359897, 14.997164683766872 ], [ -85.373260485767602, 14.996403729750279 ], [ -85.371635444049659, 14.995138158704078 ], [ -85.371101366574734, 14.993127855813206 ], [ -85.370902999325466, 14.991011643898199 ], [ -85.37055968509425, 14.988912573920855 ], [ -85.369926445132634, 14.986828776818651 ], [ -85.368179318844497, 14.988066653666147 ], [ -85.366180435025129, 14.987804381199439 ], [ -85.364883426176803, 14.986197399780549 ], [ -85.362823498673819, 14.985526083499032 ], [ -85.360885616778802, 14.986534099746825 ], [ -85.358848571591821, 14.987032874051126 ], [ -85.357002245161453, 14.985794028267218 ], [ -85.355644230379781, 14.987315230871028 ], [ -85.354789739723998, 14.989145300009746 ], [ -85.352676383625251, 14.98891632556076 ], [ -85.350646984279877, 14.988200203905405 ], [ -85.348670976779943, 14.98758509491212 ], [ -85.347045881703309, 14.988833454418028 ], [ -85.345298756176845, 14.9899901710076 ], [ -85.344200143566084, 14.988113348020603 ], [ -85.342544552389882, 14.986747757678325 ], [ -85.340324391551349, 14.986655155297631 ], [ -85.338363648670537, 14.987122498338064 ], [ -85.336235047957089, 14.987011828162652 ], [ -85.334175114498436, 14.98722550802492 ], [ -85.33271791016449, 14.985735892676839 ], [ -85.331253049287483, 14.983865752894031 ], [ -85.328147885132751, 14.984102212606132 ], [ -85.327026359849128, 14.985814134926541 ], [ -85.324905413595403, 14.986156397212541 ], [ -85.322914136326546, 14.985403065085707 ], [ -85.321807858970203, 14.987186479646054 ], [ -85.319740304171404, 14.987709018412907 ], [ -85.317840570273574, 14.986803973738608 ], [ -85.315811146052454, 14.986168789700201 ], [ -85.313812254204208, 14.986465422467472 ], [ -85.311706551176215, 14.986743880369303 ], [ -85.309165969636368, 14.987552594736988 ], [ -85.308624274275587, 14.990773171703344 ], [ -85.308685308766229, 14.992785416791593 ], [ -85.307876575530429, 14.994651711619378 ], [ -85.305870047229504, 14.994823506026497 ], [ -85.304344175930481, 14.993466323370502 ], [ -85.303115836485787, 14.99511531500576 ], [ -85.303092960649522, 14.997176120183747 ], [ -85.302642829919634, 14.999132171255589 ], [ -85.3005065942546, 15.000411021842615 ], [ -85.298538213144994, 15.001125316415008 ], [ -85.296844490782959, 15.002726594658661 ], [ -85.297798161913363, 15.004556663399207 ], [ -85.296974180012484, 15.006468701232476 ], [ -85.29506684158946, 15.007257380152712 ], [ -85.292701723396164, 15.007330812138955 ], [ -85.29030608682271, 15.008078553359933 ], [ -85.28802490992318, 15.00858121520289 ], [ -85.285995482989932, 15.007887879440741 ], [ -85.283531192650926, 15.007734323553914 ], [ -85.2817459098125, 15.008972117984722 ], [ -85.279823299532907, 15.00975899373411 ], [ -85.27778625221633, 15.01022053884142 ], [ -85.275695800660259, 15.010383572535343 ], [ -85.273864742776766, 15.009272597301301 ], [ -85.272422792301555, 15.007758069654184 ], [ -85.270668035689312, 15.008842513496186 ], [ -85.269889835185296, 15.011208567498688 ], [ -85.268074034396378, 15.012311935220341 ], [ -85.266456601227716, 15.011076004254036 ], [ -85.265121452485118, 15.009524262072349 ], [ -85.263771060678891, 15.00730316433841 ], [ -85.261383051887464, 15.004820783594939 ], [ -85.258560184689486, 15.00438303778717 ], [ -85.25569916556681, 15.006527843124271 ], [ -85.255012511748532, 15.008497162504442 ], [ -85.254364020853984, 15.010662046976863 ], [ -85.253494256909377, 15.012494120382131 ], [ -85.251777649965902, 15.013660471462781 ], [ -85.249999997250342, 15.015172052045456 ], [ -85.247932427480364, 15.015718415710404 ], [ -85.245910636671894, 15.016437506734972 ], [ -85.243812566043601, 15.016684461634519 ], [ -85.241752621860684, 15.016587308082757 ], [ -85.2398605259568, 15.015871991549027 ], [ -85.238166808520276, 15.0145167956507 ], [ -85.236961357656696, 15.012717165188956 ], [ -85.235321038989952, 15.011357241102296 ], [ -85.233932491710007, 15.012799269503898 ], [ -85.232414243781989, 15.014146788273175 ], [ -85.230361942371189, 15.01447200906453 ], [ -85.228515627674327, 15.013422921106738 ], [ -85.226028440993161, 15.012804993039879 ], [ -85.22389222102322, 15.013343737737289 ], [ -85.223152159969118, 15.015419897235946 ], [ -85.222030640314131, 15.017209990528047 ], [ -85.219963069007107, 15.01784326454184 ], [ -85.217887870531797, 15.017580991554702 ], [ -85.215362548065286, 15.018441128812652 ], [ -85.213211064883509, 15.020554539259001 ], [ -85.211715689861734, 15.021982162641669 ], [ -85.209938053290642, 15.022957841372881 ], [ -85.207366951386106, 15.023452758391304 ], [ -85.205963142947425, 15.02495475386495 ], [ -85.204193121136882, 15.025985723987581 ], [ -85.202201842820543, 15.026654247607382 ], [ -85.199897763828289, 15.027898746968473 ], [ -85.198234557732874, 15.029174754690066 ], [ -85.195243832091961, 15.029799469607642 ], [ -85.192993163461495, 15.030380261945565 ], [ -85.190093989696919, 15.03190331531602 ], [ -85.188171394801472, 15.032726281725244 ], [ -85.186073297492328, 15.032236994786512 ], [ -85.18515777777796, 15.030329674388701 ], [ -85.184715270450269, 15.028232537556084 ], [ -85.182876590897351, 15.027003225623153 ], [ -85.18074799252382, 15.025361084198751 ], [ -85.178817748791133, 15.024795541085002 ], [ -85.177009586067044, 15.02388386548315 ], [ -85.17528533509028, 15.022663128261582 ], [ -85.173240655414929, 15.020546953902333 ], [ -85.171150198605417, 15.021124863327156 ], [ -85.169395440532853, 15.022352140580686 ], [ -85.167884821057754, 15.02389904075957 ], [ -85.165962219642623, 15.025136979989059 ], [ -85.16339111127995, 15.025401127519562 ], [ -85.161437985150258, 15.02594856345549 ], [ -85.15937804752491, 15.027056700239363 ], [ -85.157814026464067, 15.028767633754166 ], [ -85.156196601772152, 15.030412685013044 ], [ -85.15428161652568, 15.031441664807121 ], [ -85.152303545259713, 15.032031435791422 ], [ -85.143203531449856, 15.021325537191407 ], [ -85.133387758140344, 15.0088327347973 ], [ -85.116433240605772, 14.979385414868355 ], [ -85.121787298774606, 14.963323240361678 ], [ -85.136064787224811, 14.941907007686105 ], [ -85.192282397997474, 14.899966885363137 ], [ -85.244930636657671, 14.87230425149054 ], [ -85.291332474120935, 14.866057850293529 ], [ -85.31462107210649, 14.864555360100912 ] ] ] ] } },
{ "type": "Feature", "properties": { "fid": 36, "id": 34, "etnia_id": 40, "etnia": "Multietnico/Multiethnic" }, "geometry": { "type": "MultiPolygon", "coordinates": [ [ [ [ -88.883844392873229, 14.173425168818467 ], [ -88.886332793222181, 14.178153129481515 ], [ -88.922736893387352, 14.199229187472195 ], [ -88.966805014639846, 14.204977203287791 ], [ -88.985965067358308, 14.2241372560066 ], [ -88.945728956649646, 14.365921646126026 ], [ -88.920820888115628, 14.36208963558229 ], [ -88.895912819581568, 14.365921646126083 ], [ -88.87292075631936, 14.381249688301169 ], [ -88.853760703600827, 14.402325746291915 ], [ -88.853760703600841, 14.425317809554512 ], [ -88.859508719416411, 14.444477862273345 ], [ -88.872920756319417, 14.463637914992161 ], [ -88.874836761591283, 14.488545983526642 ], [ -88.857259408442488, 14.488545983526661 ], [ -88.857818708393964, 14.490442285739297 ], [ -88.858909731678182, 14.493055318418838 ], [ -88.857215998088776, 14.494430496950541 ], [ -88.854728828011034, 14.496795613408416 ], [ -88.85145555954081, 14.499597555897568 ], [ -88.85039511588765, 14.497856146980094 ], [ -88.849380595219898, 14.495848649409906 ], [ -88.846366934446436, 14.494695616070704 ], [ -88.843574514086882, 14.495163931464836 ], [ -88.841201715749833, 14.496374138501452 ], [ -88.838493487832864, 14.497556655130845 ], [ -88.835250867990851, 14.497970536976895 ], [ -88.832115268162028, 14.498465551153922 ], [ -88.829940754313299, 14.499291373417647 ], [ -88.82796482287462, 14.499759679815316 ], [ -88.827285808930384, 14.501987414393145 ], [ -88.828269959701259, 14.503966302518752 ], [ -88.830040029682337, 14.506138777373335 ], [ -88.831107988473718, 14.508119568584769 ], [ -88.832397390342308, 14.510126072777084 ], [ -88.831603956108566, 14.511968602222494 ], [ -88.830215310574729, 14.514526330168604 ], [ -88.828918426778174, 14.516673051840213 ], [ -88.829307565936887, 14.519201231723356 ], [ -88.830543434047755, 14.521594043683006 ], [ -88.832595929333849, 14.524123190342697 ], [ -88.833465559551996, 14.526845901257705 ], [ -88.834243696292873, 14.529540971694606 ], [ -88.834884661146333, 14.531988163750258 ], [ -88.83383953410501, 14.533995609138513 ], [ -88.83061978224967, 14.535123817999169 ], [ -88.828277492451249, 14.536252036417743 ], [ -88.825492971605129, 14.535454745073665 ], [ -88.823600793596583, 14.534438100633277 ], [ -88.821198092546283, 14.533529198966786 ], [ -88.811061297068534, 14.518713882499112 ], [ -88.794704777016804, 14.505083449122521 ], [ -88.767443910263935, 14.483274755719979 ], [ -88.74836130353691, 14.445109542265506 ], [ -88.74290913018632, 14.396039982109738 ], [ -88.745635216861572, 14.338792161928005 ], [ -88.786526516990833, 14.270639995044963 ], [ -88.830143903795332, 14.221570434889154 ], [ -88.883844392873229, 14.173425168818467 ] ] ] ] } },
{ "type": "Feature", "properties": { "fid": 37, "id": 35, "etnia_id": 40, "etnia": "Multietnico/Multiethnic" }, "geometry": { "type": "MultiPolygon", "coordinates": [ [ [ [ -88.739877128762885, 14.709614738692904 ], [ -88.727943347896812, 14.70584299570327 ], [ -88.712402448288614, 14.712030353447625 ], [ -88.685905576095436, 14.713742202370856 ], [ -88.681297401160563, 14.72288326668502 ], [ -88.675048950962619, 14.72141072491161 ], [ -88.667251704958858, 14.721467024700454 ], [ -88.659431356889982, 14.718486812993614 ], [ -88.653205911747335, 14.720049889962812 ], [ -88.656402579221194, 14.730651848608252 ], [ -88.662742562543542, 14.744267397174569 ], [ -88.662803620086606, 14.751856794281981 ], [ -88.666000407861318, 14.762458781726128 ], [ -88.671285756981348, 14.776273775098666 ], [ -88.672370828695421, 14.779109965896701 ], [ -88.675449080517112, 14.779941483190349 ], [ -88.683311472678326, 14.782065323418568 ], [ -88.682531110722621, 14.78601179479511 ], [ -88.681808506729212, 14.789666170762112 ], [ -88.681105624664298, 14.794344414155864 ], [ -88.66657870327829, 14.78587037668062 ], [ -88.636591749850027, 14.76133559660275 ], [ -88.590248276369948, 14.747705163226172 ], [ -88.541178716214532, 14.75860950992748 ], [ -88.494835242734382, 14.758609509927496 ], [ -88.448491769254204, 14.739526903200263 ], [ -88.396696122423364, 14.706813863096428 ], [ -88.363983082319649, 14.679552996343228 ], [ -88.33456392172603, 14.666180650618807 ], [ -88.334724353730564, 14.665934578568322 ], [ -88.338804435776666, 14.661913804548012 ], [ -88.345756606658512, 14.655062690342346 ], [ -88.338928166029845, 14.656918512813572 ], [ -88.328814401681271, 14.661913804548016 ], [ -88.32664856057437, 14.662983535639869 ], [ -88.324203399034559, 14.664191225952621 ], [ -88.30655656407481, 14.675791694754199 ], [ -88.291517977772813, 14.678461893772049 ], [ -88.277043116768624, 14.697390558162219 ], [ -88.238723011331061, 14.741458679415544 ], [ -88.229142984971674, 14.766366747950029 ], [ -88.215730948068526, 14.762534737406265 ], [ -88.175494837359082, 14.752954711046856 ], [ -88.144838753009012, 14.760618732134393 ], [ -88.144838753009012, 14.756786721590617 ], [ -88.133342721377716, 14.735710663599908 ], [ -88.129510710833969, 14.720382621424834 ], [ -88.125157803167227, 14.71222091954971 ], [ -88.113273547244304, 14.708428403925957 ], [ -88.096977146228454, 14.698442401681664 ], [ -88.059781943521742, 14.68295676600234 ], [ -88.051959618222028, 14.685384384198802 ], [ -88.053209201333914, 14.679552996343263 ], [ -88.080470068087081, 14.608674742784924 ], [ -88.132265714918091, 14.565057355979794 ], [ -88.254939615307208, 14.510535622473373 ], [ -88.396696122423322, 14.486000842395462 ], [ -88.582070016343991, 14.518713882499252 ], [ -88.63659174984997, 14.581413876031602 ], [ -88.704743916732355, 14.652292129589886 ], [ -88.739877128762885, 14.709614738692904 ] ] ] ] } },
{ "type": "Feature", "properties": { "fid": 38, "id": 36, "etnia_id": 40, "etnia": "Multietnico/Multiethnic" }, "geometry": { "type": "MultiPolygon", "coordinates": [ [ [ [ -88.525969735998743, 13.977386942578601 ], [ -88.572107928636981, 13.980804586477742 ], [ -88.583603960268178, 13.986552602293385 ], [ -88.598932002443121, 13.998048633924679 ], [ -88.621924065705542, 14.007628660284086 ], [ -88.643000123696041, 14.019124691915376 ], [ -88.669824197502152, 14.013376676099709 ], [ -88.688984250220798, 14.01529268137158 ], [ -88.710060308211268, 14.028704718274751 ], [ -88.738800387289189, 14.038284744634154 ], [ -88.752212424192209, 14.055528792081093 ], [ -88.748380413648519, 14.074688844799931 ], [ -88.757799752854112, 14.112366201622725 ], [ -88.72655261013449, 14.16704870138282 ], [ -88.639317836525137, 14.177953048084154 ], [ -88.552083062915585, 14.137061747954384 ], [ -88.513917849461379, 14.07436175442203 ], [ -88.511191762786055, 14.036196540967538 ], [ -88.519370022811955, 13.989853067487088 ], [ -88.525969735998743, 13.977386942578601 ] ] ] ] } },
{ "type": "Feature", "properties": { "fid": 40, "id": 40, "etnia_id": 40, "etnia": "Multietnico/Multiethnic" }, "geometry": { "type": "MultiPolygon", "coordinates": [ [ [ [ -87.538087863165657, 14.25024886671379 ], [ -87.524348386322032, 14.243379128291984 ], [ -87.475278826166274, 14.224296521564739 ], [ -87.475278826166274, 14.18340522143493 ], [ -87.480730999516908, 14.153418268006407 ], [ -87.472552739490951, 14.101622621175311 ], [ -87.448017959413065, 14.058005234370185 ], [ -87.423483179335179, 14.041648714318262 ], [ -87.422529319206163, 14.041607242138738 ], [ -87.410530105077527, 14.031878453309348 ], [ -87.393020594022744, 14.020524006815565 ], [ -87.379882877551537, 14.00631714021339 ], [ -87.34635160219824, 13.990715957999642 ], [ -87.339050281948275, 13.97934435109377 ], [ -87.30551149961606, 13.959468839507808 ], [ -87.263252270374451, 13.949558261834275 ], [ -87.239921530481325, 13.92823980492631 ], [ -87.247199976093242, 13.922541589612431 ], [ -87.253013614743111, 13.908307060981075 ], [ -87.269996654226503, 13.889599789794 ], [ -87.265892038614993, 13.886599532597728 ], [ -87.267486589091092, 13.883480070860285 ], [ -87.272262601636882, 13.877239201365535 ], [ -87.275444074340854, 13.871000275505354 ], [ -87.277030915291519, 13.858527160867814 ], [ -87.281799354093067, 13.849167822393451 ], [ -87.288185128199402, 13.849161148421341 ], [ -87.294563311510785, 13.847594262697234 ], [ -87.304130624875341, 13.841346719082134 ], [ -87.31369022125115, 13.833539955790982 ], [ -87.316871664230675, 13.827301008985108 ], [ -87.32006075966784, 13.82885646660139 ], [ -87.33122248882475, 13.822605136360037 ], [ -87.332809472457072, 13.819484713295251 ], [ -87.340789779451072, 13.819474206654114 ], [ -87.345581042811773, 13.824144361628361 ], [ -87.347190903215392, 13.833495122833341 ], [ -87.347198455773068, 13.838171955381883 ], [ -87.345611529819365, 13.844409927891352 ], [ -87.351989753777175, 13.844400378964702 ], [ -87.358360236065522, 13.838155717712366 ], [ -87.364738433321463, 13.835028649575554 ], [ -87.367500317615651, 13.834288588172839 ], [ -87.373077343252689, 13.804482431587683 ], [ -87.372474660788725, 13.802122118877232 ], [ -87.371955851230283, 13.800039277930592 ], [ -87.372772212054414, 13.797159175371885 ], [ -87.374687143559044, 13.796006200878457 ], [ -87.37826541460818, 13.794247627300905 ], [ -87.380866960327069, 13.793571472181734 ], [ -87.380889958442239, 13.790672305153576 ], [ -87.379692142863377, 13.787787408090249 ], [ -87.378929184815732, 13.785749427281994 ], [ -87.377807621936796, 13.783193578292082 ], [ -87.377685593799342, 13.780475610212319 ], [ -87.377685518208878, 13.778312670392239 ], [ -87.378349234868139, 13.7761659551308 ], [ -87.380302406893861, 13.775335297548853 ], [ -87.382995589790411, 13.774890893895904 ], [ -87.383239818211365, 13.772643073062074 ], [ -87.382385219757509, 13.770782464884837 ], [ -87.384452887134444, 13.76889608137401 ], [ -87.386787342841075, 13.767844180675384 ], [ -87.386230541318454, 13.765485743560445 ], [ -87.384139955749404, 13.764195424986553 ], [ -87.381805446815818, 13.763314237355088 ], [ -87.379226708381239, 13.762702925959346 ], [ -87.377220093524386, 13.761782625205724 ], [ -87.376663160921723, 13.75937650716646 ], [ -87.378303543280666, 13.757803909170178 ], [ -87.380363403598508, 13.755888918161048 ], [ -87.382438648911076, 13.756056773594281 ], [ -87.385063176076684, 13.755909906500444 ], [ -87.387542680128817, 13.755720129757377 ], [ -87.390213072712825, 13.755570392026199 ], [ -87.393394414591484, 13.755412086650052 ], [ -87.395736625902813, 13.755084979880033 ], [ -87.39772792246724, 13.753980621921247 ], [ -87.398712093850534, 13.75215720273053 ], [ -87.400619554815648, 13.751469605235707 ], [ -87.403121920899522, 13.75229453217259 ], [ -87.40520474739634, 13.752991665560721 ], [ -87.408035298907393, 13.753580083359427 ], [ -87.41015625694024, 13.753905290078272 ], [ -87.412574798760033, 13.75514887416206 ], [ -87.414337115369989, 13.756173124154701 ], [ -87.416725181145011, 13.758113849763433 ], [ -87.418403560713685, 13.75969694738412 ], [ -87.420776298319083, 13.760617240944075 ], [ -87.423736593064731, 13.76083277128256 ], [ -87.426261925832591, 13.760732644407145 ], [ -87.428283659759387, 13.760738367614099 ], [ -87.430297727141792, 13.760695449997753 ], [ -87.432548557647678, 13.760601983918498 ], [ -87.435134863318794, 13.761056881013875 ], [ -87.438172815352402, 13.76201129365016 ], [ -87.469826652815627, 13.812657433591339 ], [ -87.513444039620751, 13.818109606941979 ], [ -87.578870119828437, 13.853548733721142 ], [ -87.671557066789305, 13.908070467227555 ], [ -87.709722280243781, 13.973496547435246 ], [ -87.693365760191881, 14.025292194266338 ], [ -87.655200546737404, 14.109800881201279 ], [ -87.595226639880366, 14.175226961408969 ], [ -87.562513599776523, 14.2188443482141 ], [ -87.538087863165657, 14.25024886671379 ] ] ] ] } }
]
}
