{
"type": "FeatureCollection",
"name": "TTL",
"crs": { "type": "name", "properties": { "name": "urn:ogc:def:crs:OGC:1.3:CRS84" } },
"features": [
{ "type": "Feature", "properties": { "fid": 6, "id": 6, "etnia_id": 45, "etnia": "Tolupan" }, "geometry": { "type": "MultiPolygon", "coordinates": [ [ [ [ -86.59756472984202, 15.483225775439896 ], [ -86.622741704965506, 15.522446623193813 ], [ -86.597450267337067, 15.543622934598519 ], [ -86.553649885488426, 15.554964945784615 ], [ -86.535179186446328, 15.532074010284338 ], [ -86.548172059296036, 15.52307219166785 ], [ -86.552078207495413, 15.502726608189521 ], [ -86.59756472984202, 15.483225775439896 ] ] ] ] } },
{ "type": "Feature", "properties": { "fid": 8, "id": 8, "etnia_id": 45, "etnia": "Tolupan" }, "geometry": { "type": "MultiPolygon", "coordinates": [ [ [ [ -87.119155821998802, 15.232829116650313 ], [ -87.185371345812754, 15.278680737845084 ], [ -87.198066784372031, 15.367402010927446 ], [ -87.201217665546508, 15.367399167363507 ], [ -87.169715819148649, 15.404141478832857 ], [ -87.12871553129375, 15.398050321172111 ], [ -87.087722740691859, 15.419487903883176 ], [ -87.00572199798269, 15.462341275464812 ], [ -86.983634893459936, 15.489877664442691 ], [ -86.961547818890864, 15.505173719534667 ], [ -86.939468315677573, 15.489870094951645 ], [ -86.917388928929924, 15.471505209318888 ], [ -86.948944067346545, 15.434798158593038 ], [ -87.03410340776702, 15.3980846361831 ], [ -87.059326235208147, 15.379720673781497 ], [ -87.09713740664985, 15.309333815292359 ], [ -87.119155821998802, 15.232829116650313 ] ] ] ] } },
{ "type": "Feature", "properties": { "fid": 10, "id": 10, "etnia_id": 45, "etnia": "Tolupan" }, "geometry": { "type": "MultiPolygon", "coordinates": [ [ [ [ -87.405479472073509, 15.003016415865957 ], [ -87.44641122118459, 15.009057950700436 ], [ -87.446441676464957, 15.024356798834622 ], [ -87.496879657115684, 15.054849662921217 ], [ -87.506385876795832, 15.079305636068508 ], [ -87.497047296325803, 15.125222255555979 ], [ -87.462547292144393, 15.192608850577599 ], [ -87.48151412355827, 15.220106120089621 ], [ -87.50374616661378, 15.296548877254169 ], [ -87.529022336433371, 15.317908287435525 ], [ -87.623680202666776, 15.348259874982213 ], [ -87.705436719905222, 15.283765843084158 ], [ -87.736862271364203, 15.259187742189205 ], [ -87.737607480318843, 15.259391707929284 ], [ -87.758949361245172, 15.265233039424992 ], [ -87.768426719072522, 15.289505405929228 ], [ -87.768493601521641, 15.289676697901911 ], [ -87.652175996720075, 15.387951785411103 ], [ -87.620811443296716, 15.443114297934173 ], [ -87.548324674847052, 15.467782069850738 ], [ -87.396842888716279, 15.437508499606523 ], [ -87.355842656876405, 15.437578132664711 ], [ -87.317947338581206, 15.407038669050346 ], [ -87.308349541218817, 15.318321193395699 ], [ -87.324027986310057, 15.263224526991809 ], [ -87.327072171552715, 15.192846247512161 ], [ -87.314384532704423, 15.134729316331113 ], [ -87.317474350371356, 15.094947837691935 ], [ -87.285949669665328, 15.070511802867296 ], [ -87.307922297361031, 15.021526336341118 ], [ -87.386611871097116, 15.015287329463606 ], [ -87.405479472073509, 15.003016415865957 ] ] ] ] } },
{ "type": "Feature", "properties": { "fid": 14, "id": 14, "etnia_id": 45, "etnia": "Tolupan" }, "geometry": { "type": "MultiPolygon", "coordinates": [ [ [ [ -87.181961117352017, 14.975765270165924 ], [ -87.222900369016088, 14.997147499047257 ], [ -87.257583682328757, 15.046067242859966 ], [ -87.238708436782801, 15.058327662363611 ], [ -87.235549962156, 15.052210726907902 ], [ -87.17890927856871, 15.092040067277946 ], [ -87.156868036092334, 15.08899690413355 ], [ -87.137985211701746, 15.113487188842583 ], [ -87.090751713212597, 15.116571427079188 ], [ -87.074989391151519, 15.092098152720348 ], [ -87.06553652757492, 15.067623105366236 ], [ -87.078124974364059, 15.046200733201902 ], [ -87.087554883872883, 15.015598321882088 ], [ -87.119026131109536, 14.991106004613869 ], [ -87.181961117352017, 14.975765270165924 ] ] ] ] } },
{ "type": "Feature", "properties": { "fid": 17, "id": 17, "etnia_id": 45, "etnia": "Tolupan" }, "geometry": { "type": "MultiPolygon", "coordinates": [ [ [ [ -86.967956556603568, 14.874860725096724 ], [ -87.002563445387167, 14.880982315343552 ], [ -87.005706798165008, 14.905461334902878 ], [ -87.027732788571129, 14.945238110795044 ], [ -87.002563533221263, 14.954419060774752 ], [ -86.971084615204418, 15.000314716085812 ], [ -86.936462450562573, 14.98806860494838 ], [ -86.942764276692927, 14.957471787096907 ], [ -86.923889178034656, 14.948286959119914 ], [ -86.901863132950695, 14.93909832336651 ], [ -86.927047756894012, 14.908509280056197 ], [ -86.945930475767256, 14.893215233157488 ], [ -86.967956556603568, 14.874860725096724 ] ] ] ] } },
{ "type": "Feature", "properties": { "fid": 20, "id": 20, "etnia_id": 0, "etnia": "Tolupan" }, "geometry": { "type": "MultiPolygon", "coordinates": [ [ [ [ -87.737607480318843, 15.259391707929284 ], [ -87.740964961215028, 15.253636026392964 ], [ -87.754838247752502, 15.241744637932271 ], [ -87.783575769865834, 15.21994375908767 ], [ -87.784566718904216, 15.21399806485733 ], [ -87.771684381405151, 15.198142880243068 ], [ -87.749883502560564, 15.173369154283293 ], [ -87.726100725639157, 15.148595428323517 ], [ -87.725109776600775, 15.137694988901217 ], [ -87.725109776600775, 15.091120384096843 ], [ -87.731055470831137, 15.068328556213846 ], [ -87.74294685929182, 15.070310454290627 ], [ -87.74691065544539, 15.08913848602006 ], [ -87.751865400637328, 15.116885059095004 ], [ -87.763756789098025, 15.127785498517312 ], [ -87.787539566019404, 15.135713090824439 ], [ -87.809340444863992, 15.140667836016393 ], [ -87.837087017938927, 15.157513969669038 ], [ -87.870779285244197, 15.177332950436849 ], [ -87.894562062165562, 15.183278644667199 ], [ -87.928254329470846, 15.183278644667199 ], [ -87.934200023701166, 15.205079523511801 ], [ -87.940145717931514, 15.233817045625145 ], [ -87.942127616008307, 15.256608873508139 ], [ -87.934200023701166, 15.26453646581526 ], [ -87.921317686202102, 15.274445956199175 ], [ -87.927263380432436, 15.283364497544691 ], [ -87.929245278509214, 15.29525588600538 ], [ -87.919335788125323, 15.299219682158943 ], [ -87.919335788125323, 15.303183478312512 ], [ -87.923299584278865, 15.318047713888374 ], [ -87.914381042933371, 15.320029611965149 ], [ -87.899516807357514, 15.319038662926767 ], [ -87.887625418896832, 15.324984357157113 ], [ -87.876724979474545, 15.330930051387456 ], [ -87.86285169293707, 15.337866694656196 ], [ -87.850960304476388, 15.328948153310673 ], [ -87.852942202553166, 15.317056764849976 ], [ -87.858887896783514, 15.29822873312056 ], [ -87.847987457361214, 15.281382599467909 ], [ -87.831141323708579, 15.263545516776873 ], [ -87.812313291979166, 15.249672230239399 ], [ -87.795467158326517, 15.261563618700102 ], [ -87.768426719072522, 15.289505405929228 ], [ -87.758949361245172, 15.265233039424992 ], [ -87.737607480318843, 15.259391707929284 ] ] ] ] } }
]
}
