{
"type": "FeatureCollection",
"name": "TLN",
"crs": { "type": "name", "properties": { "name": "urn:ogc:def:crs:OGC:1.3:CRS84" } },
"features": [
{ "type": "Feature", "properties": { "fid": 7, "id": 7, "etnia_id": 37, "etnia": "Lenca" }, "geometry": { "type": "MultiPolygon", "coordinates": [ [ [ [ -84.099891632761754, 15.507458644848933 ], [ -84.101913451567867, 15.507625581247034 ], [ -84.104126012410703, 15.507807777513898 ], [ -84.106826758446601, 15.510280596749446 ], [ -84.109123204712645, 15.512038239939198 ], [ -84.102287280494565, 15.517414033005636 ], [ -84.087471000488534, 15.542270579354447 ], [ -84.084106475050405, 15.540242150072244 ], [ -84.081977837339181, 15.538955695610307 ], [ -84.080734255883343, 15.535936382195716 ], [ -84.080123875689736, 15.533017144183114 ], [ -84.080574059352017, 15.530014033198505 ], [ -84.081481908497722, 15.526552219902236 ], [ -84.081748966871316, 15.523127586558202 ], [ -84.082351657086221, 15.519993721866966 ], [ -84.08460234876037, 15.517973924935268 ], [ -84.086853037433059, 15.515747951360638 ], [ -84.088531477928896, 15.513699553165806 ], [ -84.090568560387496, 15.511818922687938 ], [ -84.092132544939957, 15.510372150138386 ], [ -84.094406144093739, 15.508973058756924 ], [ -84.097679158610944, 15.50762365676213 ], [ -84.099891632761754, 15.507458644848933 ] ] ] ] } },
{ "type": "Feature", "properties": { "fid": 39, "id": 39, "etnia_id": 37, "etnia": "Lenca" }, "geometry": { "type": "MultiPolygon", "coordinates": [ [ [ [ -88.051959618222028, 14.685384384198802 ], [ -88.03179444196806, 14.691642542346594 ], [ -88.004970368161736, 14.705054579249779 ], [ -87.989642325986679, 14.712718600337311 ], [ -87.980062299627278, 14.693558547618478 ], [ -87.968566267995982, 14.666734473812106 ], [ -87.943658199461524, 14.634162384190097 ], [ -87.909170104567664, 14.616918336743147 ], [ -87.874682009673776, 14.611170320927496 ], [ -87.865101983314361, 14.607338310383719 ], [ -87.888094046576953, 14.595842278752427 ], [ -87.918740853413397, 14.583924076093801 ], [ -87.910865738544572, 14.578856431367225 ], [ -87.88532271490665, 14.568307878517135 ], [ -87.887062178267001, 14.547007530301428 ], [ -87.876083491826861, 14.53462789144238 ], [ -87.895995995439776, 14.504386901480723 ], [ -87.902092006499927, 14.500108687510792 ], [ -87.901176352157208, 14.498187069319743 ], [ -87.896118216116392, 14.495599729170605 ], [ -87.888771040574923, 14.491655328174753 ], [ -87.88623052401438, 14.488224956438652 ], [ -87.884925735094356, 14.486459744468002 ], [ -87.88295741773851, 14.478937111904608 ], [ -87.874824499358397, 14.470106136422221 ], [ -87.872306688493623, 14.467915513042012 ], [ -87.870933619030353, 14.465277623471188 ], [ -87.86880482734756, 14.46217155226346 ], [ -87.867134137963177, 14.46040437954229 ], [ -87.865028355178723, 14.458863267484212 ], [ -87.863357556063718, 14.457188618259792 ], [ -87.861686786948766, 14.455053302548817 ], [ -87.85925279917565, 14.453875496010262 ], [ -87.858299135689379, 14.451243388564169 ], [ -87.858049490516791, 14.449937371155302 ], [ -87.848609140696851, 14.452115913421446 ], [ -87.826944007282535, 14.41239650216186 ], [ -87.761517927074877, 14.360600855330766 ], [ -87.708594972083972, 14.314894666929515 ], [ -87.709905556291901, 14.312273498513678 ], [ -87.700325529932456, 14.28161741416354 ], [ -87.663569698104354, 14.264114637102532 ], [ -87.663299582363408, 14.264645571519157 ], [ -87.659574528531792, 14.262240565364232 ], [ -87.658806485239509, 14.261917178714848 ], [ -87.654548534833111, 14.266093268389586 ], [ -87.647247228960737, 14.261844653161551 ], [ -87.568057931521551, 14.270732153439576 ], [ -87.557061426425875, 14.259735648343907 ], [ -87.538087863165657, 14.25024886671379 ], [ -87.562513599776523, 14.2188443482141 ], [ -87.595226639880366, 14.175226961408969 ], [ -87.655200546737404, 14.109800881201279 ], [ -87.693365760191881, 14.025292194266338 ], [ -87.709722280243781, 13.973496547435246 ], [ -87.671557066789305, 13.908070467227555 ], [ -87.578870119828437, 13.853548733721142 ], [ -87.513444039620751, 13.818109606941979 ], [ -87.469826652815627, 13.812657433591339 ], [ -87.438172815352402, 13.76201129365016 ], [ -87.438583305861883, 13.762140254649211 ], [ -87.441497709907424, 13.762218461824427 ], [ -87.444099497308358, 13.761331535702816 ], [ -87.445991582430779, 13.759997351355318 ], [ -87.44850163433135, 13.758974066510204 ], [ -87.451324495789649, 13.759469968552844 ], [ -87.45365135092726, 13.758681291103516 ], [ -87.455665563332275, 13.756466860350555 ], [ -87.455902083552104, 13.752355557745966 ], [ -87.525390576186595, 13.79249951360533 ], [ -87.525451664031451, 13.789694778429471 ], [ -87.525321941433617, 13.787253354457553 ], [ -87.52510071424021, 13.78467177873431 ], [ -87.52500918434248, 13.782368644620123 ], [ -87.524749855820744, 13.777255992663926 ], [ -87.52476513608012, 13.774447424813085 ], [ -87.524902409446554, 13.768745402268191 ], [ -87.524780385019042, 13.763727176926881 ], [ -87.52523034581084, 13.760746938060413 ], [ -87.526054427080297, 13.757451999901974 ], [ -87.526756406591474, 13.753694517913724 ], [ -87.527305594592249, 13.750210742176412 ], [ -87.526344335413853, 13.747243876184937 ], [ -87.523857121398919, 13.744609820394873 ], [ -87.522018298421969, 13.74272726618829 ], [ -87.524482606434944, 13.739329320769508 ], [ -87.526435803528258, 13.738362301292502 ], [ -87.528442318545672, 13.737256995498944 ], [ -87.531425512188136, 13.736495958257914 ], [ -87.533424373488401, 13.73566816191892 ], [ -87.534332251516432, 13.733204834005589 ], [ -87.53519439799679, 13.730508792746397 ], [ -87.537063525422965, 13.729309075331351 ], [ -87.539581157666575, 13.728308672380436 ], [ -87.542182928958653, 13.727724055347114 ], [ -87.543190042822516, 13.725170120564631 ], [ -87.545020996201757, 13.723369590567978 ], [ -87.545959513567112, 13.721506102832786 ], [ -87.549217265483776, 13.719736085707558 ], [ -87.551956227018835, 13.719109513073279 ], [ -87.554038900522798, 13.718593593239909 ], [ -87.556297390259871, 13.718105298235841 ], [ -87.558303901729872, 13.717450127079378 ], [ -87.56103528762489, 13.717128744820766 ], [ -87.563407932533764, 13.716694811104565 ], [ -87.567382812356627, 13.716542235557743 ], [ -87.570091251803859, 13.716357216844102 ], [ -87.572601272476774, 13.716144552830196 ], [ -87.575309823220692, 13.716015805118719 ], [ -87.577873183893104, 13.715831747678633 ], [ -87.58010851026809, 13.715838422421015 ], [ -87.582901086327453, 13.715737320459793 ], [ -87.585883978635977, 13.71610544665444 ], [ -87.588844221973048, 13.716884609986714 ], [ -87.591720458080601, 13.717775340583675 ], [ -87.593887374956566, 13.718884453254761 ], [ -87.596710168932461, 13.720243443147231 ], [ -87.598846371417764, 13.721462231820313 ], [ -87.601837227246932, 13.723400100283609 ], [ -87.60406494734292, 13.724729520994828 ], [ -87.607444880953537, 13.72669505250701 ], [ -87.609748839737023, 13.728438362537544 ], [ -87.611244192319859, 13.730013842271163 ], [ -87.61281600085448, 13.731863013555637 ], [ -87.614814763888134, 13.733991615917159 ], [ -87.617523073452432, 13.734605782476095 ], [ -87.619636516122966, 13.734805089163491 ], [ -87.622314575049728, 13.735475524470214 ], [ -87.624511699492118, 13.7371349201137 ], [ -87.626121579293411, 13.738821024135177 ], [ -87.627494742175074, 13.74058817518263 ], [ -87.629470795455191, 13.742027278502611 ], [ -87.63169872443865, 13.7422265888219 ], [ -87.635078422525766, 13.742127411394254 ], [ -87.638298148097306, 13.742633809766732 ], [ -87.64102935696846, 13.74291705657334 ], [ -87.641769459809609, 13.731895424476734 ], [ -87.634796266643747, 13.727054583958031 ], [ -87.635757315879971, 13.714418396823108 ], [ -87.638702448536705, 13.698862062361425 ], [ -87.639671266979718, 13.690113055353491 ], [ -87.6366730550954, 13.684289917247417 ], [ -87.635665850778082, 13.680405598956627 ], [ -87.635650721379392, 13.674574829606813 ], [ -87.638603331816725, 13.663876522233515 ], [ -87.638587844377398, 13.658046711246977 ], [ -87.638580310456561, 13.654159530153958 ], [ -87.634605334820932, 13.655140857849597 ], [ -87.631607009291756, 13.648345938316483 ], [ -87.627624386911151, 13.646412846054831 ], [ -87.620666536764901, 13.643514627893255 ], [ -87.614677543536487, 13.633810987276227 ], [ -87.603706255264953, 13.616345394060122 ], [ -87.597725008796601, 13.609557133702964 ], [ -87.585800104603948, 13.60764216205669 ], [ -87.579811004650338, 13.595993986257881 ], [ -87.567863466619926, 13.585331908544262 ], [ -87.549942052530284, 13.56690691416595 ], [ -87.54396051920989, 13.560116754448122 ], [ -87.547935458115205, 13.558164585959917 ], [ -87.565811216163453, 13.557152735344534 ], [ -87.56580348408005, 13.554237353522275 ], [ -87.55283356286202, 13.528999316617158 ], [ -87.575675964564567, 13.530891406128349 ], [ -87.592559800578798, 13.530851350685523 ], [ -87.612434429323159, 13.532747254709308 ], [ -87.626350300711721, 13.537571897227574 ], [ -87.641258275143315, 13.543364511423157 ], [ -87.651776190367499, 13.549941379139183 ], [ -87.655189455711735, 13.552075374346408 ], [ -87.659164400877088, 13.552064880951738 ], [ -87.665333942909712, 13.555262931557678 ], [ -87.66364821327204, 13.559522122027399 ], [ -87.663444986264253, 13.56153267111166 ], [ -87.670701745914059, 13.56298402304162 ], [ -87.69093280866079, 13.588995389430275 ], [ -87.71694417504942, 13.617896907639896 ], [ -87.745845693259042, 13.658359033133364 ], [ -87.757406300542897, 13.698821158626828 ], [ -87.742955541438064, 13.713271917731641 ], [ -87.737175237796151, 13.730612828657414 ], [ -87.740065389617129, 13.759514346867032 ], [ -87.725614630512325, 13.771074954150883 ], [ -87.722724478691347, 13.811537079644348 ], [ -87.748735845080006, 13.834658294212048 ], [ -87.757406300542897, 13.851999205137817 ], [ -87.777637363289614, 13.872230267884552 ], [ -87.806538881499222, 13.895351482452247 ], [ -87.80075857785728, 13.906912089736096 ], [ -87.812319185141135, 13.924253000661864 ], [ -87.852781310634583, 13.909802241557056 ], [ -87.904804043411872, 13.892461330631281 ], [ -87.948156320726255, 13.895351482452247 ], [ -87.979947990756799, 13.898241634273202 ], [ -88.020410116250218, 13.880900723347429 ], [ -88.020410116250218, 13.893730266157801 ], [ -88.021316412304827, 13.89452552117039 ], [ -88.022628662408536, 13.896143899641489 ], [ -88.023391797364013, 13.898047427334285 ], [ -88.025260876148579, 13.899229987250346 ], [ -88.026252607010917, 13.90120411099055 ], [ -88.027931210650138, 13.90242003630409 ], [ -88.028900049749808, 13.904352186565127 ], [ -88.030456668884554, 13.905884726432564 ], [ -88.031410244947594, 13.907840711898441 ], [ -88.031936784692391, 13.909948350193918 ], [ -88.033538738825342, 13.911682132415697 ], [ -88.034538283462766, 13.913448316865473 ], [ -88.036460768501925, 13.914384840284098 ], [ -88.038063103362063, 13.915942188729755 ], [ -88.038688562952331, 13.918048851770394 ], [ -88.040611210668501, 13.919189449469735 ], [ -88.041992329838649, 13.920798278930278 ], [ -88.043449295986335, 13.92241858561121 ], [ -88.044227689194088, 13.924511894834756 ], [ -88.044906542948098, 13.926655763598019 ], [ -88.045997572412574, 13.928481096193496 ], [ -88.046256924287718, 13.930679303714976 ], [ -88.046928358684625, 13.932690591225986 ], [ -88.047286957357628, 13.934855458525126 ], [ -88.045967147257514, 13.936552992644982 ], [ -88.045150694172833, 13.938612918188632 ], [ -88.044632078787615, 13.94074056048491 ], [ -88.044212468643039, 13.942898737835081 ], [ -88.043586652379261, 13.945032124940575 ], [ -88.045387325684047, 13.946080196630797 ], [ -88.047233628386081, 13.947016719967246 ], [ -88.045974833241885, 13.948728539186906 ], [ -88.044868555610805, 13.950620638676998 ], [ -88.045021184357765, 13.953622796782033 ], [ -88.045013441519757, 13.955755218538378 ], [ -88.044013880252734, 13.957711203032055 ], [ -88.043998659166448, 13.959907520825187 ], [ -88.043029652227347, 13.961873040376624 ], [ -88.042701746883665, 13.964060770660376 ], [ -88.042831437098002, 13.966254220224247 ], [ -88.042739973063917, 13.968432422019943 ], [ -88.042022709154679, 13.970465656838812 ], [ -88.042213359645416, 13.972624749370361 ], [ -88.042321382324701, 13.97346349205109 ], [ -88.036852681281999, 13.984400894136519 ], [ -88.034126594606676, 14.03074436761697 ], [ -88.05048311465859, 14.101622621175306 ], [ -88.118635281541472, 14.137061747954471 ], [ -88.219500488528112, 14.131609574603816 ], [ -88.249487441956532, 14.066183494396123 ], [ -88.222502016306493, 13.985227217445745 ], [ -88.24255502187475, 13.9827205917497 ], [ -88.234891000787243, 13.955896517943334 ], [ -88.227226979699736, 13.940568475768266 ], [ -88.232974995515363, 13.930988449408847 ], [ -88.252135048234138, 13.930988449408842 ], [ -88.275127111496673, 13.921408423049428 ], [ -88.303867190574806, 13.902248370330591 ], [ -88.334523274924834, 13.892668343971165 ], [ -88.359431343459207, 13.88500432288363 ], [ -88.367095364546699, 13.869676280708559 ], [ -88.382423406721699, 13.869676280708561 ], [ -88.376675390906072, 13.877340301796092 ], [ -88.395835443624833, 13.877340301796087 ], [ -88.430323538518536, 13.869676280708548 ], [ -88.445651580693522, 13.862012259621007 ], [ -88.45523160705288, 13.856264243805356 ], [ -88.482055680859091, 13.844768212174047 ], [ -88.503131738849646, 13.867760275436639 ], [ -88.518459781024617, 13.894584349243003 ], [ -88.522291791568378, 13.925240433593141 ], [ -88.520375786296512, 13.932904454680674 ], [ -88.514627770480899, 13.955896517943273 ], [ -88.520375786296512, 13.976972575933988 ], [ -88.525969735998743, 13.977386942578601 ], [ -88.519370022811955, 13.989853067487088 ], [ -88.511191762786055, 14.036196540967538 ], [ -88.513917849461379, 14.07436175442203 ], [ -88.552083062915585, 14.137061747954384 ], [ -88.639317836525137, 14.177953048084154 ], [ -88.72655261013449, 14.16704870138282 ], [ -88.757799752854112, 14.112366201622725 ], [ -88.757960440007835, 14.113008950237594 ], [ -88.777120492726411, 14.10917693969381 ], [ -88.811608587619844, 14.105344929150018 ], [ -88.848012687785086, 14.109176939693752 ], [ -88.867172740503648, 14.141749029315752 ], [ -88.883844392873229, 14.173425168818467 ], [ -88.830143903795332, 14.221570434889154 ], [ -88.786526516990833, 14.270639995044963 ], [ -88.745635216861572, 14.338792161928005 ], [ -88.74290913018632, 14.396039982109738 ], [ -88.74836130353691, 14.445109542265506 ], [ -88.767443910263935, 14.483274755719979 ], [ -88.794704777016804, 14.505083449122521 ], [ -88.811061297068534, 14.518713882499112 ], [ -88.821198092546283, 14.533529198966786 ], [ -88.820983999533894, 14.533448211156953 ], [ -88.81832872817823, 14.533063886844172 ], [ -88.815116758067617, 14.532212264528832 ], [ -88.812179625230286, 14.533423410807771 ], [ -88.809272661256756, 14.535513841063404 ], [ -88.806732062660046, 14.537576676140047 ], [ -88.803733807316831, 14.540162101993236 ], [ -88.801422117362932, 14.541620275106801 ], [ -88.799697922556561, 14.542694088067345 ], [ -88.79749292497975, 14.543491351388953 ], [ -88.795463509155837, 14.543876662634956 ], [ -88.790977604951266, 14.545252763453352 ], [ -88.787925705235139, 14.546106318960032 ], [ -88.785446237983564, 14.546766260666516 ], [ -88.783020137756949, 14.547673196644995 ], [ -88.780250576124359, 14.548609685961742 ], [ -88.777938967336723, 14.548610662066652 ], [ -88.773628258914542, 14.568893426409138 ], [ -88.759796071887891, 14.593283653738764 ], [ -88.744277855062251, 14.602507571821837 ], [ -88.735000684789028, 14.611683809086644 ], [ -88.744461138652355, 14.62527367607116 ], [ -88.757102982894381, 14.646428074684302 ], [ -88.766479628086032, 14.649393056898576 ], [ -88.777412438740953, 14.652345678607253 ], [ -88.782188386806425, 14.664451537686114 ], [ -88.794853141109186, 14.688638637565138 ], [ -88.799629223069005, 14.700744675490206 ], [ -88.796577409093914, 14.708356778717278 ], [ -88.790428049244696, 14.719029477005275 ], [ -88.781044118517585, 14.716066296931231 ], [ -88.766975268490057, 14.71162030559536 ], [ -88.754516678783219, 14.713233025094372 ], [ -88.74201969795017, 14.710291910529948 ], [ -88.739877128762885, 14.709614738692904 ], [ -88.704743916732355, 14.652292129589886 ], [ -88.63659174984997, 14.581413876031602 ], [ -88.582070016343991, 14.518713882499252 ], [ -88.396696122423322, 14.486000842395462 ], [ -88.254939615307208, 14.510535622473373 ], [ -88.132265714918091, 14.565057355979794 ], [ -88.080470068087081, 14.608674742784924 ], [ -88.053209201333914, 14.679552996343263 ], [ -88.051959618222028, 14.685384384198802 ] ] ] ] } }
]
}
