{
"type": "FeatureCollection",
"name": "TNH",
"crs": { "type": "name", "properties": { "name": "urn:ogc:def:crs:OGC:1.3:CRS84" } },
"features": [
{ "type": "Feature", "properties": { "fid": 12, "id": 12, "etnia_id": 41, "etnia": "Nahua" }, "geometry": { "type": "MultiPolygon", "coordinates": [ [ [ [ -86.39467617770913, 15.1503905685788 ], [ -86.405883768012757, 15.175993901585315 ], [ -86.395011927775343, 15.192488693408537 ], [ -86.369400089817731, 15.181745505003569 ], [ -86.368560752094552, 15.172478718691563 ], [ -86.367629952450969, 15.16236117793491 ], [ -86.370025589352181, 15.158709578389615 ], [ -86.374763454119545, 15.151480697698728 ], [ -86.386215259090434, 15.150876036077097 ], [ -86.39467617770913, 15.1503905685788 ] ] ] ] } },
{ "type": "Feature", "properties": { "fid": 15, "id": 15, "etnia_id": 41, "etnia": "Nahua" }, "geometry": { "type": "MultiPolygon", "coordinates": [ [ [ [ -86.518722532955792, 15.072680469404787 ], [ -86.526634173018763, 15.080713243294799 ], [ -86.528808645585542, 15.083496036838149 ], [ -86.536582982633021, 15.089332576679245 ], [ -86.541946422597718, 15.103893245168386 ], [ -86.538818424661983, 15.104865021599295 ], [ -86.528205909879816, 15.108406006856042 ], [ -86.511032140668462, 15.103930512991584 ], [ -86.510635411519644, 15.094928719220368 ], [ -86.511909447210556, 15.088588677268229 ], [ -86.512336746883022, 15.08622641363425 ], [ -86.514305127119826, 15.07648177940338 ], [ -86.518722532955792, 15.072680469404787 ] ] ] ] } },
{ "type": "Feature", "properties": { "fid": 18, "id": 18, "etnia_id": 41, "etnia": "Nahua" }, "geometry": { "type": "MultiPolygon", "coordinates": [ [ [ [ -85.821235647977616, 14.853212356698107 ], [ -85.853195186765475, 14.865560478590201 ], [ -85.860900860650062, 14.869899793510298 ], [ -85.870193492936622, 14.889827699495617 ], [ -85.863525366350515, 14.896781006644057 ], [ -85.849716214607184, 14.895638518337785 ], [ -85.811569188121211, 14.900279026604711 ], [ -85.801063541026949, 14.900884678252009 ], [ -85.804794335130538, 14.883233025025934 ], [ -85.803604103574699, 14.862977968751551 ], [ -85.820556649475989, 14.85547153809995 ], [ -85.821235647977616, 14.853212356698107 ] ] ] ] } }
]
}
