{
"type": "FeatureCollection",
"name": "tuberías_Presa Agua Zarca _2016",
"crs": { "type": "name", "properties": { "name": "urn:ogc:def:crs:EPSG::32616" } },
"features": [
{ "type": "Feature", "properties": { "id": 1 }, "geometry": { "type": "MultiLineString", "coordinates": [ [ [ 371103.329216299171094, 1620117.358599788276479 ], [ 371104.300828314444516, 1620117.660495499614626 ], [ 371105.267042258463334, 1620117.979245469439775 ], [ 371106.227565789769869, 1620118.314753255574033 ], [ 371107.182108288805466, 1620118.666917345719412 ], [ 371108.130380945687648, 1620119.035631187492982 ], [ 371109.072096847346984, 1620119.420783221488819 ], [ 371110.006971064780373, 1620119.82225691457279 ], [ 371110.934720738907345, 1620120.239930795738474 ], [ 371111.855065166309942, 1620120.673678491730243 ], [ 371112.767725884099491, 1620121.12336876639165 ], [ 371113.672426754259504, 1620121.588865559315309 ], [ 371114.568894047057256, 1620122.070028028683737 ], [ 371115.4568565239897, 1620122.566710591549054 ], [ 371116.336045519798063, 1620123.078762970166281 ], [ 371117.206195023725741, 1620123.606030235998333 ], [ 371118.067041760135908, 1620124.148352856980637 ], [ 371118.918325268023182, 1620124.705566745949909 ], [ 371119.759787979768589, 1620125.27750331023708 ], [ 371120.591175299254246, 1620125.863989502424374 ], [ 371121.412235678872094, 1620126.464847873430699 ], [ 371122.222720695484895, 1620127.079896624665707 ], [ 371123.022385125746951, 1620127.708949665306136 ], [ 371123.810987020086031, 1620128.351816666312516 ], [ 371124.588287776219659, 1620129.008303119568154 ], [ 371125.354052211157978, 1620129.678210396086797 ], [ 371126.108048632217105, 1620130.361335806082934 ], [ 371126.8500489074504, 1620131.05747266067192 ], [ 371127.579828534508124, 1620131.766410334035754 ], [ 371128.297166708565783, 1620132.487934327451512 ], [ 371129.001846388971899, 1620133.221826333552599 ], [ 371129.693654365255497, 1620133.967864303616807 ], [ 371130.372381321387365, 1620134.725822513457388 ], [ 371131.037821899226401, 1620135.495471632340923 ], [ 371131.689774760510772, 1620136.276578792370856 ], [ 371132.32804264803417, 1620137.068907658802345 ], [ 371132.952432444959413, 1620137.872218501754105 ], [ 371133.562755233608186, 1620138.686268268153071 ], [ 371134.158826352388132, 1620139.510810656473041 ], [ 371134.740465451905038, 1620140.345596189843491 ], [ 371135.307496549095958, 1620141.190372292650864 ], [ 371135.859748080954887, 1620142.044883365975693 ], [ 371136.397052956279367, 1620142.90887086559087 ], [ 371136.919248605961911, 1620143.782073380658403 ], [ 371137.426177032582927, 1620144.664226711494848 ], [ 371137.917684857908171, 1620145.555063950596377 ], [ 371138.393623369571287, 1620146.454315562732518 ], [ 371138.853848565835506, 1620147.361709466902539 ], [ 371139.298221199191175, 1620148.276971118990332 ], [ 371139.72660681855632, 1620149.199823593487963 ], [ 371140.138875810022, 1620150.129987669177353 ], [ 371140.534903435909655, 1620151.067181911785156 ], [ 371140.91456987260608, 1620152.011122760362923 ], [ 371141.277760246885009, 1620152.961524612503126 ], [ 371141.624364670366049, 1620153.918099911417812 ], [ 371141.954278273216914, 1620154.880559231853113 ], [ 371142.267401235527359, 1620155.848611368564889 ], [ 371142.563638817635365, 1620156.821963423863053 ], [ 371142.842901388707105, 1620157.800320897018537 ], [ 371143.105104454152752, 1620158.783387772273272 ], [ 371143.35016868065577, 1620159.770866609411314 ], [ 371143.578019920852967, 1620160.762458632932976 ], [ 371143.788589235045947, 1620161.757863823091611 ], [ 371143.981812912679743, 1620162.756781006464735 ], [ 371144.157632491318509, 1620163.758907946990803 ], [ 371144.315994774224237, 1620164.763941437005997 ], [ 371144.456851846771315, 1620165.771577390143648 ], [ 371144.580161090707406, 1620166.781510931905359 ], [ 371144.68588519707555, 1620167.793436493491754 ], [ 371144.773992177681066, 1620168.807047902606428 ], [ 371144.844455374462996, 1620169.822038477286696 ], [ 371144.897253467875998, 1620170.838101118337363 ], [ 371144.932370483118575, 1620171.854928401531652 ], [ 371144.94979579502251, 1620172.872212672140449 ], [ 371144.949524131370708, 1620173.88964613690041 ], [ 371144.93155557429418, 1620174.906920956913382 ], [ 371144.895895560446661, 1620175.923729342175648 ], [ 371144.842554879258387, 1620176.939763643080369 ], [ 371144.771549669734668, 1620177.954716444481164 ], [ 371144.682901415391825, 1620178.968280658358708 ], [ 371144.576636938087177, 1620179.980149617185816 ], [ 371144.452788389462512, 1620180.990017165895551 ], [ 371144.311393241747282, 1620181.997577755013481 ], [ 371144.152494275884237, 1620183.002526533557102 ], [ 371143.976139568956569, 1620184.004559440305457 ], [ 371143.782382479577791, 1620185.003373296465725 ], [ 371143.571281631535385, 1620185.998665896942839 ], [ 371143.342900896328501, 1620186.990136102540419 ], [ 371143.097309373668395, 1620187.977483930299059 ], [ 371142.834581370698288, 1620188.960410644300282 ], [ 371142.554796379350591, 1620189.938618846936151 ], [ 371142.258039052423555, 1620190.911812567384914 ], [ 371141.944399177911691, 1620191.879697352880612 ], [ 371141.61397165193921, 1620192.841980356257409 ], [ 371141.266856449830811, 1620193.798370426055044 ], [ 371140.903158596134745, 1620194.748578192666173 ], [ 371140.522988132550381, 1620195.692316158208996 ], [ 371140.126460084982682, 1620196.629298781510442 ], [ 371139.713694428326562, 1620197.559242565417662 ], [ 371139.284816050610971, 1620198.481866143178195 ], [ 371138.839954714872874, 1620199.396890361793339 ], [ 371138.3792450199835, 1620200.304038368398324 ], [ 371137.90282636001939, 1620201.203035692684352 ], [ 371137.410842882003635, 1620202.093610330950469 ], [ 371136.903443442308344, 1620202.97549282736145 ], [ 371136.380781561601907, 1620203.848416356137022 ], [ 371135.843015378457494, 1620204.712116802576929 ], [ 371135.290307601389941, 1620205.566332841990516 ], [ 371134.722825459786691, 1620206.41080601955764 ], [ 371134.140740653092507, 1620207.245280828559771 ], [ 371133.544229299179278, 1620208.069504786748439 ], [ 371132.933471880678553, 1620208.883228514110669 ], [ 371132.308653190673795, 1620209.68620580737479 ], [ 371131.669962276821025, 1620210.478193714749068 ], [ 371129.074542794376612, 1620213.517636929173023 ], [ 371126.53204501257278, 1620216.601485559251159 ], [ 371124.043228533060756, 1620219.72881826851517 ], [ 371121.608836919243913, 1620222.898700729012489 ], [ 371119.229597474739421, 1620226.110185900935903 ], [ 371116.906221025623381, 1620229.362314314581454 ], [ 371114.639401708205696, 1620232.654114358127117 ], [ 371112.429816761752591, 1620235.984602566575631 ], [ 371110.27812632615678, 1620239.352783917682245 ], [ 371108.184973244497087, 1620242.757652126485482 ], [ 371106.150982871127781, 1620246.198189948452637 ], [ 371104.17676288500661, 1620249.673369481926784 ], [ 371102.262903107737657, 1620253.182152475696057 ], [ 371100.409975327784196, 1620256.723490638658404 ], [ 371098.618533129338175, 1620260.296325954375789 ], [ 371096.889111727126874, 1620263.899590995628387 ], [ 371095.222227806341834, 1620267.532209243858233 ], [ 371093.618379368446767, 1620271.19309541140683 ], [ 371092.078045582165942, 1620274.881155764916912 ], [ 371090.601686640642583, 1620278.595288452226669 ], [ 371089.189743623661343, 1620282.334383832057938 ], [ 371087.842638366040774, 1620286.09732480533421 ], [ 371086.560773331439123, 1620289.882987148594111 ], [ 371085.344531492330134, 1620293.690239849966019 ], [ 371084.19427621550858, 1620297.517945447470993 ], [ 371083.110351153300144, 1620301.364960368489847 ], [ 371082.093080141290557, 1620305.230135271791369 ], [ 371081.142767101351637, 1620309.112315389793366 ], [ 371080.259695950779133, 1620313.010340875480324 ], [ 371079.444130517542362, 1620316.923047146992758 ], [ 371078.696314461587463, 1620320.84926523687318 ], [ 371078.016471201844979, 1620324.787822140846401 ], [ 371077.404803849582095, 1620328.737541167996824 ], [ 371076.86149514769204, 1620332.697242292808369 ], [ 371076.386707416095305, 1620336.665742507437244 ], [ 371075.980582503369078, 1620340.64185617514886 ], [ 371075.643241744081024, 1620344.624395384686068 ], [ 371075.374785922816955, 1620348.612170305103064 ], [ 371075.17529524397105, 1620352.603989541064948 ], [ 371075.044829307764303, 1620356.598660489078611 ], [ 371074.983427092374768, 1620360.594989693723619 ], [ 371074.991106942528859, 1620364.591783203883097 ], [ 371075.067866563738789, 1620368.587846930138767 ], [ 371075.21368302317569, 1620372.581987000769004 ], [ 371075.428512756421696, 1620376.573010118678212 ], [ 371075.712291580566671, 1620380.55972391855903 ], [ 371076.06493471324211, 1620384.540937322191894 ], [ 371076.486336798174307, 1620388.515460894443095 ], [ 371076.976371936441865, 1620392.482107199029997 ], [ 371077.53489372425247, 1620396.439691153587773 ], [ 371078.161735296540428, 1620400.387030382174999 ], [ 371078.856709376908839, 1620404.322945570806041 ], [ 371079.619608333625365, 1620408.246260817395523 ], [ 371080.450204241496976, 1620412.155803985428065 ], [ 371081.348248950089328, 1620416.050407051807269 ], [ 371082.313474157941528, 1620419.92890645749867 ], [ 371083.345591492485255, 1620423.790143455145881 ], [ 371084.444292596366722, 1620427.632964453892782 ], [ 371085.609249219531193, 1620431.456221365137026 ], [ 371086.840113317419309, 1620435.25877194548957 ], [ 371088.136517154576723, 1620439.039480137638748 ], [ 371089.498073415074032, 1620442.797216410050169 ], [ 371090.924375317641534, 1620446.530858094105497 ], [ 371092.414996737730689, 1620450.239289720309898 ], [ 371093.969492334348615, 1620453.921403350308537 ], [ 371095.587397683470044, 1620457.576098908670247 ], [ 371097.268229416571558, 1620461.202284511644393 ], [ 371099.011485365219414, 1620464.798876793589443 ], [ 371100.816644710896071, 1620468.36480122897774 ], [ 371102.68316814082209, 1620471.898992456030101 ], [ 371104.610498008842114, 1620475.400394592899829 ], [ 371106.598058502248023, 1620478.8679615536239 ], [ 371108.645255813607946, 1620482.300657361978665 ], [ 371110.751478318474256, 1620485.697456458583474 ], [ 371112.916096757689957, 1620489.057344009634107 ], [ 371115.138464425806887, 1620492.37931620888412 ], [ 371117.417917363985907, 1620495.662380577065051 ], [ 371119.75377455848502, 1620498.905556259909645 ], [ 371122.145338144269772, 1620502.107874320121482 ], [ 371124.591893613163847, 1620505.268378027016297 ], [ 371127.0927100275876, 1620508.386123142438009 ], [ 371129.647040238894988, 1620511.460178202949464 ], [ 371132.254121110541746, 1620514.489624797832221 ], [ 371134.913173746084794, 1620517.473557844292372 ], [ 371137.623403721838258, 1620520.411085856379941 ], [ 371140.384001324360725, 1620523.301331212744117 ], [ 371143.194141792308073, 1620526.143430418334901 ], [ 371146.052985562651884, 1620528.9365343619138 ], [ 371148.95967852184549, 1620531.679808570770547 ], [ 371151.913352260773536, 1620534.372433458687738 ], [ 371160.452527565474156, 1620539.884677302557975 ], [ 371168.896024801069871, 1620545.542388987494633 ], [ 371177.24136613245355, 1620551.343908197013661 ], [ 371185.486102529393975, 1620557.287532413378358 ], [ 371193.627814485167619, 1620563.371517415391281 ], [ 371201.664112726808526, 1620569.594077792717144 ], [ 371209.592638916103169, 1620575.953387467889115 ], [ 371217.411066341679543, 1620582.447580232750624 ], [ 371225.117100601899438, 1620589.074750297004357 ], [ 371232.70848027797183, 1620595.832952845841646 ], [ 371240.182977597869467, 1620602.720204612007365 ], [ 371247.538399089942686, 1620609.734484457643703 ], [ 371254.772586226463318, 1620616.873733966611326 ], [ 371261.883416057447903, 1620624.135858049383387 ], [ 371268.868801833305042, 1620631.518725557252765 ], [ 371275.72669361741282, 1620639.020169908646494 ], [ 371282.455078887520358, 1620646.637989723589271 ], [ 371289.051983126671985, 1620654.369949471205473 ], [ 371295.515470402198844, 1620662.213780124438927 ], [ 371301.843643934233114, 1620670.167179826647043 ], [ 371308.034646652173251, 1620678.227814567508176 ], [ 371314.08666173950769, 1620686.39331886684522 ], [ 371319.997913167404477, 1620694.661296469159424 ], [ 371325.766666215436999, 1620703.029321047710255 ], [ 371331.391227980959229, 1620711.494936915813014 ], [ 371336.86994787567528, 1620720.05565974698402 ], [ 371342.201218110392801, 1620728.708977305097505 ], [ 371341.099685925408266, 1620730.604923635721207 ], [ 371340.031033742066938, 1620732.519595449324697 ], [ 371338.995579787122551, 1620734.452422588365152 ], [ 371337.993632401630748, 1620736.402829489437863 ], [ 371337.025489948922768, 1620738.370235353708267 ], [ 371336.091440725605935, 1620740.354054319905117 ], [ 371335.191762876114808, 1620742.353695640340447 ], [ 371334.326724309532437, 1620744.368563854601234 ], [ 371333.496582619962282, 1620746.398058968828991 ], [ 371332.701585009810515, 1620748.441576632671058 ], [ 371331.941968216153327, 1620750.498508320655674 ], [ 371331.21795844018925, 1620752.568241513101384 ], [ 371330.529771280067507, 1620754.650159877259284 ], [ 371329.877611666510347, 1620756.743643452879041 ], [ 371329.261673801753204, 1620758.84806883521378 ], [ 371328.682141101860907, 1620760.962809361284599 ], [ 371328.139186142070685, 1620763.087235296610743 ], [ 371327.632970605336595, 1620765.220714022172615 ], [ 371327.163645234249998, 1620767.362610223935917 ], [ 371326.73134978604503, 1620769.512286080513149 ], [ 371326.336212991154753, 1620771.66910145431757 ], [ 371325.978352514794096, 1620773.832414081320167 ], [ 371325.657874921802431, 1620776.001579763134941 ], [ 371325.374875645095017, 1620778.175952558172867 ], [ 371325.129438957141247, 1620780.354884974658489 ], [ 371324.921637944993563, 1620782.53772816224955 ], [ 371324.751534488226753, 1620784.723832106916234 ], [ 371324.619179240893573, 1620786.912545823259279 ], [ 371324.524611616216134, 1620789.103217548225075 ], [ 371324.467859774711542, 1620791.295194936683401 ], [ 371324.448940616333857, 1620793.487825253978372 ], [ 371324.467859774711542, 1620795.680455571273342 ], [ 371324.524611616216134, 1620797.872432959731668 ], [ 371324.619179240893573, 1620800.063104684697464 ], [ 371324.751534488226753, 1620802.251818401040509 ], [ 371324.921637944993563, 1620804.437922345707193 ], [ 371325.129438957141247, 1620806.620765533298254 ], [ 371325.374875645095017, 1620808.799697949783877 ], [ 371325.657874921802431, 1620810.974070744821802 ], [ 371325.978352514794096, 1620813.143236426636577 ], [ 371326.336212991154753, 1620815.306549053639174 ], [ 371326.73134978604503, 1620817.463364427443594 ], [ 371327.163645234249998, 1620819.613040284020826 ], [ 371327.632970605336595, 1620821.754936485784128 ], [ 371328.139186142070685, 1620823.888415211346 ], [ 371328.682141101860907, 1620826.012841146672145 ], [ 371329.261673801753204, 1620828.127581672742963 ], [ 371329.877611666510347, 1620830.232007055077702 ], [ 371330.529771280067507, 1620832.325490630697459 ], [ 371331.21795844018925, 1620834.407408994855359 ], [ 371331.941968216153327, 1620836.477142187301069 ], [ 371332.701585009810515, 1620838.534073875285685 ], [ 371333.496582619962282, 1620840.577591539127752 ], [ 371334.326724309532437, 1620842.607086653355509 ], [ 371335.191762876114808, 1620844.621954867616296 ], [ 371336.091440725605935, 1620846.621596188051626 ], [ 371337.025489948922768, 1620848.605415154481307 ], [ 371337.993632401630748, 1620850.57282101851888 ], [ 371338.995579787122551, 1620852.523227919591591 ], [ 371340.031033742066938, 1620854.456055058632046 ], [ 371341.099685925408266, 1620856.370726872235537 ], [ 371342.201218110392801, 1620858.266673202859238 ], [ 371349.612370873044711, 1620866.635054070269689 ], [ 371356.878048570477404, 1620875.130047372775152 ], [ 371363.996088524116203, 1620883.749124517897144 ], [ 371370.964372000773437, 1620892.489719978300855 ], [ 371377.780824843444861, 1620901.349232056178153 ], [ 371384.443418088369071, 1620910.325023657176644 ], [ 371390.950168569164816, 1620919.414423075970262 ], [ 371397.29913950728951, 1620928.614724790677428 ], [ 371403.488441088062245, 1620937.923190268687904 ], [ 371409.516231023822911, 1620947.337048781802878 ], [ 371415.380715101666283, 1620956.853498230688274 ], [ 371421.080147717904765, 1620966.469705979339778 ], [ 371426.612832397513557, 1620976.1828096981626 ], [ 371431.977122299198527, 1620985.989918214967474 ], [ 371437.171420705504715, 1620995.888112377608195 ], [ 371442.194181498023681, 1621005.874445920810103 ], [ 371447.04390961775789, 1621015.945946344174445 ], [ 371451.719161510001868, 1621026.099615796934813 ], [ 371456.218545554205775, 1621036.33243197039701 ], [ 371460.540722477948293, 1621046.641348996432498 ], [ 371464.684405755833723, 1621057.023298356216401 ], [ 371468.648361992207356, 1621067.475189791293815 ], [ 371472.431411288504023, 1621077.993912224890664 ], [ 371476.032427594298497, 1621088.57633468741551 ], [ 371479.450339042465203, 1621099.21930724917911 ], [ 371482.684128268389031, 1621109.919661956140772 ], [ 371485.732832712586969, 1621120.674213774967939 ], [ 371488.595544907497242, 1621131.479761539958417 ], [ 371491.271412747155409, 1621142.333088906249031 ], [ 371493.759639741387218, 1621153.230965306749567 ], [ 371496.059485252364539, 1621164.170146913966164 ], [ 371498.17026471538702, 1621175.147377606248483 ], [ 371500.091349842608906, 1621186.159389935899526 ], [ 371501.822168809827417, 1621197.202906102407724 ], [ 371503.362206427089404, 1621208.274638927541673 ], [ 371504.711004291602876, 1621219.371292834635824 ], [ 371505.868160924525, 1621230.489564828807488 ], [ 371506.833331890287809, 1621241.62614548089914 ], [ 371507.606229899101891, 1621252.777719911653548 ], [ 371508.186624892696273, 1621263.940968778450042 ], [ 371508.574344112537801, 1621275.112569264601916 ], [ 371508.769272151286714, 1621286.289196066791192 ], [ 371508.771350987313781, 1621297.467522385530174 ], [ 371508.580580001871567, 1621308.644220916321501 ], [ 371508.197015979210846, 1621319.815964838024229 ], [ 371507.807427375402767, 1621323.824561944929883 ], [ 371507.487682482867967, 1621327.839333824813366 ], [ 371507.237878212356009, 1621331.859063650714234 ], [ 371507.058090276434086, 1621335.882533091586083 ], [ 371506.94837316655321, 1621339.908522684359923 ], [ 371506.908760136691853, 1621343.935812201350927 ], [ 371506.939263192994986, 1621347.963181020924821 ], [ 371507.039873090398032, 1621351.989408497698605 ], [ 371507.210559335304424, 1621356.013274331809953 ], [ 371507.451270194840617, 1621360.033558939350769 ], [ 371507.761932712455746, 1621364.049043822335079 ], [ 371508.142452730215155, 1621368.05851193703711 ], [ 371508.592714917263947, 1621372.060748063027859 ], [ 371509.112582804693375, 1621376.054539172211662 ], [ 371509.701898826984689, 1621380.038674796232954 ], [ 371510.360484369797632, 1621384.011947392951697 ], [ 371511.088139823987149, 1621387.973152712685987 ], [ 371511.884644646197557, 1621391.921090163290501 ], [ 371512.749757425684948, 1621395.85456317383796 ], [ 371513.683215957542416, 1621399.772379557136446 ], [ 371514.684737322037108, 1621403.673351872246712 ], [ 371515.754017970466521, 1621407.55629778211005 ], [ 371516.890733817068394, 1621411.420040414435789 ], [ 371518.094540337508079, 1621415.263408716768026 ], [ 371519.365072672779206, 1621419.085237811552361 ], [ 371520.701945740438532, 1621422.884369350038469 ], [ 371522.104754350730218, 1621426.659651862457395 ], [ 371523.57307332981145, 1621430.409941107267514 ], [ 371525.10645764839137, 1621434.134100418770686 ], [ 371526.704442556714639, 1621437.831001050071791 ], [ 371528.366543725307565, 1621441.499522516736761 ], [ 371530.092257392010652, 1621445.138552935095504 ], [ 371531.881060514366254, 1621448.746989360079169 ], [ 371533.732410928292666, 1621452.323738119797781 ], [ 371535.645747512520757, 1621455.867715145926923 ], [ 371537.620490358385723, 1621459.377846302697435 ], [ 371539.656040945788845, 1621462.85306771309115 ], [ 371541.751782324688975, 1621466.292326080612838 ], [ 371543.907079301774502, 1621469.694579008501023 ], [ 371546.121278633363545, 1621473.058795316144824 ], [ 371548.393709222960752, 1621476.383955351542681 ], [ 371550.723682325100526, 1621479.669051299570128 ], [ 371553.110491753788665, 1621482.913087488850579 ], [ 371555.553414096764755, 1621486.115080691641197 ], [ 371558.051708934479393, 1621489.274060423951596 ], [ 371560.604619064833969, 1621492.389069237979129 ], [ 371563.211370732286014, 1621495.459163013380021 ], [ 371565.871173862891737, 1621498.483411242486909 ], [ 371568.583222303132061, 1621501.460897313430905 ], [ 371571.346694064908661, 1621504.390718787210062 ], [ 371574.160751574090682, 1621507.271987670799717 ], [ 371577.024541924824007, 1621510.103830687701702 ], [ 371580.294024870207068, 1621511.516052305465564 ], [ 371583.538526956050191, 1621512.984757463913411 ], [ 371586.757072461245116, 1621514.509504478657618 ], [ 371589.94869347056374, 1621516.089834811165929 ], [ 371593.112430165929254, 1621517.725273208227009 ], [ 371596.247331114776898, 1621519.415327843045816 ], [ 371599.352453556377441, 1621521.159490464488044 ], [ 371602.42686368530849, 1621522.957236549584195 ], [ 371605.469636932422873, 1621524.808025460923091 ], [ 371608.479858242499176, 1621526.711300609633327 ], [ 371611.456622349855024, 1621528.666489622788504 ], [ 371614.399034050351474, 1621530.673004515003413 ], [ 371617.306208470719866, 1621532.730241865618154 ], [ 371620.177271334570833, 1621534.837583000771701 ], [ 371623.011359225376509, 1621536.9943941780366 ], [ 371625.807619846134912, 1621539.200026778504252 ], [ 371628.565212275658268, 1621541.45381750096567 ], [ 371631.283307221485302, 1621543.755088561214507 ], [ 371633.961087269126438, 1621546.103147896938026 ], [ 371636.597747128224, 1621548.497289374703541 ], [ 371639.192493874346837, 1621550.936793002765626 ], [ 371641.744547187758144, 1621553.420925147598609 ], [ 371644.253139587875921, 1621555.948938754620031 ], [ 371646.717516664066352, 1621558.520073572872207 ], [ 371649.136937302770093, 1621561.133556383429095 ], [ 371651.510673910088371, 1621563.788601231761277 ], [ 371653.838012630701996, 1621566.48440966475755 ], [ 371656.118253562599421, 1621569.220170970074832 ], [ 371658.350710967497434, 1621571.995062420843169 ], [ 371660.534713477129117, 1621574.808249521767721 ], [ 371662.669604295049794, 1621577.658886261750013 ], [ 371664.754741394193843, 1621580.546115366974846 ], [ 371666.789497710007709, 1621583.469068558886647 ], [ 371668.773261328984518, 1621586.426866816356778 ], [ 371670.70543567254208, 1621589.418620638782158 ], [ 371672.585439676826354, 1621592.443430314073339 ], [ 371674.412707966985181, 1621595.500386189203709 ], [ 371676.186691027542111, 1621598.588568944251165 ], [ 371677.906855367415119, 1621601.707049868069589 ], [ 371679.572683680511545, 1621604.854891137685627 ], [ 371681.183675001258962, 1621608.031146100955084 ], [ 371682.739344855304807, 1621611.234859560849145 ], [ 371684.239225404977333, 1621614.465068062534556 ], [ 371685.682865590322763, 1621617.720800183480605 ], [ 371687.069831264496315, 1621621.001076825195923 ], [ 371688.399705324496608, 1621624.304911507992074 ], [ 371689.672087836428545, 1621627.631310668075457 ], [ 371690.886596155934967, 1621630.979273954872042 ], [ 371692.042865043214988, 1621634.34779453324154 ], [ 371693.14054677268723, 1621637.735859386390075 ], [ 371694.179311237938236, 1621641.142449619015679 ], [ 371695.158846050617285, 1621644.566540765343234 ], [ 371696.078856634674594, 1621648.007103096228093 ], [ 371696.939066314778756, 1621651.463101929286495 ], [ 371697.739216399437282, 1621654.933497939724475 ], [ 371698.47906625905307, 1621658.41724747326225 ], [ 371699.158393398160115, 1621661.913302859989926 ], [ 371699.776993522245903, 1621665.420612728456035 ], [ 371700.334680599335115, 1621668.938122323481366 ], [ 371700.831286915868986, 1621672.464773822342977 ], [ 371701.266663127054926, 1621675.999506652820855 ], [ 371701.640678301919252, 1621679.54125781240873 ], [ 371701.953219962771982, 1621683.088962188223377 ], [ 371702.204194118618034, 1621686.641552876681089 ], [ 371702.393525293911807, 1621690.197961505269632 ], [ 371702.521156551025342, 1621693.757118552923203 ], [ 371702.587049507244956, 1621697.317953672260046 ], [ 371702.591184346529189, 1621700.87939601065591 ], [ 371702.533559825620614, 1621704.440374533878639 ], [ 371702.509844026586507, 1621710.306055264780298 ], [ 371702.585899842320941, 1621716.171290842816234 ], [ 371702.761705268523656, 1621722.034384337486699 ], [ 371703.03720944095403, 1621727.893639437388629 ], [ 371703.412332650914323, 1621733.747360941953957 ], [ 371703.886966367485002, 1621739.593855251325294 ], [ 371704.460973269713577, 1621745.431430856930092 ], [ 371705.13418728573015, 1621751.258398830424994 ], [ 371705.906413641234394, 1621757.073073312407359 ], [ 371706.777428915491328, 1621762.873772000195459 ], [ 371707.746981106232852, 1621768.658816634910181 ], [ 371708.814789702417329, 1621774.426533486228436 ], [ 371709.980545765603893, 1621780.175253837369382 ], [ 371711.24391201895196, 1621785.903314467752352 ], [ 371712.604522945126519, 1621791.609058133792132 ], [ 371714.061984892003238, 1621797.290834048762918 ], [ 371715.61587618640624, 1621802.946998360333964 ], [ 371717.265747256285977, 1621808.575914626242593 ], [ 371719.011120760580525, 1621814.175954287173226 ], [ 371720.851491727633402, 1621819.745497139170766 ], [ 371722.786327700945549, 1621825.282931800698861 ], [ 371724.81506889348384, 1621830.786656180629507 ], [ 371726.937128349440172, 1621836.255077940179035 ], [ 371729.151892114314251, 1621841.686614954611287 ], [ 371731.45871941227233, 1621847.079695770982653 ], [ 371733.856942831596825, 1621852.432760062394664 ], [ 371736.345868517877534, 1621857.744259078986943 ], [ 371738.924776374769863, 1621863.01265609706752 ], [ 371741.592920272203628, 1621868.236426863120869 ], [ 371744.349528262333479, 1621873.414060035254806 ], [ 371747.193802802823484, 1621878.544057619292289 ], [ 371750.124920987815131, 1621883.624935403699055 ], [ 371753.142034785589203, 1621888.65522338822484 ], [ 371761.462347995548043, 1621902.258698838064447 ], [ 371770.00966277270345, 1621915.720703381346539 ], [ 371778.781574281456415, 1621929.037449406925589 ], [ 371787.775614494632464, 1621942.205190172651783 ], [ 371796.989252888073679, 1621955.22022085939534 ], [ 371806.419897152169142, 1621968.078879615059122 ], [ 371816.064893921662588, 1621980.777548582293093 ], [ 371825.921529521932825, 1621993.312654918991029 ], [ 371835.987030732561834, 1622005.680671801324934 ], [ 371846.258565567550249, 1622017.878119417931885 ], [ 371856.733244072296657, 1622029.901565947569907 ], [ 371867.408119136525784, 1622041.747628524899483 ], [ 371878.280187323514838, 1622053.412974193459377 ], [ 371889.346389715035912, 1622064.894320841645822 ], [ 371900.603612772305496, 1622076.188438127283007 ], [ 371912.04868921166053, 1622087.292148386826739 ], [ 371923.678398895775899, 1622098.2023275278043 ], [ 371935.489469739841297, 1622108.915905909612775 ], [ 371947.478578631998971, 1622119.429869205923751 ], [ 371951.376907852070872, 1622122.519062146777287 ], [ 371955.22079059277894, 1622125.675745407817885 ], [ 371959.00905856594909, 1622128.898959564277902 ], [ 371962.74056038656272, 1622132.187724970513955 ], [ 371966.414161922933999, 1622135.541042057564482 ], [ 371970.028746641124599, 1622138.957891636993736 ], [ 371973.583215944643598, 1622142.437235211022198 ], [ 371977.07648950786097, 1622145.97801528708078 ], [ 371980.507505604822654, 1622149.579155700281262 ], [ 371983.87522143177921, 1622153.239561940543354 ], [ 371987.178613424010109, 1622156.958121484145522 ], [ 371990.416677567118313, 1622160.733704133192077 ], [ 371993.588429701921996, 1622164.565162358107045 ], [ 371996.692905823932961, 1622168.451331647112966 ], [ 371999.729162376082968, 1622172.391030859434977 ], [ 372002.696276535512879, 1622176.383062585256994 ], [ 372005.593346494191792, 1622180.426213508704677 ], [ 372008.419491732958704, 1622184.519254776882008 ], [ 372011.17385328898672, 1622188.660942374030128 ], [ 372013.855594017077237, 1622192.850017498945817 ], [ 372016.463898844027426, 1622197.085206947522238 ], [ 372018.997975016303826, 1622201.365223499713466 ], [ 372021.457052340905648, 1622205.688766311621293 ], [ 372023.840383419650607, 1622210.054521309677511 ], [ 372026.147243876359425, 1622214.461161590879783 ], [ 372028.37693257664796, 1622218.907347825588658 ], [ 372030.528771841549315, 1622223.391728664981201 ], [ 372032.602107652986888, 1622227.912941151298583 ], [ 372034.596309853019193, 1622232.469611132750288 ], [ 372036.510772334877402, 1622237.060353680513799 ], [ 372038.344913227658253, 1622241.683773510158062 ], [ 372040.098175072751474, 1622246.338465405162424 ], [ 372041.770024993689731, 1622251.023014644393697 ], [ 372043.359954857733101, 1622255.73599743261002 ], [ 372044.867481430468615, 1622260.475981332128868 ], [ 372046.292146522784606, 1622265.241525698686019 ], [ 372047.633517129870597, 1622270.031182119389996 ], [ 372048.891185563174076, 1622274.843494853004813 ], [ 372050.064769573858939, 1622279.677001272095367 ], [ 372051.153912469511852, 1622284.530232307966799 ], [ 372052.158283222059254, 1622289.401712896768004 ], [ 372053.077576568699442, 1622294.289962427690625 ], [ 372053.911513104627375, 1622299.193495193729177 ], [ 372054.659839367726818, 1622304.110820842906833 ], [ 372055.322327915986534, 1622309.040444830199704 ], [ 372055.898777396359947, 1622313.980868873884901 ], [ 372056.389012605999596, 1622318.930591408861801 ], [ 372056.792884545575362, 1622323.888108044397086 ], [ 372057.45528481900692, 1622377.629364690510556 ], [ 372057.20464654173702, 1622431.37411904358305 ], [ 372056.041042049007956, 1622485.10686012962833 ], [ 372053.964807162294164, 1622538.812080441042781 ], [ 372050.976541092211846, 1622592.474280413938686 ], [ 372047.077106265525799, 1622646.077972899191082 ], [ 372042.267628076369874, 1622699.607687633717433 ], [ 372036.549494561564643, 1622753.047975705005229 ], [ 372036.166957416920923, 1622759.777076236903667 ], [ 372035.667769132589456, 1622766.49852992570959 ], [ 372035.052079880551901, 1622773.210314739029855 ], [ 372034.320074880321044, 1622779.910411552991718 ], [ 372033.471974342886824, 1622786.596804759697989 ], [ 372032.508033404534217, 1622793.267482873750851 ], [ 372031.428542050183751, 1622799.920439137844369 ], [ 372030.233825026021805, 1622806.553672125330195 ], [ 372028.92424174194457, 1622813.165186343481764 ], [ 372027.500186163291801, 1622819.752992833033204 ], [ 372025.962086692510638, 1622826.315109767019749 ], [ 372024.310406040051021, 1622832.849563046125695 ], [ 372022.545641085423995, 1622839.354386893799528 ], [ 372020.668322727433406, 1622845.827624446945265 ], [ 372018.679015724745113, 1622852.267328344052657 ], [ 372016.578318525804207, 1622858.67156131262891 ], [ 372014.366863088856917, 1622865.038396749878302 ], [ 372012.045314691902604, 1622871.365919304313138 ], [ 372009.614371732459404, 1622877.652225450379774 ], [ 372007.074765517434571, 1622883.895424062386155 ], [ 372004.427260043274146, 1622890.093636982142925 ], [ 372001.672651766042691, 1622896.244999585207552 ], [ 371998.811769361724146, 1622902.347661340842023 ], [ 371995.845473477209453, 1622908.399786369409412 ], [ 371992.774656470981427, 1622914.399553993949667 ], [ 371989.600242145068478, 1622920.34515928896144 ], [ 371986.323185466811992, 1622926.234813621966168 ], [ 371982.944472281902563, 1622932.066745192976668 ], [ 371979.465119017462712, 1622937.839199566747993 ], [ 371975.886172376398463, 1622943.550440200371668 ], [ 371972.208709022786934, 1622949.198748966446146 ], [ 371968.433835257543251, 1622954.782426669728011 ], [ 371964.56268668588018, 1622960.29979355703108 ], [ 371960.596427875570953, 1622965.749189825030044 ], [ 371956.536252006713767, 1622971.128976117121056 ], [ 371952.383380512706935, 1622976.437534018419683 ], [ 371948.139062712783925, 1622981.673266540979967 ], [ 371943.804575436282903, 1622986.834598605986685 ], [ 371939.381222638359759, 1622991.919977516168728 ], [ 371934.699924704036675, 1622995.229284649481997 ], [ 371930.075885359721724, 1622998.618137581273913 ], [ 371925.510456117801368, 1623002.085545819252729 ], [ 371921.004971360089257, 1623005.630495910765603 ], [ 371916.560747947951313, 1623009.251951738726348 ], [ 371912.179084837203845, 1623012.948854825925082 ], [ 371907.861262698599603, 1623016.720124642830342 ], [ 371903.608543543552514, 1623020.564658924238756 ], [ 371899.422170355101116, 1623024.481333991046995 ], [ 371895.303366724692751, 1623028.469005079008639 ], [ 371891.25333649473032, 1623032.526506673311815 ], [ 371887.273263406357728, 1623036.652652848977596 ], [ 371883.364310753822792, 1623040.84623761777766 ], [ 371879.527621044253465, 1623045.106035280274227 ], [ 371875.764315663778689, 1623049.430800784146413 ], [ 371872.075494549819268, 1623053.819270089268684 ], [ 371868.462235869490542, 1623058.270160535117611 ], [ 371864.925595704757143, 1623062.78217121749185 ], [ 371861.466607743292116, 1623067.353983367327601 ], [ 371858.086282976728398, 1623071.984260737663135 ], [ 371854.78560940513853, 1623076.671649992233142 ], [ 371851.565551748033613, 1623081.414781103376299 ], [ 371848.427051162580028, 1623086.2122677504085 ], [ 371845.371024968510028, 1623091.062707725446671 ], [ 371842.398366379900835, 1623095.964683344354853 ], [ 371839.509944244346116, 1623100.916761859320104 ], [ 371836.706602788646705, 1623105.917495878878981 ], [ 371833.989161372301169, 1623110.965423790505156 ], [ 371831.358414248097688, 1623116.059070187853649 ], [ 371828.815130329749081, 1623121.19694630196318 ], [ 371826.360052967211232, 1623126.37755043618381 ], [ 371823.993899729568511, 1623131.599368405761197 ], [ 371823.15471142338356, 1623132.757203640881926 ], [ 371822.335722036310472, 1623133.929413446690887 ], [ 371821.53717773722019, 1623135.11564548430033 ], [ 371820.759318549768068, 1623136.315543200587854 ], [ 371820.002378280099947, 1623137.52874593436718 ], [ 371819.266584446653724, 1623138.754889025352895 ], [ 371818.552158211765345, 1623139.993603923823684 ], [ 371817.859314315079246, 1623141.244518301449716 ], [ 371817.188261009287089, 1623142.50725616235286 ], [ 371816.53919999714708, 1623143.781437957659364 ], [ 371815.912326371122617, 1623145.066680698189884 ], [ 371815.307828554708976, 1623146.362598070176318 ], [ 371814.725888245739043, 1623147.668800551211461 ], [ 371814.166680361726321, 1623148.984895527828485 ], [ 371813.630372987419832, 1623150.310487412614748 ], [ 371813.117127324163448, 1623151.64517776411958 ], [ 371812.62709764164174, 1623152.98856540536508 ], [ 371812.160431231139228, 1623154.340246546315029 ], [ 371811.717268361593597, 1623155.699814902618527 ], [ 371811.297742237453349, 1623157.066861820640042 ], [ 371810.901978958281688, 1623158.440976398065686 ], [ 371810.530097481212579, 1623159.821745608467609 ], [ 371810.182209585153032, 1623161.208754424704239 ], [ 371809.858419836964458, 1623162.601585945114493 ], [ 371809.55882556020515, 1623163.999821516918018 ], [ 371809.28351680591004, 1623165.403040863573551 ], [ 371809.032576325407717, 1623166.810822210274637 ], [ 371808.806079545465764, 1623168.22274241107516 ], [ 371808.604094545706175, 1623169.638377076014876 ], [ 371808.426682038058061, 1623171.057300698710606 ], [ 371808.273895348596852, 1623172.479086784180254 ], [ 371808.145780401362572, 1623173.903307976666838 ], [ 371808.042375704681035, 1623175.329536188859493 ], [ 371807.963712339638732, 1623176.757342730415985 ], [ 371807.909813950478565, 1623178.18629843601957 ], [ 371807.880696737905964, 1623179.615973795298487 ], [ 371807.876369453791995, 1623181.045939081348479 ], [ 371807.896833398845047, 1623182.475764480419457 ], [ 371807.942082422086969, 1623183.905020220670849 ], [ 371808.012102922715712, 1623185.333276701392606 ], [ 371808.106873854238074, 1623186.760104621993378 ], [ 371808.226366730756126, 1623188.185075112152845 ], [ 371808.370545635407325, 1623189.607759858714417 ], [ 371808.539367231540382, 1623191.027731236536056 ], [ 371808.732780775346328, 1623192.444562435382977 ], [ 371808.950728131167125, 1623193.857827589148656 ], [ 371809.193143789190799, 1623195.267101903678849 ], [ 371809.459954885067418, 1623196.671961784362793 ], [ 371809.751081221504137, 1623198.071984963025898 ], [ 371810.066435292945243, 1623199.466750625986606 ], [ 371810.405922311241738, 1623200.855839539552107 ], [ 371810.769440234638751, 1623202.238834175746888 ], [ 371811.156879798218142, 1623203.61531883967109 ], [ 371811.568124546727631, 1623204.984879791736603 ], [ 371812.00305086968001, 1623206.34710537455976 ], [ 371812.461528038431425, 1623207.701586135197431 ], [ 371812.943418245587964, 1623209.047914948314428 ], [ 371813.448576646274887, 1623210.385687139350921 ], [ 371813.976851401734166, 1623211.714500605361536 ], [ 371814.528083725075703, 1623213.033955936552957 ], [ 371815.102107928716578, 1623214.343656535260379 ], [ 371815.698751474614255, 1623215.643208736786619 ], [ 371816.317835025663953, 1623216.93222192581743 ], [ 371816.959172499948181, 1623218.210308655630797 ], [ 371817.622571126499679, 1623219.477084763348103 ], [ 371818.307831503334455, 1623220.732169486116618 ], [ 371819.014747657289263, 1623221.975185574498028 ], [ 371819.743107106012758, 1623223.205759407486767 ], [ 371820.492690921761096, 1623224.423521103337407 ], [ 371821.263273797289003, 1623225.628104631789029 ], [ 371822.05462411348708, 1623226.81914792326279 ], [ 371822.866504009172786, 1623227.9962929780595 ], [ 371823.698669452278409, 1623229.159185973927379 ], [ 371824.550870313425548, 1623230.307477373164147 ], [ 371825.422850441129413, 1623231.440822025761008 ], [ 371826.314347738632932, 1623232.558879275340587 ], [ 371827.225094242894556, 1623233.66131306020543 ], [ 371828.154816204914823, 1623234.747792014619336 ], [ 371829.103234172158409, 1623235.81798956845887 ], [ 371830.070063072489575, 1623236.871584045700729 ], [ 371831.055012299853843, 1623237.908258760580793 ], [ 371832.057785801764112, 1623238.927702113054693 ], [ 371833.078082168009132, 1623239.929607682395726 ], [ 371834.115594721573871, 1623240.913674319395795 ], [ 371847.469348726503085, 1623250.276345198508352 ], [ 371860.980586690944619, 1623259.41028195573017 ], [ 371874.64539108669851, 1623268.312836243305355 ], [ 371888.459799859556369, 1623276.981426801998168 ], [ 371902.419807578145992, 1623285.413540209177881 ], [ 371916.521366595232394, 1623293.606731608510017 ], [ 371930.760388221475296, 1623301.558625417063013 ], [ 371945.132743910711724, 1623309.266916016116738 ], [ 371959.634266457171179, 1623316.729368417989463 ], [ 371974.26075120351743, 1623323.943818915635347 ], [ 371989.007957260415424, 1623330.908175708027557 ], [ 372003.871608735644259, 1623337.620419508544728 ], [ 372018.847395974269602, 1623344.078604129841551 ], [ 372033.930976807896513, 1623350.280857047298923 ], [ 372049.117977813933976, 1623356.225379943149164 ], [ 372064.40399558347417, 1623361.910449227085337 ], [ 372079.784597998193931, 1623367.33441653707996 ], [ 372095.255325515172444, 1623372.495709215290844 ], [ 372110.08607117907377, 1623388.425653325859457 ], [ 372124.648483704891987, 1623404.601260818075389 ], [ 372138.938494433241431, 1623421.018012314336374 ], [ 372152.952110812359024, 1623437.671321063535288 ], [ 372166.685417513537686, 1623454.556534220697358 ], [ 372180.134577525081113, 1623471.668934148736298 ], [ 372193.295833224372473, 1623489.003739735344425 ], [ 372206.165507427649572, 1623506.556107729906216 ], [ 372218.740004417544696, 1623524.321134095313028 ], [ 372224.306748154747766, 1623539.164610214298591 ], [ 372229.622926162090153, 1623554.099658607970923 ], [ 372234.687032991729211, 1623569.122049933997914 ], [ 372239.49763457768131, 1623584.227530115516856 ], [ 372244.053368642402347, 1623599.411821546498686 ], [ 372248.352945082238875, 1623614.670624303165823 ], [ 372252.395146332797594, 1623629.999617361463606 ], [ 372256.178827714000363, 1623645.394459820352495 ], [ 372259.702917753835209, 1623660.850792131852359 ], [ 372262.966418492083903, 1623676.36423733481206 ], [ 372265.968405762803741, 1623691.9304022944998 ], [ 372268.708029456145596, 1623707.544878947548568 ], [ 372271.184513758926187, 1623723.203245549229905 ], [ 372273.397157374361996, 1623738.901067925617099 ], [ 372269.648594573198352, 1623747.243887552060187 ], [ 372266.043933629698586, 1623755.649884332437068 ], [ 372262.584238826239016, 1623764.116576381959021 ], [ 372259.270531643938739, 1623772.64146389439702 ], [ 372256.103790460561868, 1623781.222029882250354 ], [ 372253.084950262040365, 1623789.85574091784656 ], [ 372250.214902366220485, 1623798.540047883288935 ], [ 372247.494494159822352, 1623807.272386721335351 ], [ 372244.92452884814702, 1623816.050179193727672 ], [ 372242.50576521793846, 1623824.870833641849458 ], [ 372240.238917413400486, 1623833.731745752040297 ], [ 372238.1246547253686, 1623842.630299324169755 ], [ 372236.163601393578574, 1623851.563867045100778 ], [ 372234.356336422497407, 1623860.529811262851581 ], [ 372232.70339341025101, 1623869.525484766811132 ], [ 372231.205260391230695, 1623878.548231568653136 ], [ 372229.862379691796377, 1623887.595387686276808 ], [ 372228.675147799775004, 1623896.664281931240112 ], [ 372227.643915247579571, 1623905.752236696658656 ], [ 372226.768986508424859, 1623914.856568747432902 ], [ 372226.050619906454813, 1623923.974590013967827 ], [ 372225.489027540781535, 1623933.103608384495601 ], [ 372225.084375222446397, 1623942.240928499959409 ], [ 372224.836782425816637, 1623951.383852550759912 ], [ 372224.746322253078688, 1623960.529681072570384 ], [ 372224.813021412759554, 1623969.67571374331601 ], [ 372232.242729712626897, 1623989.778344268677756 ], [ 372239.33186771592591, 1624010.003586957929656 ], [ 372246.07841321680462, 1624030.345672477036715 ], [ 372252.480441735475324, 1624050.798798162490129 ], [ 372258.536127066938207, 1624071.357129676267505 ], [ 372264.24374180205632, 1624092.01480266964063 ], [ 372269.60165782016702, 1624112.765924456296489 ], [ 372274.608346753811929, 1624133.60457569360733 ], [ 372279.262380424304865, 1624154.524812070420012 ], [ 372283.562431249360088, 1624175.520666002994403 ], [ 372287.507272621849552, 1624196.586148338159546 ], [ 372291.095779259572737, 1624217.715250059962273 ], [ 372294.326927526155487, 1624238.901944005629048 ], [ 372297.199795723310672, 1624260.140186583157629 ], [ 372299.713564353587572, 1624281.423919496824965 ], [ 372304.044524783967063, 1624293.497893688967451 ], [ 372308.572434774367139, 1624305.499397851526737 ], [ 372313.296082363114692, 1624317.425219605211169 ], [ 372318.21420319651952, 1624329.272166828624904 ], [ 372323.32548086711904, 1624341.037068511825055 ], [ 372328.62854726635851, 1624352.716775606153533 ], [ 372334.12198295048438, 1624364.308161866152659 ], [ 372339.804317520698532, 1624375.808124686824158 ], [ 372345.674030016525649, 1624387.213585933903232 ], [ 372351.729549323150422, 1624398.521492768079042 ], [ 372357.96925459173508, 1624409.728818461764604 ], [ 372364.391475673415698, 1624420.832563209580258 ], [ 372370.994493566278834, 1624431.829754930688068 ], [ 372377.776540875493083, 1624442.717450065072626 ], [ 372384.735802286362741, 1624453.492734360974282 ], [ 372399.923846939404029, 1624482.823486578185111 ], [ 372415.583859415608458, 1624511.904988177120686 ], [ 372431.711750493734144, 1624540.729645250132307 ], [ 372448.303308777918573, 1624569.289930958067998 ], [ 372465.354201797046699, 1624597.578387495363131 ], [ 372482.859977136307862, 1624625.587628038134426 ], [ 372500.816063599544577, 1624653.310338672716171 ], [ 372519.217772403382696, 1624680.739280305569991 ], [ 372538.060298401105683, 1624707.86729055410251 ], [ 372557.338721337669995, 1624734.68728561536409 ], [ 372577.048007134348154, 1624761.192262117750943 ], [ 372583.736873770074453, 1624770.558174071833491 ], [ 372590.58761288394453, 1624779.806342387571931 ], [ 372597.598152296035551, 1624788.933969721663743 ], [ 372604.766371490957681, 1624797.938295192085207 ], [ 372612.090102258953266, 1624806.816595211625099 ], [ 372619.56712935178075, 1624815.566184313734993 ], [ 372627.195191152917687, 1624824.184415963012725 ], [ 372634.97198036161717, 1624832.66868335660547 ], [ 372642.895144690701272, 1624841.016420212574303 ], [ 372650.962287578033283, 1624849.225101546151564 ], [ 372659.170968911668751, 1624857.292244433425367 ], [ 372667.518705767579377, 1624865.215408762451261 ], [ 372676.002973161113914, 1624872.992197971092537 ], [ 372684.621204810333438, 1624880.620259772287682 ], [ 372693.370793912385125, 1624888.097286865115166 ], [ 372702.24909393209964, 1624895.421017633052543 ], [ 372711.253419402346481, 1624902.589236828032881 ], [ 372720.381046736612916, 1624909.599776240298524 ], [ 372729.629215052293148, 1624916.450515354052186 ], [ 372738.995127006317489, 1624923.139381989836693 ], [ 372744.343117787269875, 1624925.194434256758541 ], [ 372749.655846976034809, 1624927.338998030405492 ], [ 372754.931816504045855, 1624929.572468592552468 ], [ 372760.16953866800759, 1624931.89421615563333 ], [ 372765.367536549514625, 1624934.303586039226502 ], [ 372770.524344431527425, 1624936.799898856319487 ], [ 372775.638508211646695, 1624939.382450703531504 ], [ 372780.708585812186357, 1624942.050513359718025 ], [ 372785.733147586637642, 1624944.803334492258728 ], [ 372790.710776723048184, 1624947.640137868002057 ], [ 372795.640069643326569, 1624950.560123573290184 ], [ 372800.519636399112642, 1624953.562468238407746 ], [ 372805.348101063689683, 1624956.64632527064532 ], [ 372810.124102119996678, 1624959.810825092718005 ], [ 372814.846292844449636, 1624963.055075387470424 ], [ 372819.513341686804779, 1624966.378161350032315 ], [ 372824.123932645597961, 1624969.779145946260542 ], [ 372828.676765639102086, 1624973.257070175837725 ], [ 372833.170556872151792, 1624976.81095334305428 ], [ 372837.604039197904058, 1624980.439793334109709 ], [ 372841.975962475291453, 1624984.142566898372024 ], [ 372846.285093921527732, 1624987.918229938484728 ], [ 372883.198057804780547, 1624985.962215042905882 ], [ 372920.138982794305775, 1624984.635204177349806 ], [ 372957.097151318914257, 1624983.937582343816757 ], [ 373348.321165524772368, 1624963.62616195785813 ] ] ] } }
]
}
