{
"type": "FeatureCollection",
"name": "imp_CRI_OATV",
"crs": { "type": "name", "properties": { "name": "urn:ogc:def:crs:OGC:1.3:CRS84" } },
"features": [
{ "type": "Feature", "properties": { "Latitud Origen": 14.309009, "Longitud Origen": -88.168697, "Usuario Origen": "Oscar Aroldo Torres Velasquez/Clint Onasis Bodden Martinez/ROSE MARIE BODDEN FORDS" }, "geometry": { "type": "Point", "coordinates": [ -88.168697, 14.309009 ] } },
{ "type": "Feature", "properties": { "Latitud Origen": 14.30947222, "Longitud Origen": -88.168275, "Usuario Origen": "Oscar Aroldo Torres Velasquez/Clint Onasis Bodden Martinez/ROSE MARIE BODDEN FORDS" }, "geometry": { "type": "Point", "coordinates": [ -88.168275, 14.30947222 ] } },
{ "type": "Feature", "properties": { "Latitud Origen": 14.30991944, "Longitud Origen": -88.17665, "Usuario Origen": "Oscar Aroldo Torres Velasquez/Clint Onasis Bodden Martinez/ROSE MARIE BODDEN FORDS" }, "geometry": { "type": "Point", "coordinates": [ -88.17665, 14.30991944 ] } },
{ "type": "Feature", "properties": { "Latitud Origen": 14.80358605, "Longitud Origen": -88.0147208, "Usuario Origen": "Oscar Aroldo Torres Velasquez/Clint Onasis Bodden Martinez/ROSE MARIE BODDEN FORDS" }, "geometry": { "type": "Point", "coordinates": [ -88.0147208, 14.80358605 ] } },
{ "type": "Feature", "properties": { "Latitud Origen": 15.36307, "Longitud Origen": -86.75321, "Usuario Origen": "Oscar Aroldo Torres Velasquez/Clint Onasis Bodden Martinez/ROSE MARIE BODDEN FORDS" }, "geometry": { "type": "Point", "coordinates": [ -86.75321, 15.36307 ] } },
{ "type": "Feature", "properties": { "Latitud Origen": 15.38485, "Longitud Origen": -86.69055, "Usuario Origen": "Oscar Aroldo Torres Velasquez/Clint Onasis Bodden Martinez/ROSE MARIE BODDEN FORDS" }, "geometry": { "type": "Point", "coordinates": [ -86.69055, 15.38485 ] } },
{ "type": "Feature", "properties": { "Latitud Origen": 15.512286, "Longitud Origen": -86.229427, "Usuario Origen": "Oscar Aroldo Torres Velasquez/Clint Onasis Bodden Martinez/ROSE MARIE BODDEN FORDS" }, "geometry": { "type": "Point", "coordinates": [ -86.229427, 15.512286 ] } },
{ "type": "Feature", "properties": { "Latitud Origen": 15.59067111, "Longitud Origen": -87.2369135, "Usuario Origen": "Oscar Aroldo Torres Velasquez/Clint Onasis Bodden Martinez/ROSE MARIE BODDEN FORDS" }, "geometry": { "type": "Point", "coordinates": [ -87.2369135, 15.59067111 ] } },
{ "type": "Feature", "properties": { "Latitud Origen": 15.59841709, "Longitud Origen": -87.2058994, "Usuario Origen": "Oscar Aroldo Torres Velasquez/Clint Onasis Bodden Martinez/ROSE MARIE BODDEN FORDS" }, "geometry": { "type": "Point", "coordinates": [ -87.2058994, 15.59841709 ] } },
{ "type": "Feature", "properties": { "Latitud Origen": 15.60120833, "Longitud Origen": -87.2126306, "Usuario Origen": "Oscar Aroldo Torres Velasquez/Clint Onasis Bodden Martinez/ROSE MARIE BODDEN FORDS" }, "geometry": { "type": "Point", "coordinates": [ -87.2126306, 15.60120833 ] } },
{ "type": "Feature", "properties": { "Latitud Origen": 15.606049, "Longitud Origen": -87.174817, "Usuario Origen": "Oscar Aroldo Torres Velasquez/Clint Onasis Bodden Martinez/ROSE MARIE BODDEN FORDS" }, "geometry": { "type": "Point", "coordinates": [ -87.174817, 15.606049 ] } },
{ "type": "Feature", "properties": { "Latitud Origen": 15.615027, "Longitud Origen": -87.127401, "Usuario Origen": "Oscar Aroldo Torres Velasquez/Clint Onasis Bodden Martinez/ROSE MARIE BODDEN FORDS" }, "geometry": { "type": "Point", "coordinates": [ -87.127401, 15.615027 ] } },
{ "type": "Feature", "properties": { "Latitud Origen": 15.61608333, "Longitud Origen": -87.3416667, "Usuario Origen": "Oscar Aroldo Torres Velasquez/Clint Onasis Bodden Martinez/ROSE MARIE BODDEN FORDS" }, "geometry": { "type": "Point", "coordinates": [ -87.3416667, 15.61608333 ] } },
{ "type": "Feature", "properties": { "Latitud Origen": 15.62088889, "Longitud Origen": -87.0948333, "Usuario Origen": "Oscar Aroldo Torres Velasquez/Clint Onasis Bodden Martinez/ROSE MARIE BODDEN FORDS" }, "geometry": { "type": "Point", "coordinates": [ -87.0948333, 15.62088889 ] } },
{ "type": "Feature", "properties": { "Latitud Origen": 15.63514294, "Longitud Origen": -87.304663, "Usuario Origen": "Oscar Aroldo Torres Velasquez/Clint Onasis Bodden Martinez/ROSE MARIE BODDEN FORDS" }, "geometry": { "type": "Point", "coordinates": [ -87.304663, 15.63514294 ] } },
{ "type": "Feature", "properties": { "Latitud Origen": 15.63969678, "Longitud Origen": -87.0998099, "Usuario Origen": "Oscar Aroldo Torres Velasquez/Clint Onasis Bodden Martinez/ROSE MARIE BODDEN FORDS" }, "geometry": { "type": "Point", "coordinates": [ -87.0998099, 15.63969678 ] } },
{ "type": "Feature", "properties": { "Latitud Origen": 15.66863889, "Longitud Origen": -87.0426389, "Usuario Origen": "Oscar Aroldo Torres Velasquez/Clint Onasis Bodden Martinez/ROSE MARIE BODDEN FORDS" }, "geometry": { "type": "Point", "coordinates": [ -87.0426389, 15.66863889 ] } },
{ "type": "Feature", "properties": { "Latitud Origen": 15.68541342, "Longitud Origen": -87.3263876, "Usuario Origen": "Oscar Aroldo Torres Velasquez/Clint Onasis Bodden Martinez/ROSE MARIE BODDEN FORDS" }, "geometry": { "type": "Point", "coordinates": [ -87.3263876, 15.68541342 ] } },
{ "type": "Feature", "properties": { "Latitud Origen": 15.70541667, "Longitud Origen": -86.9476111, "Usuario Origen": "Oscar Aroldo Torres Velasquez/Clint Onasis Bodden Martinez/ROSE MARIE BODDEN FORDS" }, "geometry": { "type": "Point", "coordinates": [ -86.9476111, 15.70541667 ] } },
{ "type": "Feature", "properties": { "Latitud Origen": 15.71122222, "Longitud Origen": -86.9145556, "Usuario Origen": "Oscar Aroldo Torres Velasquez/Clint Onasis Bodden Martinez/ROSE MARIE BODDEN FORDS" }, "geometry": { "type": "Point", "coordinates": [ -86.9145556, 15.71122222 ] } },
{ "type": "Feature", "properties": { "Latitud Origen": 15.71130556, "Longitud Origen": -86.9074444, "Usuario Origen": "Oscar Aroldo Torres Velasquez/Clint Onasis Bodden Martinez/ROSE MARIE BODDEN FORDS" }, "geometry": { "type": "Point", "coordinates": [ -86.9074444, 15.71130556 ] } },
{ "type": "Feature", "properties": { "Latitud Origen": 15.74577577, "Longitud Origen": -86.888393, "Usuario Origen": "Oscar Aroldo Torres Velasquez/Clint Onasis Bodden Martinez/ROSE MARIE BODDEN FORDS" }, "geometry": { "type": "Point", "coordinates": [ -86.888393, 15.74577577 ] } },
{ "type": "Feature", "properties": { "Latitud Origen": 15.74987062, "Longitud Origen": -86.8544087, "Usuario Origen": "Oscar Aroldo Torres Velasquez/Clint Onasis Bodden Martinez/ROSE MARIE BODDEN FORDS" }, "geometry": { "type": "Point", "coordinates": [ -86.8544087, 15.74987062 ] } },
{ "type": "Feature", "properties": { "Latitud Origen": 15.756075, "Longitud Origen": -86.8170833, "Usuario Origen": "Oscar Aroldo Torres Velasquez/Clint Onasis Bodden Martinez/ROSE MARIE BODDEN FORDS" }, "geometry": { "type": "Point", "coordinates": [ -86.8170833, 15.756075 ] } },
{ "type": "Feature", "properties": { "Latitud Origen": 15.75608333, "Longitud Origen": -86.8170833, "Usuario Origen": "Oscar Aroldo Torres Velasquez/Clint Onasis Bodden Martinez/ROSE MARIE BODDEN FORDS" }, "geometry": { "type": "Point", "coordinates": [ -86.8170833, 15.75608333 ] } },
{ "type": "Feature", "properties": { "Latitud Origen": 15.75622222, "Longitud Origen": -86.7890278, "Usuario Origen": "Oscar Aroldo Torres Velasquez/Clint Onasis Bodden Martinez/ROSE MARIE BODDEN FORDS" }, "geometry": { "type": "Point", "coordinates": [ -86.7890278, 15.75622222 ] } },
{ "type": "Feature", "properties": { "Latitud Origen": 15.75674583, "Longitud Origen": -86.804108, "Usuario Origen": "Oscar Aroldo Torres Velasquez/Clint Onasis Bodden Martinez/ROSE MARIE BODDEN FORDS" }, "geometry": { "type": "Point", "coordinates": [ -86.804108, 15.75674583 ] } },
{ "type": "Feature", "properties": { "Latitud Origen": 15.75675, "Longitud Origen": -86.8041111, "Usuario Origen": "Oscar Aroldo Torres Velasquez/Clint Onasis Bodden Martinez/ROSE MARIE BODDEN FORDS" }, "geometry": { "type": "Point", "coordinates": [ -86.8041111, 15.75675 ] } },
{ "type": "Feature", "properties": { "Latitud Origen": 15.760434, "Longitud Origen": -86.761101, "Usuario Origen": "Oscar Aroldo Torres Velasquez/Clint Onasis Bodden Martinez/ROSE MARIE BODDEN FORDS" }, "geometry": { "type": "Point", "coordinates": [ -86.761101, 15.760434 ] } },
{ "type": "Feature", "properties": { "Latitud Origen": 15.76044444, "Longitud Origen": -86.7610556, "Usuario Origen": "Oscar Aroldo Torres Velasquez/Clint Onasis Bodden Martinez/ROSE MARIE BODDEN FORDS" }, "geometry": { "type": "Point", "coordinates": [ -86.7610556, 15.76044444 ] } },
{ "type": "Feature", "properties": { "Latitud Origen": 15.7605, "Longitud Origen": -86.8132222, "Usuario Origen": "Oscar Aroldo Torres Velasquez/Clint Onasis Bodden Martinez/ROSE MARIE BODDEN FORDS" }, "geometry": { "type": "Point", "coordinates": [ -86.8132222, 15.7605 ] } },
{ "type": "Feature", "properties": { "Latitud Origen": 15.760855, "Longitud Origen": -86.809771, "Usuario Origen": "Oscar Aroldo Torres Velasquez/Clint Onasis Bodden Martinez/ROSE MARIE BODDEN FORDS" }, "geometry": { "type": "Point", "coordinates": [ -86.809771, 15.760855 ] } },
{ "type": "Feature", "properties": { "Latitud Origen": 15.76105398, "Longitud Origen": -86.8095558, "Usuario Origen": "Oscar Aroldo Torres Velasquez/Clint Onasis Bodden Martinez/ROSE MARIE BODDEN FORDS" }, "geometry": { "type": "Point", "coordinates": [ -86.8095558, 15.76105398 ] } },
{ "type": "Feature", "properties": { "Latitud Origen": 15.76224724, "Longitud Origen": -86.8200851, "Usuario Origen": "Oscar Aroldo Torres Velasquez/Clint Onasis Bodden Martinez/ROSE MARIE BODDEN FORDS" }, "geometry": { "type": "Point", "coordinates": [ -86.8200851, 15.76224724 ] } },
{ "type": "Feature", "properties": { "Latitud Origen": 15.76224908, "Longitud Origen": -86.8200824, "Usuario Origen": "Oscar Aroldo Torres Velasquez/Clint Onasis Bodden Martinez/ROSE MARIE BODDEN FORDS" }, "geometry": { "type": "Point", "coordinates": [ -86.8200824, 15.76224908 ] } },
{ "type": "Feature", "properties": { "Latitud Origen": 15.76247222, "Longitud Origen": -86.7885556, "Usuario Origen": "Oscar Aroldo Torres Velasquez/Clint Onasis Bodden Martinez/ROSE MARIE BODDEN FORDS" }, "geometry": { "type": "Point", "coordinates": [ -86.7885556, 15.76247222 ] } },
{ "type": "Feature", "properties": { "Latitud Origen": 15.7636, "Longitud Origen": -86.78868, "Usuario Origen": "Oscar Aroldo Torres Velasquez/Clint Onasis Bodden Martinez/ROSE MARIE BODDEN FORDS" }, "geometry": { "type": "Point", "coordinates": [ -86.78868, 15.7636 ] } },
{ "type": "Feature", "properties": { "Latitud Origen": 15.76577143, "Longitud Origen": -86.8076002, "Usuario Origen": "Oscar Aroldo Torres Velasquez/Clint Onasis Bodden Martinez/ROSE MARIE BODDEN FORDS" }, "geometry": { "type": "Point", "coordinates": [ -86.8076002, 15.76577143 ] } },
{ "type": "Feature", "properties": { "Latitud Origen": 15.76643, "Longitud Origen": -86.78384, "Usuario Origen": "Oscar Aroldo Torres Velasquez/Clint Onasis Bodden Martinez/ROSE MARIE BODDEN FORDS" }, "geometry": { "type": "Point", "coordinates": [ -86.78384, 15.76643 ] } },
{ "type": "Feature", "properties": { "Latitud Origen": 15.7665274, "Longitud Origen": -86.775662, "Usuario Origen": "Oscar Aroldo Torres Velasquez/Clint Onasis Bodden Martinez/ROSE MARIE BODDEN FORDS" }, "geometry": { "type": "Point", "coordinates": [ -86.775662, 15.7665274 ] } },
{ "type": "Feature", "properties": { "Latitud Origen": 15.76717, "Longitud Origen": -86.76979, "Usuario Origen": "Oscar Aroldo Torres Velasquez/Clint Onasis Bodden Martinez/ROSE MARIE BODDEN FORDS" }, "geometry": { "type": "Point", "coordinates": [ -86.76979, 15.76717 ] } },
{ "type": "Feature", "properties": { "Latitud Origen": 15.767172, "Longitud Origen": -86.769789, "Usuario Origen": "Oscar Aroldo Torres Velasquez/Clint Onasis Bodden Martinez/ROSE MARIE BODDEN FORDS" }, "geometry": { "type": "Point", "coordinates": [ -86.769789, 15.767172 ] } },
{ "type": "Feature", "properties": { "Latitud Origen": 15.76869444, "Longitud Origen": -86.7411667, "Usuario Origen": "Oscar Aroldo Torres Velasquez/Clint Onasis Bodden Martinez/ROSE MARIE BODDEN FORDS" }, "geometry": { "type": "Point", "coordinates": [ -86.7411667, 15.76869444 ] } },
{ "type": "Feature", "properties": { "Latitud Origen": 15.76947223, "Longitud Origen": -86.7931945, "Usuario Origen": "Oscar Aroldo Torres Velasquez/Clint Onasis Bodden Martinez/ROSE MARIE BODDEN FORDS" }, "geometry": { "type": "Point", "coordinates": [ -86.7931945, 15.76947223 ] } },
{ "type": "Feature", "properties": { "Latitud Origen": 15.769583, "Longitud Origen": -86.798, "Usuario Origen": "Oscar Aroldo Torres Velasquez/Clint Onasis Bodden Martinez/ROSE MARIE BODDEN FORDS" }, "geometry": { "type": "Point", "coordinates": [ -86.798, 15.769583 ] } },
{ "type": "Feature", "properties": { "Latitud Origen": 15.771551, "Longitud Origen": -86.79142, "Usuario Origen": "Oscar Aroldo Torres Velasquez/Clint Onasis Bodden Martinez/ROSE MARIE BODDEN FORDS" }, "geometry": { "type": "Point", "coordinates": [ -86.79142, 15.771551 ] } },
{ "type": "Feature", "properties": { "Latitud Origen": 15.77161044, "Longitud Origen": -86.8062503, "Usuario Origen": "Oscar Aroldo Torres Velasquez/Clint Onasis Bodden Martinez/ROSE MARIE BODDEN FORDS" }, "geometry": { "type": "Point", "coordinates": [ -86.8062503, 15.77161044 ] } },
{ "type": "Feature", "properties": { "Latitud Origen": 15.771938, "Longitud Origen": -86.780277, "Usuario Origen": "Oscar Aroldo Torres Velasquez/Clint Onasis Bodden Martinez/ROSE MARIE BODDEN FORDS" }, "geometry": { "type": "Point", "coordinates": [ -86.780277, 15.771938 ] } },
{ "type": "Feature", "properties": { "Latitud Origen": 15.771944, "Longitud Origen": -86.780278, "Usuario Origen": "Oscar Aroldo Torres Velasquez/Clint Onasis Bodden Martinez/ROSE MARIE BODDEN FORDS" }, "geometry": { "type": "Point", "coordinates": [ -86.780278, 15.771944 ] } },
{ "type": "Feature", "properties": { "Latitud Origen": 15.77228, "Longitud Origen": -86.79282, "Usuario Origen": "Oscar Aroldo Torres Velasquez/Clint Onasis Bodden Martinez/ROSE MARIE BODDEN FORDS" }, "geometry": { "type": "Point", "coordinates": [ -86.79282, 15.77228 ] } },
{ "type": "Feature", "properties": { "Latitud Origen": 15.772988, "Longitud Origen": -86.771979, "Usuario Origen": "Oscar Aroldo Torres Velasquez/Clint Onasis Bodden Martinez/ROSE MARIE BODDEN FORDS" }, "geometry": { "type": "Point", "coordinates": [ -86.771979, 15.772988 ] } },
{ "type": "Feature", "properties": { "Latitud Origen": 15.77327872, "Longitud Origen": -86.7826379, "Usuario Origen": "Oscar Aroldo Torres Velasquez/Clint Onasis Bodden Martinez/ROSE MARIE BODDEN FORDS" }, "geometry": { "type": "Point", "coordinates": [ -86.7826379, 15.77327872 ] } },
{ "type": "Feature", "properties": { "Latitud Origen": 15.7743, "Longitud Origen": -86.774599, "Usuario Origen": "Oscar Aroldo Torres Velasquez/Clint Onasis Bodden Martinez/ROSE MARIE BODDEN FORDS" }, "geometry": { "type": "Point", "coordinates": [ -86.774599, 15.7743 ] } },
{ "type": "Feature", "properties": { "Latitud Origen": 15.774301, "Longitud Origen": -86.774598, "Usuario Origen": "Oscar Aroldo Torres Velasquez/Clint Onasis Bodden Martinez/ROSE MARIE BODDEN FORDS" }, "geometry": { "type": "Point", "coordinates": [ -86.774598, 15.774301 ] } },
{ "type": "Feature", "properties": { "Latitud Origen": 15.77430556, "Longitud Origen": -86.7746111, "Usuario Origen": "Oscar Aroldo Torres Velasquez/Clint Onasis Bodden Martinez/ROSE MARIE BODDEN FORDS" }, "geometry": { "type": "Point", "coordinates": [ -86.7746111, 15.77430556 ] } },
{ "type": "Feature", "properties": { "Latitud Origen": 15.77433581, "Longitud Origen": -86.7984961, "Usuario Origen": "Oscar Aroldo Torres Velasquez/Clint Onasis Bodden Martinez/ROSE MARIE BODDEN FORDS" }, "geometry": { "type": "Point", "coordinates": [ -86.7984961, 15.77433581 ] } },
{ "type": "Feature", "properties": { "Latitud Origen": 15.775247, "Longitud Origen": -86.774667, "Usuario Origen": "Oscar Aroldo Torres Velasquez/Clint Onasis Bodden Martinez/ROSE MARIE BODDEN FORDS" }, "geometry": { "type": "Point", "coordinates": [ -86.774667, 15.775247 ] } },
{ "type": "Feature", "properties": { "Latitud Origen": 15.77586111, "Longitud Origen": -86.793, "Usuario Origen": "Oscar Aroldo Torres Velasquez/Clint Onasis Bodden Martinez/ROSE MARIE BODDEN FORDS" }, "geometry": { "type": "Point", "coordinates": [ -86.793, 15.77586111 ] } },
{ "type": "Feature", "properties": { "Latitud Origen": 15.7775, "Longitud Origen": -86.7823333, "Usuario Origen": "Oscar Aroldo Torres Velasquez/Clint Onasis Bodden Martinez/ROSE MARIE BODDEN FORDS" }, "geometry": { "type": "Point", "coordinates": [ -86.7823333, 15.7775 ] } },
{ "type": "Feature", "properties": { "Latitud Origen": 15.777558, "Longitud Origen": -86.785994, "Usuario Origen": "Oscar Aroldo Torres Velasquez/Clint Onasis Bodden Martinez/ROSE MARIE BODDEN FORDS" }, "geometry": { "type": "Point", "coordinates": [ -86.785994, 15.777558 ] } },
{ "type": "Feature", "properties": { "Latitud Origen": 15.77780388, "Longitud Origen": -86.7698051, "Usuario Origen": "Oscar Aroldo Torres Velasquez/Clint Onasis Bodden Martinez/ROSE MARIE BODDEN FORDS" }, "geometry": { "type": "Point", "coordinates": [ -86.7698051, 15.77780388 ] } },
{ "type": "Feature", "properties": { "Latitud Origen": 15.777806, "Longitud Origen": -86.769802, "Usuario Origen": "Oscar Aroldo Torres Velasquez/Clint Onasis Bodden Martinez/ROSE MARIE BODDEN FORDS" }, "geometry": { "type": "Point", "coordinates": [ -86.769802, 15.777806 ] } },
{ "type": "Feature", "properties": { "Latitud Origen": 15.77780628, "Longitud Origen": -86.7698024, "Usuario Origen": "Oscar Aroldo Torres Velasquez/Clint Onasis Bodden Martinez/ROSE MARIE BODDEN FORDS" }, "geometry": { "type": "Point", "coordinates": [ -86.7698024, 15.77780628 ] } },
{ "type": "Feature", "properties": { "Latitud Origen": 15.77847223, "Longitud Origen": -86.7950556, "Usuario Origen": "Oscar Aroldo Torres Velasquez/Clint Onasis Bodden Martinez/ROSE MARIE BODDEN FORDS" }, "geometry": { "type": "Point", "coordinates": [ -86.7950556, 15.77847223 ] } },
{ "type": "Feature", "properties": { "Latitud Origen": 15.77861111, "Longitud Origen": -86.7874444, "Usuario Origen": "Oscar Aroldo Torres Velasquez/Clint Onasis Bodden Martinez/ROSE MARIE BODDEN FORDS" }, "geometry": { "type": "Point", "coordinates": [ -86.7874444, 15.77861111 ] } },
{ "type": "Feature", "properties": { "Latitud Origen": 15.778787, "Longitud Origen": -86.724029, "Usuario Origen": "Oscar Aroldo Torres Velasquez/Clint Onasis Bodden Martinez/ROSE MARIE BODDEN FORDS" }, "geometry": { "type": "Point", "coordinates": [ -86.724029, 15.778787 ] } },
{ "type": "Feature", "properties": { "Latitud Origen": 15.77952516, "Longitud Origen": -86.7912767, "Usuario Origen": "Oscar Aroldo Torres Velasquez/Clint Onasis Bodden Martinez/ROSE MARIE BODDEN FORDS" }, "geometry": { "type": "Point", "coordinates": [ -86.7912767, 15.77952516 ] } },
{ "type": "Feature", "properties": { "Latitud Origen": 15.779779, "Longitud Origen": -86.79103, "Usuario Origen": "Oscar Aroldo Torres Velasquez/Clint Onasis Bodden Martinez/ROSE MARIE BODDEN FORDS" }, "geometry": { "type": "Point", "coordinates": [ -86.79103, 15.779779 ] } },
{ "type": "Feature", "properties": { "Latitud Origen": 15.780951, "Longitud Origen": -86.724212, "Usuario Origen": "Oscar Aroldo Torres Velasquez/Clint Onasis Bodden Martinez/ROSE MARIE BODDEN FORDS" }, "geometry": { "type": "Point", "coordinates": [ -86.724212, 15.780951 ] } },
{ "type": "Feature", "properties": { "Latitud Origen": 15.78159, "Longitud Origen": -86.787483, "Usuario Origen": "Oscar Aroldo Torres Velasquez/Clint Onasis Bodden Martinez/ROSE MARIE BODDEN FORDS" }, "geometry": { "type": "Point", "coordinates": [ -86.787483, 15.78159 ] } },
{ "type": "Feature", "properties": { "Latitud Origen": 15.782444, "Longitud Origen": -86.773556, "Usuario Origen": "Oscar Aroldo Torres Velasquez/Clint Onasis Bodden Martinez/ROSE MARIE BODDEN FORDS" }, "geometry": { "type": "Point", "coordinates": [ -86.773556, 15.782444 ] } },
{ "type": "Feature", "properties": { "Latitud Origen": 15.782446, "Longitud Origen": -86.773562, "Usuario Origen": "Oscar Aroldo Torres Velasquez/Clint Onasis Bodden Martinez/ROSE MARIE BODDEN FORDS" }, "geometry": { "type": "Point", "coordinates": [ -86.773562, 15.782446 ] } },
{ "type": "Feature", "properties": { "Latitud Origen": 15.78255556, "Longitud Origen": -86.8006389, "Usuario Origen": "Oscar Aroldo Torres Velasquez/Clint Onasis Bodden Martinez/ROSE MARIE BODDEN FORDS" }, "geometry": { "type": "Point", "coordinates": [ -86.8006389, 15.78255556 ] } },
{ "type": "Feature", "properties": { "Latitud Origen": 15.78461111, "Longitud Origen": -86.7912778, "Usuario Origen": "Oscar Aroldo Torres Velasquez/Clint Onasis Bodden Martinez/ROSE MARIE BODDEN FORDS" }, "geometry": { "type": "Point", "coordinates": [ -86.7912778, 15.78461111 ] } },
{ "type": "Feature", "properties": { "Latitud Origen": 15.78536111, "Longitud Origen": -86.78625, "Usuario Origen": "Oscar Aroldo Torres Velasquez/Clint Onasis Bodden Martinez/ROSE MARIE BODDEN FORDS" }, "geometry": { "type": "Point", "coordinates": [ -86.78625, 15.78536111 ] } },
{ "type": "Feature", "properties": { "Latitud Origen": 15.78563, "Longitud Origen": -86.7863, "Usuario Origen": "Oscar Aroldo Torres Velasquez/Clint Onasis Bodden Martinez/ROSE MARIE BODDEN FORDS" }, "geometry": { "type": "Point", "coordinates": [ -86.7863, 15.78563 ] } },
{ "type": "Feature", "properties": { "Latitud Origen": 15.786106, "Longitud Origen": -86.790598, "Usuario Origen": "Oscar Aroldo Torres Velasquez/Clint Onasis Bodden Martinez/ROSE MARIE BODDEN FORDS" }, "geometry": { "type": "Point", "coordinates": [ -86.790598, 15.786106 ] } },
{ "type": "Feature", "properties": { "Latitud Origen": 15.7865, "Longitud Origen": -86.7944167, "Usuario Origen": "Oscar Aroldo Torres Velasquez/Clint Onasis Bodden Martinez/ROSE MARIE BODDEN FORDS" }, "geometry": { "type": "Point", "coordinates": [ -86.7944167, 15.7865 ] } },
{ "type": "Feature", "properties": { "Latitud Origen": 15.787062, "Longitud Origen": -86.784984, "Usuario Origen": "Oscar Aroldo Torres Velasquez/Clint Onasis Bodden Martinez/ROSE MARIE BODDEN FORDS" }, "geometry": { "type": "Point", "coordinates": [ -86.784984, 15.787062 ] } },
{ "type": "Feature", "properties": { "Latitud Origen": 15.78772372, "Longitud Origen": -86.7900265, "Usuario Origen": "Oscar Aroldo Torres Velasquez/Clint Onasis Bodden Martinez/ROSE MARIE BODDEN FORDS" }, "geometry": { "type": "Point", "coordinates": [ -86.7900265, 15.78772372 ] } },
{ "type": "Feature", "properties": { "Latitud Origen": 15.78772617, "Longitud Origen": -86.7900239, "Usuario Origen": "Oscar Aroldo Torres Velasquez/Clint Onasis Bodden Martinez/ROSE MARIE BODDEN FORDS" }, "geometry": { "type": "Point", "coordinates": [ -86.7900239, 15.78772617 ] } },
{ "type": "Feature", "properties": { "Latitud Origen": 15.78893889, "Longitud Origen": -86.779475, "Usuario Origen": "Oscar Aroldo Torres Velasquez/Clint Onasis Bodden Martinez/ROSE MARIE BODDEN FORDS" }, "geometry": { "type": "Point", "coordinates": [ -86.779475, 15.78893889 ] } },
{ "type": "Feature", "properties": { "Latitud Origen": 15.792099, "Longitud Origen": -86.789933, "Usuario Origen": "Oscar Aroldo Torres Velasquez/Clint Onasis Bodden Martinez/ROSE MARIE BODDEN FORDS" }, "geometry": { "type": "Point", "coordinates": [ -86.789933, 15.792099 ] } },
{ "type": "Feature", "properties": { "Latitud Origen": 15.79338889, "Longitud Origen": -86.7866667, "Usuario Origen": "Oscar Aroldo Torres Velasquez/Clint Onasis Bodden Martinez/ROSE MARIE BODDEN FORDS" }, "geometry": { "type": "Point", "coordinates": [ -86.7866667, 15.79338889 ] } }
]
}
