{
"type": "FeatureCollection",
"name": "imp_DESA_JAAM",
"crs": { "type": "name", "properties": { "name": "urn:ogc:def:crs:OGC:1.3:CRS84" } },
"features": [
{ "type": "Feature", "properties": { "Latitud Origen": 14.04177307, "Longitud Origen": -87.2172611, "Usuario Origen": "Jorge Alberto Avila Menjivar/Jorge Seguridad DESA/POTENCIA Y ENERGIA DE MESOAMERICA S.A. DE CV (paga)/SEGURIDAD PHAZ" }, "geometry": { "type": "Point", "coordinates": [ -87.2172611, 14.04177307 ] } },
{ "type": "Feature", "properties": { "Latitud Origen": 14.04860414, "Longitud Origen": -87.2586961, "Usuario Origen": "Jorge Alberto Avila Menjivar/Jorge Seguridad DESA/POTENCIA Y ENERGIA DE MESOAMERICA S.A. DE CV (paga)/SEGURIDAD PHAZ" }, "geometry": { "type": "Point", "coordinates": [ -87.2586961, 14.04860414 ] } },
{ "type": "Feature", "properties": { "Latitud Origen": 14.05076, "Longitud Origen": -87.182239, "Usuario Origen": "Jorge Alberto Avila Menjivar/Jorge Seguridad DESA/POTENCIA Y ENERGIA DE MESOAMERICA S.A. DE CV (paga)/SEGURIDAD PHAZ" }, "geometry": { "type": "Point", "coordinates": [ -87.182239, 14.05076 ] } },
{ "type": "Feature", "properties": { "Latitud Origen": 14.057208, "Longitud Origen": -87.256688, "Usuario Origen": "Jorge Alberto Avila Menjivar/Jorge Seguridad DESA/POTENCIA Y ENERGIA DE MESOAMERICA S.A. DE CV (paga)/SEGURIDAD PHAZ" }, "geometry": { "type": "Point", "coordinates": [ -87.256688, 14.057208 ] } },
{ "type": "Feature", "properties": { "Latitud Origen": 14.06072543, "Longitud Origen": -87.2538099, "Usuario Origen": "Jorge Alberto Avila Menjivar/Jorge Seguridad DESA/POTENCIA Y ENERGIA DE MESOAMERICA S.A. DE CV (paga)/SEGURIDAD PHAZ" }, "geometry": { "type": "Point", "coordinates": [ -87.2538099, 14.06072543 ] } },
{ "type": "Feature", "properties": { "Latitud Origen": 14.06626389, "Longitud Origen": -87.2193306, "Usuario Origen": "Jorge Alberto Avila Menjivar/Jorge Seguridad DESA/POTENCIA Y ENERGIA DE MESOAMERICA S.A. DE CV (paga)/SEGURIDAD PHAZ" }, "geometry": { "type": "Point", "coordinates": [ -87.2193306, 14.06626389 ] } },
{ "type": "Feature", "properties": { "Latitud Origen": 14.06640556, "Longitud Origen": -87.1715417, "Usuario Origen": "Jorge Alberto Avila Menjivar/Jorge Seguridad DESA/POTENCIA Y ENERGIA DE MESOAMERICA S.A. DE CV (paga)/SEGURIDAD PHAZ" }, "geometry": { "type": "Point", "coordinates": [ -87.1715417, 14.06640556 ] } },
{ "type": "Feature", "properties": { "Latitud Origen": 14.06838698, "Longitud Origen": -87.2132199, "Usuario Origen": "Jorge Alberto Avila Menjivar/Jorge Seguridad DESA/POTENCIA Y ENERGIA DE MESOAMERICA S.A. DE CV (paga)/SEGURIDAD PHAZ" }, "geometry": { "type": "Point", "coordinates": [ -87.2132199, 14.06838698 ] } },
{ "type": "Feature", "properties": { "Latitud Origen": 14.06905556, "Longitud Origen": -87.1848056, "Usuario Origen": "Jorge Alberto Avila Menjivar/Jorge Seguridad DESA/POTENCIA Y ENERGIA DE MESOAMERICA S.A. DE CV (paga)/SEGURIDAD PHAZ" }, "geometry": { "type": "Point", "coordinates": [ -87.1848056, 14.06905556 ] } },
{ "type": "Feature", "properties": { "Latitud Origen": 14.07041543, "Longitud Origen": -87.2730317, "Usuario Origen": "Jorge Alberto Avila Menjivar/Jorge Seguridad DESA/POTENCIA Y ENERGIA DE MESOAMERICA S.A. DE CV (paga)/SEGURIDAD PHAZ" }, "geometry": { "type": "Point", "coordinates": [ -87.2730317, 14.07041543 ] } },
{ "type": "Feature", "properties": { "Latitud Origen": 14.07120981, "Longitud Origen": -87.1894262, "Usuario Origen": "Jorge Alberto Avila Menjivar/Jorge Seguridad DESA/POTENCIA Y ENERGIA DE MESOAMERICA S.A. DE CV (paga)/SEGURIDAD PHAZ" }, "geometry": { "type": "Point", "coordinates": [ -87.1894262, 14.07120981 ] } },
{ "type": "Feature", "properties": { "Latitud Origen": 14.07122222, "Longitud Origen": -87.2078889, "Usuario Origen": "Jorge Alberto Avila Menjivar/Jorge Seguridad DESA/POTENCIA Y ENERGIA DE MESOAMERICA S.A. DE CV (paga)/SEGURIDAD PHAZ" }, "geometry": { "type": "Point", "coordinates": [ -87.2078889, 14.07122222 ] } },
{ "type": "Feature", "properties": { "Latitud Origen": 14.07241978, "Longitud Origen": -87.1671684, "Usuario Origen": "Jorge Alberto Avila Menjivar/Jorge Seguridad DESA/POTENCIA Y ENERGIA DE MESOAMERICA S.A. DE CV (paga)/SEGURIDAD PHAZ" }, "geometry": { "type": "Point", "coordinates": [ -87.1671684, 14.07241978 ] } },
{ "type": "Feature", "properties": { "Latitud Origen": 14.07299871, "Longitud Origen": -87.1794144, "Usuario Origen": "Jorge Alberto Avila Menjivar/Jorge Seguridad DESA/POTENCIA Y ENERGIA DE MESOAMERICA S.A. DE CV (paga)/SEGURIDAD PHAZ" }, "geometry": { "type": "Point", "coordinates": [ -87.1794144, 14.07299871 ] } },
{ "type": "Feature", "properties": { "Latitud Origen": 14.073271, "Longitud Origen": -87.212122, "Usuario Origen": "Jorge Alberto Avila Menjivar/Jorge Seguridad DESA/POTENCIA Y ENERGIA DE MESOAMERICA S.A. DE CV (paga)/SEGURIDAD PHAZ" }, "geometry": { "type": "Point", "coordinates": [ -87.212122, 14.073271 ] } },
{ "type": "Feature", "properties": { "Latitud Origen": 14.07391667, "Longitud Origen": -87.2036389, "Usuario Origen": "Jorge Alberto Avila Menjivar/Jorge Seguridad DESA/POTENCIA Y ENERGIA DE MESOAMERICA S.A. DE CV (paga)/SEGURIDAD PHAZ" }, "geometry": { "type": "Point", "coordinates": [ -87.2036389, 14.07391667 ] } },
{ "type": "Feature", "properties": { "Latitud Origen": 14.07402778, "Longitud Origen": -87.1883611, "Usuario Origen": "Jorge Alberto Avila Menjivar/Jorge Seguridad DESA/POTENCIA Y ENERGIA DE MESOAMERICA S.A. DE CV (paga)/SEGURIDAD PHAZ" }, "geometry": { "type": "Point", "coordinates": [ -87.1883611, 14.07402778 ] } },
{ "type": "Feature", "properties": { "Latitud Origen": 14.07436413, "Longitud Origen": -87.212697, "Usuario Origen": "Jorge Alberto Avila Menjivar/Jorge Seguridad DESA/POTENCIA Y ENERGIA DE MESOAMERICA S.A. DE CV (paga)/SEGURIDAD PHAZ" }, "geometry": { "type": "Point", "coordinates": [ -87.212697, 14.07436413 ] } },
{ "type": "Feature", "properties": { "Latitud Origen": 14.07539259, "Longitud Origen": -87.1823897, "Usuario Origen": "Jorge Alberto Avila Menjivar/Jorge Seguridad DESA/POTENCIA Y ENERGIA DE MESOAMERICA S.A. DE CV (paga)/SEGURIDAD PHAZ" }, "geometry": { "type": "Point", "coordinates": [ -87.1823897, 14.07539259 ] } },
{ "type": "Feature", "properties": { "Latitud Origen": 14.07575219, "Longitud Origen": -87.1851041, "Usuario Origen": "Jorge Alberto Avila Menjivar/Jorge Seguridad DESA/POTENCIA Y ENERGIA DE MESOAMERICA S.A. DE CV (paga)/SEGURIDAD PHAZ" }, "geometry": { "type": "Point", "coordinates": [ -87.1851041, 14.07575219 ] } },
{ "type": "Feature", "properties": { "Latitud Origen": 14.07594801, "Longitud Origen": -87.1644198, "Usuario Origen": "Jorge Alberto Avila Menjivar/Jorge Seguridad DESA/POTENCIA Y ENERGIA DE MESOAMERICA S.A. DE CV (paga)/SEGURIDAD PHAZ" }, "geometry": { "type": "Point", "coordinates": [ -87.1644198, 14.07594801 ] } },
{ "type": "Feature", "properties": { "Latitud Origen": 14.076236, "Longitud Origen": -87.166561, "Usuario Origen": "Jorge Alberto Avila Menjivar/Jorge Seguridad DESA/POTENCIA Y ENERGIA DE MESOAMERICA S.A. DE CV (paga)/SEGURIDAD PHAZ" }, "geometry": { "type": "Point", "coordinates": [ -87.166561, 14.076236 ] } },
{ "type": "Feature", "properties": { "Latitud Origen": 14.0772246, "Longitud Origen": -87.1869486, "Usuario Origen": "Jorge Alberto Avila Menjivar/Jorge Seguridad DESA/POTENCIA Y ENERGIA DE MESOAMERICA S.A. DE CV (paga)/SEGURIDAD PHAZ" }, "geometry": { "type": "Point", "coordinates": [ -87.1869486, 14.0772246 ] } },
{ "type": "Feature", "properties": { "Latitud Origen": 14.07738939, "Longitud Origen": -87.2361914, "Usuario Origen": "Jorge Alberto Avila Menjivar/Jorge Seguridad DESA/POTENCIA Y ENERGIA DE MESOAMERICA S.A. DE CV (paga)/SEGURIDAD PHAZ" }, "geometry": { "type": "Point", "coordinates": [ -87.2361914, 14.07738939 ] } },
{ "type": "Feature", "properties": { "Latitud Origen": 14.07778012, "Longitud Origen": -87.1933962, "Usuario Origen": "Jorge Alberto Avila Menjivar/Jorge Seguridad DESA/POTENCIA Y ENERGIA DE MESOAMERICA S.A. DE CV (paga)/SEGURIDAD PHAZ" }, "geometry": { "type": "Point", "coordinates": [ -87.1933962, 14.07778012 ] } },
{ "type": "Feature", "properties": { "Latitud Origen": 14.07817212, "Longitud Origen": -87.200557, "Usuario Origen": "Jorge Alberto Avila Menjivar/Jorge Seguridad DESA/POTENCIA Y ENERGIA DE MESOAMERICA S.A. DE CV (paga)/SEGURIDAD PHAZ" }, "geometry": { "type": "Point", "coordinates": [ -87.200557, 14.07817212 ] } },
{ "type": "Feature", "properties": { "Latitud Origen": 14.07872478, "Longitud Origen": -87.2098854, "Usuario Origen": "Jorge Alberto Avila Menjivar/Jorge Seguridad DESA/POTENCIA Y ENERGIA DE MESOAMERICA S.A. DE CV (paga)/SEGURIDAD PHAZ" }, "geometry": { "type": "Point", "coordinates": [ -87.2098854, 14.07872478 ] } },
{ "type": "Feature", "properties": { "Latitud Origen": 14.07896944, "Longitud Origen": -87.2137472, "Usuario Origen": "Jorge Alberto Avila Menjivar/Jorge Seguridad DESA/POTENCIA Y ENERGIA DE MESOAMERICA S.A. DE CV (paga)/SEGURIDAD PHAZ" }, "geometry": { "type": "Point", "coordinates": [ -87.2137472, 14.07896944 ] } },
{ "type": "Feature", "properties": { "Latitud Origen": 14.07897456, "Longitud Origen": -87.2137484, "Usuario Origen": "Jorge Alberto Avila Menjivar/Jorge Seguridad DESA/POTENCIA Y ENERGIA DE MESOAMERICA S.A. DE CV (paga)/SEGURIDAD PHAZ" }, "geometry": { "type": "Point", "coordinates": [ -87.2137484, 14.07897456 ] } },
{ "type": "Feature", "properties": { "Latitud Origen": 14.07976111, "Longitud Origen": -87.1857083, "Usuario Origen": "Jorge Alberto Avila Menjivar/Jorge Seguridad DESA/POTENCIA Y ENERGIA DE MESOAMERICA S.A. DE CV (paga)/SEGURIDAD PHAZ" }, "geometry": { "type": "Point", "coordinates": [ -87.1857083, 14.07976111 ] } },
{ "type": "Feature", "properties": { "Latitud Origen": 14.08054437, "Longitud Origen": -87.185145, "Usuario Origen": "Jorge Alberto Avila Menjivar/Jorge Seguridad DESA/POTENCIA Y ENERGIA DE MESOAMERICA S.A. DE CV (paga)/SEGURIDAD PHAZ" }, "geometry": { "type": "Point", "coordinates": [ -87.185145, 14.08054437 ] } },
{ "type": "Feature", "properties": { "Latitud Origen": 14.08158221, "Longitud Origen": -87.2295262, "Usuario Origen": "Jorge Alberto Avila Menjivar/Jorge Seguridad DESA/POTENCIA Y ENERGIA DE MESOAMERICA S.A. DE CV (paga)/SEGURIDAD PHAZ" }, "geometry": { "type": "Point", "coordinates": [ -87.2295262, 14.08158221 ] } },
{ "type": "Feature", "properties": { "Latitud Origen": 14.08162, "Longitud Origen": -87.18306, "Usuario Origen": "Jorge Alberto Avila Menjivar/Jorge Seguridad DESA/POTENCIA Y ENERGIA DE MESOAMERICA S.A. DE CV (paga)/SEGURIDAD PHAZ" }, "geometry": { "type": "Point", "coordinates": [ -87.18306, 14.08162 ] } },
{ "type": "Feature", "properties": { "Latitud Origen": 14.082389, "Longitud Origen": -87.163611, "Usuario Origen": "Jorge Alberto Avila Menjivar/Jorge Seguridad DESA/POTENCIA Y ENERGIA DE MESOAMERICA S.A. DE CV (paga)/SEGURIDAD PHAZ" }, "geometry": { "type": "Point", "coordinates": [ -87.163611, 14.082389 ] } },
{ "type": "Feature", "properties": { "Latitud Origen": 14.08250278, "Longitud Origen": -87.219975, "Usuario Origen": "Jorge Alberto Avila Menjivar/Jorge Seguridad DESA/POTENCIA Y ENERGIA DE MESOAMERICA S.A. DE CV (paga)/SEGURIDAD PHAZ" }, "geometry": { "type": "Point", "coordinates": [ -87.219975, 14.08250278 ] } },
{ "type": "Feature", "properties": { "Latitud Origen": 14.08276944, "Longitud Origen": -87.1755917, "Usuario Origen": "Jorge Alberto Avila Menjivar/Jorge Seguridad DESA/POTENCIA Y ENERGIA DE MESOAMERICA S.A. DE CV (paga)/SEGURIDAD PHAZ" }, "geometry": { "type": "Point", "coordinates": [ -87.1755917, 14.08276944 ] } },
{ "type": "Feature", "properties": { "Latitud Origen": 14.08276944, "Longitud Origen": -87.1755944, "Usuario Origen": "Jorge Alberto Avila Menjivar/Jorge Seguridad DESA/POTENCIA Y ENERGIA DE MESOAMERICA S.A. DE CV (paga)/SEGURIDAD PHAZ" }, "geometry": { "type": "Point", "coordinates": [ -87.1755944, 14.08276944 ] } },
{ "type": "Feature", "properties": { "Latitud Origen": 14.08277501, "Longitud Origen": -87.2105005, "Usuario Origen": "Jorge Alberto Avila Menjivar/Jorge Seguridad DESA/POTENCIA Y ENERGIA DE MESOAMERICA S.A. DE CV (paga)/SEGURIDAD PHAZ" }, "geometry": { "type": "Point", "coordinates": [ -87.2105005, 14.08277501 ] } },
{ "type": "Feature", "properties": { "Latitud Origen": 14.08277778, "Longitud Origen": -87.2105, "Usuario Origen": "Jorge Alberto Avila Menjivar/Jorge Seguridad DESA/POTENCIA Y ENERGIA DE MESOAMERICA S.A. DE CV (paga)/SEGURIDAD PHAZ" }, "geometry": { "type": "Point", "coordinates": [ -87.2105, 14.08277778 ] } },
{ "type": "Feature", "properties": { "Latitud Origen": 14.08296667, "Longitud Origen": -87.1600889, "Usuario Origen": "Jorge Alberto Avila Menjivar/Jorge Seguridad DESA/POTENCIA Y ENERGIA DE MESOAMERICA S.A. DE CV (paga)/SEGURIDAD PHAZ" }, "geometry": { "type": "Point", "coordinates": [ -87.1600889, 14.08296667 ] } },
{ "type": "Feature", "properties": { "Latitud Origen": 14.083119, "Longitud Origen": -87.178549, "Usuario Origen": "Jorge Alberto Avila Menjivar/Jorge Seguridad DESA/POTENCIA Y ENERGIA DE MESOAMERICA S.A. DE CV (paga)/SEGURIDAD PHAZ" }, "geometry": { "type": "Point", "coordinates": [ -87.178549, 14.083119 ] } },
{ "type": "Feature", "properties": { "Latitud Origen": 14.083913, "Longitud Origen": -87.184661, "Usuario Origen": "Jorge Alberto Avila Menjivar/Jorge Seguridad DESA/POTENCIA Y ENERGIA DE MESOAMERICA S.A. DE CV (paga)/SEGURIDAD PHAZ" }, "geometry": { "type": "Point", "coordinates": [ -87.184661, 14.083913 ] } },
{ "type": "Feature", "properties": { "Latitud Origen": 14.084632, "Longitud Origen": -87.186117, "Usuario Origen": "Jorge Alberto Avila Menjivar/Jorge Seguridad DESA/POTENCIA Y ENERGIA DE MESOAMERICA S.A. DE CV (paga)/SEGURIDAD PHAZ" }, "geometry": { "type": "Point", "coordinates": [ -87.186117, 14.084632 ] } },
{ "type": "Feature", "properties": { "Latitud Origen": 14.084691, "Longitud Origen": -87.2103056, "Usuario Origen": "Jorge Alberto Avila Menjivar/Jorge Seguridad DESA/POTENCIA Y ENERGIA DE MESOAMERICA S.A. DE CV (paga)/SEGURIDAD PHAZ" }, "geometry": { "type": "Point", "coordinates": [ -87.2103056, 14.084691 ] } },
{ "type": "Feature", "properties": { "Latitud Origen": 14.084908, "Longitud Origen": -87.176694, "Usuario Origen": "Jorge Alberto Avila Menjivar/Jorge Seguridad DESA/POTENCIA Y ENERGIA DE MESOAMERICA S.A. DE CV (paga)/SEGURIDAD PHAZ" }, "geometry": { "type": "Point", "coordinates": [ -87.176694, 14.084908 ] } },
{ "type": "Feature", "properties": { "Latitud Origen": 14.08513488, "Longitud Origen": -87.1714158, "Usuario Origen": "Jorge Alberto Avila Menjivar/Jorge Seguridad DESA/POTENCIA Y ENERGIA DE MESOAMERICA S.A. DE CV (paga)/SEGURIDAD PHAZ" }, "geometry": { "type": "Point", "coordinates": [ -87.1714158, 14.08513488 ] } },
{ "type": "Feature", "properties": { "Latitud Origen": 14.08513875, "Longitud Origen": -87.1714203, "Usuario Origen": "Jorge Alberto Avila Menjivar/Jorge Seguridad DESA/POTENCIA Y ENERGIA DE MESOAMERICA S.A. DE CV (paga)/SEGURIDAD PHAZ" }, "geometry": { "type": "Point", "coordinates": [ -87.1714203, 14.08513875 ] } },
{ "type": "Feature", "properties": { "Latitud Origen": 14.08563759, "Longitud Origen": -87.2042781, "Usuario Origen": "Jorge Alberto Avila Menjivar/Jorge Seguridad DESA/POTENCIA Y ENERGIA DE MESOAMERICA S.A. DE CV (paga)/SEGURIDAD PHAZ" }, "geometry": { "type": "Point", "coordinates": [ -87.2042781, 14.08563759 ] } },
{ "type": "Feature", "properties": { "Latitud Origen": 14.085638, "Longitud Origen": -87.204278, "Usuario Origen": "Jorge Alberto Avila Menjivar/Jorge Seguridad DESA/POTENCIA Y ENERGIA DE MESOAMERICA S.A. DE CV (paga)/SEGURIDAD PHAZ" }, "geometry": { "type": "Point", "coordinates": [ -87.204278, 14.085638 ] } },
{ "type": "Feature", "properties": { "Latitud Origen": 14.08591534, "Longitud Origen": -87.1850289, "Usuario Origen": "Jorge Alberto Avila Menjivar/Jorge Seguridad DESA/POTENCIA Y ENERGIA DE MESOAMERICA S.A. DE CV (paga)/SEGURIDAD PHAZ" }, "geometry": { "type": "Point", "coordinates": [ -87.1850289, 14.08591534 ] } },
{ "type": "Feature", "properties": { "Latitud Origen": 14.08616667, "Longitud Origen": -87.1913333, "Usuario Origen": "Jorge Alberto Avila Menjivar/Jorge Seguridad DESA/POTENCIA Y ENERGIA DE MESOAMERICA S.A. DE CV (paga)/SEGURIDAD PHAZ" }, "geometry": { "type": "Point", "coordinates": [ -87.1913333, 14.08616667 ] } },
{ "type": "Feature", "properties": { "Latitud Origen": 14.08649, "Longitud Origen": -87.22362, "Usuario Origen": "Jorge Alberto Avila Menjivar/Jorge Seguridad DESA/POTENCIA Y ENERGIA DE MESOAMERICA S.A. DE CV (paga)/SEGURIDAD PHAZ" }, "geometry": { "type": "Point", "coordinates": [ -87.22362, 14.08649 ] } },
{ "type": "Feature", "properties": { "Latitud Origen": 14.086559, "Longitud Origen": -87.18226, "Usuario Origen": "Jorge Alberto Avila Menjivar/Jorge Seguridad DESA/POTENCIA Y ENERGIA DE MESOAMERICA S.A. DE CV (paga)/SEGURIDAD PHAZ" }, "geometry": { "type": "Point", "coordinates": [ -87.18226, 14.086559 ] } },
{ "type": "Feature", "properties": { "Latitud Origen": 14.08655943, "Longitud Origen": -87.1822596, "Usuario Origen": "Jorge Alberto Avila Menjivar/Jorge Seguridad DESA/POTENCIA Y ENERGIA DE MESOAMERICA S.A. DE CV (paga)/SEGURIDAD PHAZ" }, "geometry": { "type": "Point", "coordinates": [ -87.1822596, 14.08655943 ] } },
{ "type": "Feature", "properties": { "Latitud Origen": 14.08660942, "Longitud Origen": -87.1878085, "Usuario Origen": "Jorge Alberto Avila Menjivar/Jorge Seguridad DESA/POTENCIA Y ENERGIA DE MESOAMERICA S.A. DE CV (paga)/SEGURIDAD PHAZ" }, "geometry": { "type": "Point", "coordinates": [ -87.1878085, 14.08660942 ] } },
{ "type": "Feature", "properties": { "Latitud Origen": 14.08795556, "Longitud Origen": -87.1832833, "Usuario Origen": "Jorge Alberto Avila Menjivar/Jorge Seguridad DESA/POTENCIA Y ENERGIA DE MESOAMERICA S.A. DE CV (paga)/SEGURIDAD PHAZ" }, "geometry": { "type": "Point", "coordinates": [ -87.1832833, 14.08795556 ] } },
{ "type": "Feature", "properties": { "Latitud Origen": 14.08844167, "Longitud Origen": -87.2020556, "Usuario Origen": "Jorge Alberto Avila Menjivar/Jorge Seguridad DESA/POTENCIA Y ENERGIA DE MESOAMERICA S.A. DE CV (paga)/SEGURIDAD PHAZ" }, "geometry": { "type": "Point", "coordinates": [ -87.2020556, 14.08844167 ] } },
{ "type": "Feature", "properties": { "Latitud Origen": 14.08873334, "Longitud Origen": -87.1774861, "Usuario Origen": "Jorge Alberto Avila Menjivar/Jorge Seguridad DESA/POTENCIA Y ENERGIA DE MESOAMERICA S.A. DE CV (paga)/SEGURIDAD PHAZ" }, "geometry": { "type": "Point", "coordinates": [ -87.1774861, 14.08873334 ] } },
{ "type": "Feature", "properties": { "Latitud Origen": 14.088734, "Longitud Origen": -87.177488, "Usuario Origen": "Jorge Alberto Avila Menjivar/Jorge Seguridad DESA/POTENCIA Y ENERGIA DE MESOAMERICA S.A. DE CV (paga)/SEGURIDAD PHAZ" }, "geometry": { "type": "Point", "coordinates": [ -87.177488, 14.088734 ] } },
{ "type": "Feature", "properties": { "Latitud Origen": 14.08934291, "Longitud Origen": -87.1956107, "Usuario Origen": "Jorge Alberto Avila Menjivar/Jorge Seguridad DESA/POTENCIA Y ENERGIA DE MESOAMERICA S.A. DE CV (paga)/SEGURIDAD PHAZ" }, "geometry": { "type": "Point", "coordinates": [ -87.1956107, 14.08934291 ] } },
{ "type": "Feature", "properties": { "Latitud Origen": 14.089405, "Longitud Origen": -87.17998, "Usuario Origen": "Jorge Alberto Avila Menjivar/Jorge Seguridad DESA/POTENCIA Y ENERGIA DE MESOAMERICA S.A. DE CV (paga)/SEGURIDAD PHAZ" }, "geometry": { "type": "Point", "coordinates": [ -87.17998, 14.089405 ] } },
{ "type": "Feature", "properties": { "Latitud Origen": 14.08999, "Longitud Origen": -87.18642, "Usuario Origen": "Jorge Alberto Avila Menjivar/Jorge Seguridad DESA/POTENCIA Y ENERGIA DE MESOAMERICA S.A. DE CV (paga)/SEGURIDAD PHAZ" }, "geometry": { "type": "Point", "coordinates": [ -87.18642, 14.08999 ] } },
{ "type": "Feature", "properties": { "Latitud Origen": 14.09019444, "Longitud Origen": -87.2382222, "Usuario Origen": "Jorge Alberto Avila Menjivar/Jorge Seguridad DESA/POTENCIA Y ENERGIA DE MESOAMERICA S.A. DE CV (paga)/SEGURIDAD PHAZ" }, "geometry": { "type": "Point", "coordinates": [ -87.2382222, 14.09019444 ] } },
{ "type": "Feature", "properties": { "Latitud Origen": 14.09091461, "Longitud Origen": -87.2282756, "Usuario Origen": "Jorge Alberto Avila Menjivar/Jorge Seguridad DESA/POTENCIA Y ENERGIA DE MESOAMERICA S.A. DE CV (paga)/SEGURIDAD PHAZ" }, "geometry": { "type": "Point", "coordinates": [ -87.2282756, 14.09091461 ] } },
{ "type": "Feature", "properties": { "Latitud Origen": 14.09191337, "Longitud Origen": -87.2513617, "Usuario Origen": "Jorge Alberto Avila Menjivar/Jorge Seguridad DESA/POTENCIA Y ENERGIA DE MESOAMERICA S.A. DE CV (paga)/SEGURIDAD PHAZ" }, "geometry": { "type": "Point", "coordinates": [ -87.2513617, 14.09191337 ] } },
{ "type": "Feature", "properties": { "Latitud Origen": 14.092549, "Longitud Origen": -87.188136, "Usuario Origen": "Jorge Alberto Avila Menjivar/Jorge Seguridad DESA/POTENCIA Y ENERGIA DE MESOAMERICA S.A. DE CV (paga)/SEGURIDAD PHAZ" }, "geometry": { "type": "Point", "coordinates": [ -87.188136, 14.092549 ] } },
{ "type": "Feature", "properties": { "Latitud Origen": 14.0930804, "Longitud Origen": -87.1916397, "Usuario Origen": "Jorge Alberto Avila Menjivar/Jorge Seguridad DESA/POTENCIA Y ENERGIA DE MESOAMERICA S.A. DE CV (paga)/SEGURIDAD PHAZ" }, "geometry": { "type": "Point", "coordinates": [ -87.1916397, 14.0930804 ] } },
{ "type": "Feature", "properties": { "Latitud Origen": 14.09329719, "Longitud Origen": -87.1801899, "Usuario Origen": "Jorge Alberto Avila Menjivar/Jorge Seguridad DESA/POTENCIA Y ENERGIA DE MESOAMERICA S.A. DE CV (paga)/SEGURIDAD PHAZ" }, "geometry": { "type": "Point", "coordinates": [ -87.1801899, 14.09329719 ] } },
{ "type": "Feature", "properties": { "Latitud Origen": 14.09463889, "Longitud Origen": -87.1588889, "Usuario Origen": "Jorge Alberto Avila Menjivar/Jorge Seguridad DESA/POTENCIA Y ENERGIA DE MESOAMERICA S.A. DE CV (paga)/SEGURIDAD PHAZ" }, "geometry": { "type": "Point", "coordinates": [ -87.1588889, 14.09463889 ] } },
{ "type": "Feature", "properties": { "Latitud Origen": 14.09587778, "Longitud Origen": -87.1778278, "Usuario Origen": "Jorge Alberto Avila Menjivar/Jorge Seguridad DESA/POTENCIA Y ENERGIA DE MESOAMERICA S.A. DE CV (paga)/SEGURIDAD PHAZ" }, "geometry": { "type": "Point", "coordinates": [ -87.1778278, 14.09587778 ] } },
{ "type": "Feature", "properties": { "Latitud Origen": 14.09605283, "Longitud Origen": -87.1830268, "Usuario Origen": "Jorge Alberto Avila Menjivar/Jorge Seguridad DESA/POTENCIA Y ENERGIA DE MESOAMERICA S.A. DE CV (paga)/SEGURIDAD PHAZ" }, "geometry": { "type": "Point", "coordinates": [ -87.1830268, 14.09605283 ] } },
{ "type": "Feature", "properties": { "Latitud Origen": 14.09830556, "Longitud Origen": -87.1916389, "Usuario Origen": "Jorge Alberto Avila Menjivar/Jorge Seguridad DESA/POTENCIA Y ENERGIA DE MESOAMERICA S.A. DE CV (paga)/SEGURIDAD PHAZ" }, "geometry": { "type": "Point", "coordinates": [ -87.1916389, 14.09830556 ] } },
{ "type": "Feature", "properties": { "Latitud Origen": 14.100139, "Longitud Origen": -87.18927, "Usuario Origen": "Jorge Alberto Avila Menjivar/Jorge Seguridad DESA/POTENCIA Y ENERGIA DE MESOAMERICA S.A. DE CV (paga)/SEGURIDAD PHAZ" }, "geometry": { "type": "Point", "coordinates": [ -87.18927, 14.100139 ] } },
{ "type": "Feature", "properties": { "Latitud Origen": 14.10041797, "Longitud Origen": -87.1857539, "Usuario Origen": "Jorge Alberto Avila Menjivar/Jorge Seguridad DESA/POTENCIA Y ENERGIA DE MESOAMERICA S.A. DE CV (paga)/SEGURIDAD PHAZ" }, "geometry": { "type": "Point", "coordinates": [ -87.1857539, 14.10041797 ] } },
{ "type": "Feature", "properties": { "Latitud Origen": 14.10096982, "Longitud Origen": -87.192031, "Usuario Origen": "Jorge Alberto Avila Menjivar/Jorge Seguridad DESA/POTENCIA Y ENERGIA DE MESOAMERICA S.A. DE CV (paga)/SEGURIDAD PHAZ" }, "geometry": { "type": "Point", "coordinates": [ -87.192031, 14.10096982 ] } },
{ "type": "Feature", "properties": { "Latitud Origen": 14.10109271, "Longitud Origen": -87.1782876, "Usuario Origen": "Jorge Alberto Avila Menjivar/Jorge Seguridad DESA/POTENCIA Y ENERGIA DE MESOAMERICA S.A. DE CV (paga)/SEGURIDAD PHAZ" }, "geometry": { "type": "Point", "coordinates": [ -87.1782876, 14.10109271 ] } },
{ "type": "Feature", "properties": { "Latitud Origen": 14.10334, "Longitud Origen": -87.1892, "Usuario Origen": "Jorge Alberto Avila Menjivar/Jorge Seguridad DESA/POTENCIA Y ENERGIA DE MESOAMERICA S.A. DE CV (paga)/SEGURIDAD PHAZ" }, "geometry": { "type": "Point", "coordinates": [ -87.1892, 14.10334 ] } },
{ "type": "Feature", "properties": { "Latitud Origen": 14.10347637, "Longitud Origen": -87.1571949, "Usuario Origen": "Jorge Alberto Avila Menjivar/Jorge Seguridad DESA/POTENCIA Y ENERGIA DE MESOAMERICA S.A. DE CV (paga)/SEGURIDAD PHAZ" }, "geometry": { "type": "Point", "coordinates": [ -87.1571949, 14.10347637 ] } },
{ "type": "Feature", "properties": { "Latitud Origen": 14.1035399, "Longitud Origen": -87.2049888, "Usuario Origen": "Jorge Alberto Avila Menjivar/Jorge Seguridad DESA/POTENCIA Y ENERGIA DE MESOAMERICA S.A. DE CV (paga)/SEGURIDAD PHAZ" }, "geometry": { "type": "Point", "coordinates": [ -87.2049888, 14.1035399 ] } },
{ "type": "Feature", "properties": { "Latitud Origen": 14.10371944, "Longitud Origen": -87.2439444, "Usuario Origen": "Jorge Alberto Avila Menjivar/Jorge Seguridad DESA/POTENCIA Y ENERGIA DE MESOAMERICA S.A. DE CV (paga)/SEGURIDAD PHAZ" }, "geometry": { "type": "Point", "coordinates": [ -87.2439444, 14.10371944 ] } },
{ "type": "Feature", "properties": { "Latitud Origen": 14.10372061, "Longitud Origen": -87.2439448, "Usuario Origen": "Jorge Alberto Avila Menjivar/Jorge Seguridad DESA/POTENCIA Y ENERGIA DE MESOAMERICA S.A. DE CV (paga)/SEGURIDAD PHAZ" }, "geometry": { "type": "Point", "coordinates": [ -87.2439448, 14.10372061 ] } },
{ "type": "Feature", "properties": { "Latitud Origen": 14.10464728, "Longitud Origen": -87.2302904, "Usuario Origen": "Jorge Alberto Avila Menjivar/Jorge Seguridad DESA/POTENCIA Y ENERGIA DE MESOAMERICA S.A. DE CV (paga)/SEGURIDAD PHAZ" }, "geometry": { "type": "Point", "coordinates": [ -87.2302904, 14.10464728 ] } },
{ "type": "Feature", "properties": { "Latitud Origen": 14.10652778, "Longitud Origen": -87.2044722, "Usuario Origen": "Jorge Alberto Avila Menjivar/Jorge Seguridad DESA/POTENCIA Y ENERGIA DE MESOAMERICA S.A. DE CV (paga)/SEGURIDAD PHAZ" }, "geometry": { "type": "Point", "coordinates": [ -87.2044722, 14.10652778 ] } },
{ "type": "Feature", "properties": { "Latitud Origen": 14.10785556, "Longitud Origen": -87.2301611, "Usuario Origen": "Jorge Alberto Avila Menjivar/Jorge Seguridad DESA/POTENCIA Y ENERGIA DE MESOAMERICA S.A. DE CV (paga)/SEGURIDAD PHAZ" }, "geometry": { "type": "Point", "coordinates": [ -87.2301611, 14.10785556 ] } },
{ "type": "Feature", "properties": { "Latitud Origen": 14.10785692, "Longitud Origen": -87.239771, "Usuario Origen": "Jorge Alberto Avila Menjivar/Jorge Seguridad DESA/POTENCIA Y ENERGIA DE MESOAMERICA S.A. DE CV (paga)/SEGURIDAD PHAZ" }, "geometry": { "type": "Point", "coordinates": [ -87.239771, 14.10785692 ] } },
{ "type": "Feature", "properties": { "Latitud Origen": 14.10791667, "Longitud Origen": -87.2456389, "Usuario Origen": "Jorge Alberto Avila Menjivar/Jorge Seguridad DESA/POTENCIA Y ENERGIA DE MESOAMERICA S.A. DE CV (paga)/SEGURIDAD PHAZ" }, "geometry": { "type": "Point", "coordinates": [ -87.2456389, 14.10791667 ] } },
{ "type": "Feature", "properties": { "Latitud Origen": 14.107946, "Longitud Origen": -87.193636, "Usuario Origen": "Jorge Alberto Avila Menjivar/Jorge Seguridad DESA/POTENCIA Y ENERGIA DE MESOAMERICA S.A. DE CV (paga)/SEGURIDAD PHAZ" }, "geometry": { "type": "Point", "coordinates": [ -87.193636, 14.107946 ] } },
{ "type": "Feature", "properties": { "Latitud Origen": 14.11130556, "Longitud Origen": -87.2338889, "Usuario Origen": "Jorge Alberto Avila Menjivar/Jorge Seguridad DESA/POTENCIA Y ENERGIA DE MESOAMERICA S.A. DE CV (paga)/SEGURIDAD PHAZ" }, "geometry": { "type": "Point", "coordinates": [ -87.2338889, 14.11130556 ] } },
{ "type": "Feature", "properties": { "Latitud Origen": 14.12688889, "Longitud Origen": -87.2484167, "Usuario Origen": "Jorge Alberto Avila Menjivar/Jorge Seguridad DESA/POTENCIA Y ENERGIA DE MESOAMERICA S.A. DE CV (paga)/SEGURIDAD PHAZ" }, "geometry": { "type": "Point", "coordinates": [ -87.2484167, 14.12688889 ] } },
{ "type": "Feature", "properties": { "Latitud Origen": 14.12689026, "Longitud Origen": -87.2484167, "Usuario Origen": "Jorge Alberto Avila Menjivar/Jorge Seguridad DESA/POTENCIA Y ENERGIA DE MESOAMERICA S.A. DE CV (paga)/SEGURIDAD PHAZ" }, "geometry": { "type": "Point", "coordinates": [ -87.2484167, 14.12689026 ] } },
{ "type": "Feature", "properties": { "Latitud Origen": 14.13805462, "Longitud Origen": -87.2658306, "Usuario Origen": "Jorge Alberto Avila Menjivar/Jorge Seguridad DESA/POTENCIA Y ENERGIA DE MESOAMERICA S.A. DE CV (paga)/SEGURIDAD PHAZ" }, "geometry": { "type": "Point", "coordinates": [ -87.2658306, 14.13805462 ] } },
{ "type": "Feature", "properties": { "Latitud Origen": 14.15344024, "Longitud Origen": -87.2705545, "Usuario Origen": "Jorge Alberto Avila Menjivar/Jorge Seguridad DESA/POTENCIA Y ENERGIA DE MESOAMERICA S.A. DE CV (paga)/SEGURIDAD PHAZ" }, "geometry": { "type": "Point", "coordinates": [ -87.2705545, 14.15344024 ] } },
{ "type": "Feature", "properties": { "Latitud Origen": 14.15822222, "Longitud Origen": -87.2848833, "Usuario Origen": "Jorge Alberto Avila Menjivar/Jorge Seguridad DESA/POTENCIA Y ENERGIA DE MESOAMERICA S.A. DE CV (paga)/SEGURIDAD PHAZ" }, "geometry": { "type": "Point", "coordinates": [ -87.2848833, 14.15822222 ] } },
{ "type": "Feature", "properties": { "Latitud Origen": 14.15822485, "Longitud Origen": -87.2848859, "Usuario Origen": "Jorge Alberto Avila Menjivar/Jorge Seguridad DESA/POTENCIA Y ENERGIA DE MESOAMERICA S.A. DE CV (paga)/SEGURIDAD PHAZ" }, "geometry": { "type": "Point", "coordinates": [ -87.2848859, 14.15822485 ] } },
{ "type": "Feature", "properties": { "Latitud Origen": 14.16888889, "Longitud Origen": -87.3088611, "Usuario Origen": "Jorge Alberto Avila Menjivar/Jorge Seguridad DESA/POTENCIA Y ENERGIA DE MESOAMERICA S.A. DE CV (paga)/SEGURIDAD PHAZ" }, "geometry": { "type": "Point", "coordinates": [ -87.3088611, 14.16888889 ] } },
{ "type": "Feature", "properties": { "Latitud Origen": 14.17421944, "Longitud Origen": -87.3336667, "Usuario Origen": "Jorge Alberto Avila Menjivar/Jorge Seguridad DESA/POTENCIA Y ENERGIA DE MESOAMERICA S.A. DE CV (paga)/SEGURIDAD PHAZ" }, "geometry": { "type": "Point", "coordinates": [ -87.3336667, 14.17421944 ] } },
{ "type": "Feature", "properties": { "Latitud Origen": 14.189424, "Longitud Origen": -87.338639, "Usuario Origen": "Jorge Alberto Avila Menjivar/Jorge Seguridad DESA/POTENCIA Y ENERGIA DE MESOAMERICA S.A. DE CV (paga)/SEGURIDAD PHAZ" }, "geometry": { "type": "Point", "coordinates": [ -87.338639, 14.189424 ] } },
{ "type": "Feature", "properties": { "Latitud Origen": 14.19172222, "Longitud Origen": -87.3768611, "Usuario Origen": "Jorge Alberto Avila Menjivar/Jorge Seguridad DESA/POTENCIA Y ENERGIA DE MESOAMERICA S.A. DE CV (paga)/SEGURIDAD PHAZ" }, "geometry": { "type": "Point", "coordinates": [ -87.3768611, 14.19172222 ] } },
{ "type": "Feature", "properties": { "Latitud Origen": 14.21448739, "Longitud Origen": -87.3676041, "Usuario Origen": "Jorge Alberto Avila Menjivar/Jorge Seguridad DESA/POTENCIA Y ENERGIA DE MESOAMERICA S.A. DE CV (paga)/SEGURIDAD PHAZ" }, "geometry": { "type": "Point", "coordinates": [ -87.3676041, 14.21448739 ] } },
{ "type": "Feature", "properties": { "Latitud Origen": 14.22055556, "Longitud Origen": -87.3808889, "Usuario Origen": "Jorge Alberto Avila Menjivar/Jorge Seguridad DESA/POTENCIA Y ENERGIA DE MESOAMERICA S.A. DE CV (paga)/SEGURIDAD PHAZ" }, "geometry": { "type": "Point", "coordinates": [ -87.3808889, 14.22055556 ] } },
{ "type": "Feature", "properties": { "Latitud Origen": 14.24546944, "Longitud Origen": -87.3776667, "Usuario Origen": "Jorge Alberto Avila Menjivar/Jorge Seguridad DESA/POTENCIA Y ENERGIA DE MESOAMERICA S.A. DE CV (paga)/SEGURIDAD PHAZ" }, "geometry": { "type": "Point", "coordinates": [ -87.3776667, 14.24546944 ] } },
{ "type": "Feature", "properties": { "Latitud Origen": 14.26652778, "Longitud Origen": -87.5515, "Usuario Origen": "Jorge Alberto Avila Menjivar/Jorge Seguridad DESA/POTENCIA Y ENERGIA DE MESOAMERICA S.A. DE CV (paga)/SEGURIDAD PHAZ" }, "geometry": { "type": "Point", "coordinates": [ -87.5515, 14.26652778 ] } },
{ "type": "Feature", "properties": { "Latitud Origen": 14.27491667, "Longitud Origen": -87.4034111, "Usuario Origen": "Jorge Alberto Avila Menjivar/Jorge Seguridad DESA/POTENCIA Y ENERGIA DE MESOAMERICA S.A. DE CV (paga)/SEGURIDAD PHAZ" }, "geometry": { "type": "Point", "coordinates": [ -87.4034111, 14.27491667 ] } },
{ "type": "Feature", "properties": { "Latitud Origen": 14.2755, "Longitud Origen": -87.5168611, "Usuario Origen": "Jorge Alberto Avila Menjivar/Jorge Seguridad DESA/POTENCIA Y ENERGIA DE MESOAMERICA S.A. DE CV (paga)/SEGURIDAD PHAZ" }, "geometry": { "type": "Point", "coordinates": [ -87.5168611, 14.2755 ] } },
{ "type": "Feature", "properties": { "Latitud Origen": 14.27916773, "Longitud Origen": -87.3694445, "Usuario Origen": "Jorge Alberto Avila Menjivar/Jorge Seguridad DESA/POTENCIA Y ENERGIA DE MESOAMERICA S.A. DE CV (paga)/SEGURIDAD PHAZ" }, "geometry": { "type": "Point", "coordinates": [ -87.3694445, 14.27916773 ] } },
{ "type": "Feature", "properties": { "Latitud Origen": 14.28363889, "Longitud Origen": -87.4973889, "Usuario Origen": "Jorge Alberto Avila Menjivar/Jorge Seguridad DESA/POTENCIA Y ENERGIA DE MESOAMERICA S.A. DE CV (paga)/SEGURIDAD PHAZ" }, "geometry": { "type": "Point", "coordinates": [ -87.4973889, 14.28363889 ] } },
{ "type": "Feature", "properties": { "Latitud Origen": 14.28516667, "Longitud Origen": -87.4657778, "Usuario Origen": "Jorge Alberto Avila Menjivar/Jorge Seguridad DESA/POTENCIA Y ENERGIA DE MESOAMERICA S.A. DE CV (paga)/SEGURIDAD PHAZ" }, "geometry": { "type": "Point", "coordinates": [ -87.4657778, 14.28516667 ] } },
{ "type": "Feature", "properties": { "Latitud Origen": 14.29077778, "Longitud Origen": -87.4373889, "Usuario Origen": "Jorge Alberto Avila Menjivar/Jorge Seguridad DESA/POTENCIA Y ENERGIA DE MESOAMERICA S.A. DE CV (paga)/SEGURIDAD PHAZ" }, "geometry": { "type": "Point", "coordinates": [ -87.4373889, 14.29077778 ] } },
{ "type": "Feature", "properties": { "Latitud Origen": 14.29133333, "Longitud Origen": -87.4904444, "Usuario Origen": "Jorge Alberto Avila Menjivar/Jorge Seguridad DESA/POTENCIA Y ENERGIA DE MESOAMERICA S.A. DE CV (paga)/SEGURIDAD PHAZ" }, "geometry": { "type": "Point", "coordinates": [ -87.4904444, 14.29133333 ] } },
{ "type": "Feature", "properties": { "Latitud Origen": 14.30141389, "Longitud Origen": -87.57325, "Usuario Origen": "Jorge Alberto Avila Menjivar/Jorge Seguridad DESA/POTENCIA Y ENERGIA DE MESOAMERICA S.A. DE CV (paga)/SEGURIDAD PHAZ" }, "geometry": { "type": "Point", "coordinates": [ -87.57325, 14.30141389 ] } },
{ "type": "Feature", "properties": { "Latitud Origen": 14.30461268, "Longitud Origen": -88.1023626, "Usuario Origen": "Jorge Alberto Avila Menjivar/Jorge Seguridad DESA/POTENCIA Y ENERGIA DE MESOAMERICA S.A. DE CV (paga)/SEGURIDAD PHAZ" }, "geometry": { "type": "Point", "coordinates": [ -88.1023626, 14.30461268 ] } },
{ "type": "Feature", "properties": { "Latitud Origen": 14.30663462, "Longitud Origen": -88.2172527, "Usuario Origen": "Jorge Alberto Avila Menjivar/Jorge Seguridad DESA/POTENCIA Y ENERGIA DE MESOAMERICA S.A. DE CV (paga)/SEGURIDAD PHAZ" }, "geometry": { "type": "Point", "coordinates": [ -88.2172527, 14.30663462 ] } },
{ "type": "Feature", "properties": { "Latitud Origen": 14.30900578, "Longitud Origen": -88.1686992, "Usuario Origen": "Jorge Alberto Avila Menjivar/Jorge Seguridad DESA/POTENCIA Y ENERGIA DE MESOAMERICA S.A. DE CV (paga)/SEGURIDAD PHAZ" }, "geometry": { "type": "Point", "coordinates": [ -88.1686992, 14.30900578 ] } },
{ "type": "Feature", "properties": { "Latitud Origen": 14.309009, "Longitud Origen": -88.168697, "Usuario Origen": "Jorge Alberto Avila Menjivar/Jorge Seguridad DESA/POTENCIA Y ENERGIA DE MESOAMERICA S.A. DE CV (paga)/SEGURIDAD PHAZ" }, "geometry": { "type": "Point", "coordinates": [ -88.168697, 14.309009 ] } },
{ "type": "Feature", "properties": { "Latitud Origen": 14.30991944, "Longitud Origen": -88.17665, "Usuario Origen": "Jorge Alberto Avila Menjivar/Jorge Seguridad DESA/POTENCIA Y ENERGIA DE MESOAMERICA S.A. DE CV (paga)/SEGURIDAD PHAZ" }, "geometry": { "type": "Point", "coordinates": [ -88.17665, 14.30991944 ] } },
{ "type": "Feature", "properties": { "Latitud Origen": 14.31247222, "Longitud Origen": -88.1611389, "Usuario Origen": "Jorge Alberto Avila Menjivar/Jorge Seguridad DESA/POTENCIA Y ENERGIA DE MESOAMERICA S.A. DE CV (paga)/SEGURIDAD PHAZ" }, "geometry": { "type": "Point", "coordinates": [ -88.1611389, 14.31247222 ] } },
{ "type": "Feature", "properties": { "Latitud Origen": 14.31332, "Longitud Origen": -88.1706, "Usuario Origen": "Jorge Alberto Avila Menjivar/Jorge Seguridad DESA/POTENCIA Y ENERGIA DE MESOAMERICA S.A. DE CV (paga)/SEGURIDAD PHAZ" }, "geometry": { "type": "Point", "coordinates": [ -88.1706, 14.31332 ] } },
{ "type": "Feature", "properties": { "Latitud Origen": 14.330963, "Longitud Origen": -87.594207, "Usuario Origen": "Jorge Alberto Avila Menjivar/Jorge Seguridad DESA/POTENCIA Y ENERGIA DE MESOAMERICA S.A. DE CV (paga)/SEGURIDAD PHAZ" }, "geometry": { "type": "Point", "coordinates": [ -87.594207, 14.330963 ] } },
{ "type": "Feature", "properties": { "Latitud Origen": 14.33349951, "Longitud Origen": -87.6706703, "Usuario Origen": "Jorge Alberto Avila Menjivar/Jorge Seguridad DESA/POTENCIA Y ENERGIA DE MESOAMERICA S.A. DE CV (paga)/SEGURIDAD PHAZ" }, "geometry": { "type": "Point", "coordinates": [ -87.6706703, 14.33349951 ] } },
{ "type": "Feature", "properties": { "Latitud Origen": 14.36508534, "Longitud Origen": -88.00639, "Usuario Origen": "Jorge Alberto Avila Menjivar/Jorge Seguridad DESA/POTENCIA Y ENERGIA DE MESOAMERICA S.A. DE CV (paga)/SEGURIDAD PHAZ" }, "geometry": { "type": "Point", "coordinates": [ -88.00639, 14.36508534 ] } },
{ "type": "Feature", "properties": { "Latitud Origen": 14.381889, "Longitud Origen": -87.614493, "Usuario Origen": "Jorge Alberto Avila Menjivar/Jorge Seguridad DESA/POTENCIA Y ENERGIA DE MESOAMERICA S.A. DE CV (paga)/SEGURIDAD PHAZ" }, "geometry": { "type": "Point", "coordinates": [ -87.614493, 14.381889 ] } },
{ "type": "Feature", "properties": { "Latitud Origen": 14.39002778, "Longitud Origen": -87.6156111, "Usuario Origen": "Jorge Alberto Avila Menjivar/Jorge Seguridad DESA/POTENCIA Y ENERGIA DE MESOAMERICA S.A. DE CV (paga)/SEGURIDAD PHAZ" }, "geometry": { "type": "Point", "coordinates": [ -87.6156111, 14.39002778 ] } },
{ "type": "Feature", "properties": { "Latitud Origen": 14.41763889, "Longitud Origen": -87.6207778, "Usuario Origen": "Jorge Alberto Avila Menjivar/Jorge Seguridad DESA/POTENCIA Y ENERGIA DE MESOAMERICA S.A. DE CV (paga)/SEGURIDAD PHAZ" }, "geometry": { "type": "Point", "coordinates": [ -87.6207778, 14.41763889 ] } },
{ "type": "Feature", "properties": { "Latitud Origen": 14.43213, "Longitud Origen": -87.63267, "Usuario Origen": "Jorge Alberto Avila Menjivar/Jorge Seguridad DESA/POTENCIA Y ENERGIA DE MESOAMERICA S.A. DE CV (paga)/SEGURIDAD PHAZ" }, "geometry": { "type": "Point", "coordinates": [ -87.63267, 14.43213 ] } },
{ "type": "Feature", "properties": { "Latitud Origen": 14.432797, "Longitud Origen": -87.634101, "Usuario Origen": "Jorge Alberto Avila Menjivar/Jorge Seguridad DESA/POTENCIA Y ENERGIA DE MESOAMERICA S.A. DE CV (paga)/SEGURIDAD PHAZ" }, "geometry": { "type": "Point", "coordinates": [ -87.634101, 14.432797 ] } },
{ "type": "Feature", "properties": { "Latitud Origen": 14.4400034, "Longitud Origen": -87.5563924, "Usuario Origen": "Jorge Alberto Avila Menjivar/Jorge Seguridad DESA/POTENCIA Y ENERGIA DE MESOAMERICA S.A. DE CV (paga)/SEGURIDAD PHAZ" }, "geometry": { "type": "Point", "coordinates": [ -87.5563924, 14.4400034 ] } },
{ "type": "Feature", "properties": { "Latitud Origen": 14.440927, "Longitud Origen": -87.642749, "Usuario Origen": "Jorge Alberto Avila Menjivar/Jorge Seguridad DESA/POTENCIA Y ENERGIA DE MESOAMERICA S.A. DE CV (paga)/SEGURIDAD PHAZ" }, "geometry": { "type": "Point", "coordinates": [ -87.642749, 14.440927 ] } },
{ "type": "Feature", "properties": { "Latitud Origen": 14.44103153, "Longitud Origen": -87.6427228, "Usuario Origen": "Jorge Alberto Avila Menjivar/Jorge Seguridad DESA/POTENCIA Y ENERGIA DE MESOAMERICA S.A. DE CV (paga)/SEGURIDAD PHAZ" }, "geometry": { "type": "Point", "coordinates": [ -87.6427228, 14.44103153 ] } },
{ "type": "Feature", "properties": { "Latitud Origen": 14.45677778, "Longitud Origen": -87.6553889, "Usuario Origen": "Jorge Alberto Avila Menjivar/Jorge Seguridad DESA/POTENCIA Y ENERGIA DE MESOAMERICA S.A. DE CV (paga)/SEGURIDAD PHAZ" }, "geometry": { "type": "Point", "coordinates": [ -87.6553889, 14.45677778 ] } },
{ "type": "Feature", "properties": { "Latitud Origen": 14.45680268, "Longitud Origen": -87.6143583, "Usuario Origen": "Jorge Alberto Avila Menjivar/Jorge Seguridad DESA/POTENCIA Y ENERGIA DE MESOAMERICA S.A. DE CV (paga)/SEGURIDAD PHAZ" }, "geometry": { "type": "Point", "coordinates": [ -87.6143583, 14.45680268 ] } },
{ "type": "Feature", "properties": { "Latitud Origen": 14.46413, "Longitud Origen": -87.66346, "Usuario Origen": "Jorge Alberto Avila Menjivar/Jorge Seguridad DESA/POTENCIA Y ENERGIA DE MESOAMERICA S.A. DE CV (paga)/SEGURIDAD PHAZ" }, "geometry": { "type": "Point", "coordinates": [ -87.66346, 14.46413 ] } },
{ "type": "Feature", "properties": { "Latitud Origen": 14.48355556, "Longitud Origen": -87.9748889, "Usuario Origen": "Jorge Alberto Avila Menjivar/Jorge Seguridad DESA/POTENCIA Y ENERGIA DE MESOAMERICA S.A. DE CV (paga)/SEGURIDAD PHAZ" }, "geometry": { "type": "Point", "coordinates": [ -87.9748889, 14.48355556 ] } },
{ "type": "Feature", "properties": { "Latitud Origen": 14.48541667, "Longitud Origen": -87.7185556, "Usuario Origen": "Jorge Alberto Avila Menjivar/Jorge Seguridad DESA/POTENCIA Y ENERGIA DE MESOAMERICA S.A. DE CV (paga)/SEGURIDAD PHAZ" }, "geometry": { "type": "Point", "coordinates": [ -87.7185556, 14.48541667 ] } },
{ "type": "Feature", "properties": { "Latitud Origen": 14.4856427, "Longitud Origen": -87.9927964, "Usuario Origen": "Jorge Alberto Avila Menjivar/Jorge Seguridad DESA/POTENCIA Y ENERGIA DE MESOAMERICA S.A. DE CV (paga)/SEGURIDAD PHAZ" }, "geometry": { "type": "Point", "coordinates": [ -87.9927964, 14.4856427 ] } },
{ "type": "Feature", "properties": { "Latitud Origen": 14.49061172, "Longitud Origen": -87.6595593, "Usuario Origen": "Jorge Alberto Avila Menjivar/Jorge Seguridad DESA/POTENCIA Y ENERGIA DE MESOAMERICA S.A. DE CV (paga)/SEGURIDAD PHAZ" }, "geometry": { "type": "Point", "coordinates": [ -87.6595593, 14.49061172 ] } },
{ "type": "Feature", "properties": { "Latitud Origen": 14.50471822, "Longitud Origen": -87.7797215, "Usuario Origen": "Jorge Alberto Avila Menjivar/Jorge Seguridad DESA/POTENCIA Y ENERGIA DE MESOAMERICA S.A. DE CV (paga)/SEGURIDAD PHAZ" }, "geometry": { "type": "Point", "coordinates": [ -87.7797215, 14.50471822 ] } },
{ "type": "Feature", "properties": { "Latitud Origen": 14.51060733, "Longitud Origen": -87.7395311, "Usuario Origen": "Jorge Alberto Avila Menjivar/Jorge Seguridad DESA/POTENCIA Y ENERGIA DE MESOAMERICA S.A. DE CV (paga)/SEGURIDAD PHAZ" }, "geometry": { "type": "Point", "coordinates": [ -87.7395311, 14.51060733 ] } },
{ "type": "Feature", "properties": { "Latitud Origen": 14.52441667, "Longitud Origen": -88.0898333, "Usuario Origen": "Jorge Alberto Avila Menjivar/Jorge Seguridad DESA/POTENCIA Y ENERGIA DE MESOAMERICA S.A. DE CV (paga)/SEGURIDAD PHAZ" }, "geometry": { "type": "Point", "coordinates": [ -88.0898333, 14.52441667 ] } },
{ "type": "Feature", "properties": { "Latitud Origen": 14.53044444, "Longitud Origen": -87.7908333, "Usuario Origen": "Jorge Alberto Avila Menjivar/Jorge Seguridad DESA/POTENCIA Y ENERGIA DE MESOAMERICA S.A. DE CV (paga)/SEGURIDAD PHAZ" }, "geometry": { "type": "Point", "coordinates": [ -87.7908333, 14.53044444 ] } },
{ "type": "Feature", "properties": { "Latitud Origen": 14.53336111, "Longitud Origen": -87.8016667, "Usuario Origen": "Jorge Alberto Avila Menjivar/Jorge Seguridad DESA/POTENCIA Y ENERGIA DE MESOAMERICA S.A. DE CV (paga)/SEGURIDAD PHAZ" }, "geometry": { "type": "Point", "coordinates": [ -87.8016667, 14.53336111 ] } },
{ "type": "Feature", "properties": { "Latitud Origen": 14.54527872, "Longitud Origen": -87.6514418, "Usuario Origen": "Jorge Alberto Avila Menjivar/Jorge Seguridad DESA/POTENCIA Y ENERGIA DE MESOAMERICA S.A. DE CV (paga)/SEGURIDAD PHAZ" }, "geometry": { "type": "Point", "coordinates": [ -87.6514418, 14.54527872 ] } },
{ "type": "Feature", "properties": { "Latitud Origen": 14.55019, "Longitud Origen": -87.82164, "Usuario Origen": "Jorge Alberto Avila Menjivar/Jorge Seguridad DESA/POTENCIA Y ENERGIA DE MESOAMERICA S.A. DE CV (paga)/SEGURIDAD PHAZ" }, "geometry": { "type": "Point", "coordinates": [ -87.82164, 14.55019 ] } },
{ "type": "Feature", "properties": { "Latitud Origen": 14.55052688, "Longitud Origen": -87.8249729, "Usuario Origen": "Jorge Alberto Avila Menjivar/Jorge Seguridad DESA/POTENCIA Y ENERGIA DE MESOAMERICA S.A. DE CV (paga)/SEGURIDAD PHAZ" }, "geometry": { "type": "Point", "coordinates": [ -87.8249729, 14.55052688 ] } },
{ "type": "Feature", "properties": { "Latitud Origen": 14.56794444, "Longitud Origen": -87.8972194, "Usuario Origen": "Jorge Alberto Avila Menjivar/Jorge Seguridad DESA/POTENCIA Y ENERGIA DE MESOAMERICA S.A. DE CV (paga)/SEGURIDAD PHAZ" }, "geometry": { "type": "Point", "coordinates": [ -87.8972194, 14.56794444 ] } },
{ "type": "Feature", "properties": { "Latitud Origen": 14.57077778, "Longitud Origen": -87.95125, "Usuario Origen": "Jorge Alberto Avila Menjivar/Jorge Seguridad DESA/POTENCIA Y ENERGIA DE MESOAMERICA S.A. DE CV (paga)/SEGURIDAD PHAZ" }, "geometry": { "type": "Point", "coordinates": [ -87.95125, 14.57077778 ] } },
{ "type": "Feature", "properties": { "Latitud Origen": 14.5785, "Longitud Origen": -87.8415, "Usuario Origen": "Jorge Alberto Avila Menjivar/Jorge Seguridad DESA/POTENCIA Y ENERGIA DE MESOAMERICA S.A. DE CV (paga)/SEGURIDAD PHAZ" }, "geometry": { "type": "Point", "coordinates": [ -87.8415, 14.5785 ] } },
{ "type": "Feature", "properties": { "Latitud Origen": 14.58680556, "Longitud Origen": -87.8546111, "Usuario Origen": "Jorge Alberto Avila Menjivar/Jorge Seguridad DESA/POTENCIA Y ENERGIA DE MESOAMERICA S.A. DE CV (paga)/SEGURIDAD PHAZ" }, "geometry": { "type": "Point", "coordinates": [ -87.8546111, 14.58680556 ] } },
{ "type": "Feature", "properties": { "Latitud Origen": 14.58688889, "Longitud Origen": -87.8426389, "Usuario Origen": "Jorge Alberto Avila Menjivar/Jorge Seguridad DESA/POTENCIA Y ENERGIA DE MESOAMERICA S.A. DE CV (paga)/SEGURIDAD PHAZ" }, "geometry": { "type": "Point", "coordinates": [ -87.8426389, 14.58688889 ] } },
{ "type": "Feature", "properties": { "Latitud Origen": 14.58925, "Longitud Origen": -87.8360556, "Usuario Origen": "Jorge Alberto Avila Menjivar/Jorge Seguridad DESA/POTENCIA Y ENERGIA DE MESOAMERICA S.A. DE CV (paga)/SEGURIDAD PHAZ" }, "geometry": { "type": "Point", "coordinates": [ -87.8360556, 14.58925 ] } },
{ "type": "Feature", "properties": { "Latitud Origen": 14.58925278, "Longitud Origen": -87.8360417, "Usuario Origen": "Jorge Alberto Avila Menjivar/Jorge Seguridad DESA/POTENCIA Y ENERGIA DE MESOAMERICA S.A. DE CV (paga)/SEGURIDAD PHAZ" }, "geometry": { "type": "Point", "coordinates": [ -87.8360417, 14.58925278 ] } },
{ "type": "Feature", "properties": { "Latitud Origen": 14.5936329, "Longitud Origen": -87.8301371, "Usuario Origen": "Jorge Alberto Avila Menjivar/Jorge Seguridad DESA/POTENCIA Y ENERGIA DE MESOAMERICA S.A. DE CV (paga)/SEGURIDAD PHAZ" }, "geometry": { "type": "Point", "coordinates": [ -87.8301371, 14.5936329 ] } },
{ "type": "Feature", "properties": { "Latitud Origen": 14.59472222, "Longitud Origen": -87.8170278, "Usuario Origen": "Jorge Alberto Avila Menjivar/Jorge Seguridad DESA/POTENCIA Y ENERGIA DE MESOAMERICA S.A. DE CV (paga)/SEGURIDAD PHAZ" }, "geometry": { "type": "Point", "coordinates": [ -87.8170278, 14.59472222 ] } },
{ "type": "Feature", "properties": { "Latitud Origen": 14.59636111, "Longitud Origen": -87.8466944, "Usuario Origen": "Jorge Alberto Avila Menjivar/Jorge Seguridad DESA/POTENCIA Y ENERGIA DE MESOAMERICA S.A. DE CV (paga)/SEGURIDAD PHAZ" }, "geometry": { "type": "Point", "coordinates": [ -87.8466944, 14.59636111 ] } },
{ "type": "Feature", "properties": { "Latitud Origen": 14.59703056, "Longitud Origen": -87.8355833, "Usuario Origen": "Jorge Alberto Avila Menjivar/Jorge Seguridad DESA/POTENCIA Y ENERGIA DE MESOAMERICA S.A. DE CV (paga)/SEGURIDAD PHAZ" }, "geometry": { "type": "Point", "coordinates": [ -87.8355833, 14.59703056 ] } },
{ "type": "Feature", "properties": { "Latitud Origen": 14.59703192, "Longitud Origen": -87.8355861, "Usuario Origen": "Jorge Alberto Avila Menjivar/Jorge Seguridad DESA/POTENCIA Y ENERGIA DE MESOAMERICA S.A. DE CV (paga)/SEGURIDAD PHAZ" }, "geometry": { "type": "Point", "coordinates": [ -87.8355861, 14.59703192 ] } },
{ "type": "Feature", "properties": { "Latitud Origen": 14.60086111, "Longitud Origen": -87.8683611, "Usuario Origen": "Jorge Alberto Avila Menjivar/Jorge Seguridad DESA/POTENCIA Y ENERGIA DE MESOAMERICA S.A. DE CV (paga)/SEGURIDAD PHAZ" }, "geometry": { "type": "Point", "coordinates": [ -87.8683611, 14.60086111 ] } },
{ "type": "Feature", "properties": { "Latitud Origen": 14.60202778, "Longitud Origen": -87.8311667, "Usuario Origen": "Jorge Alberto Avila Menjivar/Jorge Seguridad DESA/POTENCIA Y ENERGIA DE MESOAMERICA S.A. DE CV (paga)/SEGURIDAD PHAZ" }, "geometry": { "type": "Point", "coordinates": [ -87.8311667, 14.60202778 ] } },
{ "type": "Feature", "properties": { "Latitud Origen": 14.62411111, "Longitud Origen": -87.8874722, "Usuario Origen": "Jorge Alberto Avila Menjivar/Jorge Seguridad DESA/POTENCIA Y ENERGIA DE MESOAMERICA S.A. DE CV (paga)/SEGURIDAD PHAZ" }, "geometry": { "type": "Point", "coordinates": [ -87.8874722, 14.62411111 ] } },
{ "type": "Feature", "properties": { "Latitud Origen": 14.62619444, "Longitud Origen": -88.76675, "Usuario Origen": "Jorge Alberto Avila Menjivar/Jorge Seguridad DESA/POTENCIA Y ENERGIA DE MESOAMERICA S.A. DE CV (paga)/SEGURIDAD PHAZ" }, "geometry": { "type": "Point", "coordinates": [ -88.76675, 14.62619444 ] } },
{ "type": "Feature", "properties": { "Latitud Origen": 14.64725, "Longitud Origen": -87.9065556, "Usuario Origen": "Jorge Alberto Avila Menjivar/Jorge Seguridad DESA/POTENCIA Y ENERGIA DE MESOAMERICA S.A. DE CV (paga)/SEGURIDAD PHAZ" }, "geometry": { "type": "Point", "coordinates": [ -87.9065556, 14.64725 ] } },
{ "type": "Feature", "properties": { "Latitud Origen": 14.65544578, "Longitud Origen": -88.0039698, "Usuario Origen": "Jorge Alberto Avila Menjivar/Jorge Seguridad DESA/POTENCIA Y ENERGIA DE MESOAMERICA S.A. DE CV (paga)/SEGURIDAD PHAZ" }, "geometry": { "type": "Point", "coordinates": [ -88.0039698, 14.65544578 ] } },
{ "type": "Feature", "properties": { "Latitud Origen": 14.65602778, "Longitud Origen": -87.9404722, "Usuario Origen": "Jorge Alberto Avila Menjivar/Jorge Seguridad DESA/POTENCIA Y ENERGIA DE MESOAMERICA S.A. DE CV (paga)/SEGURIDAD PHAZ" }, "geometry": { "type": "Point", "coordinates": [ -87.9404722, 14.65602778 ] } },
{ "type": "Feature", "properties": { "Latitud Origen": 14.66122222, "Longitud Origen": -87.9473611, "Usuario Origen": "Jorge Alberto Avila Menjivar/Jorge Seguridad DESA/POTENCIA Y ENERGIA DE MESOAMERICA S.A. DE CV (paga)/SEGURIDAD PHAZ" }, "geometry": { "type": "Point", "coordinates": [ -87.9473611, 14.66122222 ] } },
{ "type": "Feature", "properties": { "Latitud Origen": 14.70239735, "Longitud Origen": -87.9665036, "Usuario Origen": "Jorge Alberto Avila Menjivar/Jorge Seguridad DESA/POTENCIA Y ENERGIA DE MESOAMERICA S.A. DE CV (paga)/SEGURIDAD PHAZ" }, "geometry": { "type": "Point", "coordinates": [ -87.9665036, 14.70239735 ] } },
{ "type": "Feature", "properties": { "Latitud Origen": 14.714248, "Longitud Origen": -88.107758, "Usuario Origen": "Jorge Alberto Avila Menjivar/Jorge Seguridad DESA/POTENCIA Y ENERGIA DE MESOAMERICA S.A. DE CV (paga)/SEGURIDAD PHAZ" }, "geometry": { "type": "Point", "coordinates": [ -88.107758, 14.714248 ] } },
{ "type": "Feature", "properties": { "Latitud Origen": 14.72683333, "Longitud Origen": -87.9986944, "Usuario Origen": "Jorge Alberto Avila Menjivar/Jorge Seguridad DESA/POTENCIA Y ENERGIA DE MESOAMERICA S.A. DE CV (paga)/SEGURIDAD PHAZ" }, "geometry": { "type": "Point", "coordinates": [ -87.9986944, 14.72683333 ] } },
{ "type": "Feature", "properties": { "Latitud Origen": 14.72777849, "Longitud Origen": -87.9008372, "Usuario Origen": "Jorge Alberto Avila Menjivar/Jorge Seguridad DESA/POTENCIA Y ENERGIA DE MESOAMERICA S.A. DE CV (paga)/SEGURIDAD PHAZ" }, "geometry": { "type": "Point", "coordinates": [ -87.9008372, 14.72777849 ] } },
{ "type": "Feature", "properties": { "Latitud Origen": 14.72976413, "Longitud Origen": -87.963921, "Usuario Origen": "Jorge Alberto Avila Menjivar/Jorge Seguridad DESA/POTENCIA Y ENERGIA DE MESOAMERICA S.A. DE CV (paga)/SEGURIDAD PHAZ" }, "geometry": { "type": "Point", "coordinates": [ -87.963921, 14.72976413 ] } },
{ "type": "Feature", "properties": { "Latitud Origen": 14.74613709, "Longitud Origen": -88.1907743, "Usuario Origen": "Jorge Alberto Avila Menjivar/Jorge Seguridad DESA/POTENCIA Y ENERGIA DE MESOAMERICA S.A. DE CV (paga)/SEGURIDAD PHAZ" }, "geometry": { "type": "Point", "coordinates": [ -88.1907743, 14.74613709 ] } },
{ "type": "Feature", "properties": { "Latitud Origen": 14.75311111, "Longitud Origen": -87.95725, "Usuario Origen": "Jorge Alberto Avila Menjivar/Jorge Seguridad DESA/POTENCIA Y ENERGIA DE MESOAMERICA S.A. DE CV (paga)/SEGURIDAD PHAZ" }, "geometry": { "type": "Point", "coordinates": [ -87.95725, 14.75311111 ] } },
{ "type": "Feature", "properties": { "Latitud Origen": 14.75658411, "Longitud Origen": -88.1077262, "Usuario Origen": "Jorge Alberto Avila Menjivar/Jorge Seguridad DESA/POTENCIA Y ENERGIA DE MESOAMERICA S.A. DE CV (paga)/SEGURIDAD PHAZ" }, "geometry": { "type": "Point", "coordinates": [ -88.1077262, 14.75658411 ] } },
{ "type": "Feature", "properties": { "Latitud Origen": 14.76572222, "Longitud Origen": -87.9607222, "Usuario Origen": "Jorge Alberto Avila Menjivar/Jorge Seguridad DESA/POTENCIA Y ENERGIA DE MESOAMERICA S.A. DE CV (paga)/SEGURIDAD PHAZ" }, "geometry": { "type": "Point", "coordinates": [ -87.9607222, 14.76572222 ] } },
{ "type": "Feature", "properties": { "Latitud Origen": 14.80358605, "Longitud Origen": -88.0147208, "Usuario Origen": "Jorge Alberto Avila Menjivar/Jorge Seguridad DESA/POTENCIA Y ENERGIA DE MESOAMERICA S.A. DE CV (paga)/SEGURIDAD PHAZ" }, "geometry": { "type": "Point", "coordinates": [ -88.0147208, 14.80358605 ] } },
{ "type": "Feature", "properties": { "Latitud Origen": 14.80408333, "Longitud Origen": -88.156, "Usuario Origen": "Jorge Alberto Avila Menjivar/Jorge Seguridad DESA/POTENCIA Y ENERGIA DE MESOAMERICA S.A. DE CV (paga)/SEGURIDAD PHAZ" }, "geometry": { "type": "Point", "coordinates": [ -88.156, 14.80408333 ] } },
{ "type": "Feature", "properties": { "Latitud Origen": 14.80838536, "Longitud Origen": -88.2027746, "Usuario Origen": "Jorge Alberto Avila Menjivar/Jorge Seguridad DESA/POTENCIA Y ENERGIA DE MESOAMERICA S.A. DE CV (paga)/SEGURIDAD PHAZ" }, "geometry": { "type": "Point", "coordinates": [ -88.2027746, 14.80838536 ] } },
{ "type": "Feature", "properties": { "Latitud Origen": 14.8310818, "Longitud Origen": -88.3559456, "Usuario Origen": "Jorge Alberto Avila Menjivar/Jorge Seguridad DESA/POTENCIA Y ENERGIA DE MESOAMERICA S.A. DE CV (paga)/SEGURIDAD PHAZ" }, "geometry": { "type": "Point", "coordinates": [ -88.3559456, 14.8310818 ] } },
{ "type": "Feature", "properties": { "Latitud Origen": 14.83799722, "Longitud Origen": -87.9517667, "Usuario Origen": "Jorge Alberto Avila Menjivar/Jorge Seguridad DESA/POTENCIA Y ENERGIA DE MESOAMERICA S.A. DE CV (paga)/SEGURIDAD PHAZ" }, "geometry": { "type": "Point", "coordinates": [ -87.9517667, 14.83799722 ] } },
{ "type": "Feature", "properties": { "Latitud Origen": 14.84682898, "Longitud Origen": -88.2946361, "Usuario Origen": "Jorge Alberto Avila Menjivar/Jorge Seguridad DESA/POTENCIA Y ENERGIA DE MESOAMERICA S.A. DE CV (paga)/SEGURIDAD PHAZ" }, "geometry": { "type": "Point", "coordinates": [ -88.2946361, 14.84682898 ] } },
{ "type": "Feature", "properties": { "Latitud Origen": 14.85663889, "Longitud Origen": -87.9545556, "Usuario Origen": "Jorge Alberto Avila Menjivar/Jorge Seguridad DESA/POTENCIA Y ENERGIA DE MESOAMERICA S.A. DE CV (paga)/SEGURIDAD PHAZ" }, "geometry": { "type": "Point", "coordinates": [ -87.9545556, 14.85663889 ] } },
{ "type": "Feature", "properties": { "Latitud Origen": 14.87780117, "Longitud Origen": -88.0623867, "Usuario Origen": "Jorge Alberto Avila Menjivar/Jorge Seguridad DESA/POTENCIA Y ENERGIA DE MESOAMERICA S.A. DE CV (paga)/SEGURIDAD PHAZ" }, "geometry": { "type": "Point", "coordinates": [ -88.0623867, 14.87780117 ] } },
{ "type": "Feature", "properties": { "Latitud Origen": 14.879023, "Longitud Origen": -88.062176, "Usuario Origen": "Jorge Alberto Avila Menjivar/Jorge Seguridad DESA/POTENCIA Y ENERGIA DE MESOAMERICA S.A. DE CV (paga)/SEGURIDAD PHAZ" }, "geometry": { "type": "Point", "coordinates": [ -88.062176, 14.879023 ] } },
{ "type": "Feature", "properties": { "Latitud Origen": 14.88744444, "Longitud Origen": -87.9397222, "Usuario Origen": "Jorge Alberto Avila Menjivar/Jorge Seguridad DESA/POTENCIA Y ENERGIA DE MESOAMERICA S.A. DE CV (paga)/SEGURIDAD PHAZ" }, "geometry": { "type": "Point", "coordinates": [ -87.9397222, 14.88744444 ] } },
{ "type": "Feature", "properties": { "Latitud Origen": 14.89216, "Longitud Origen": -88.29226, "Usuario Origen": "Jorge Alberto Avila Menjivar/Jorge Seguridad DESA/POTENCIA Y ENERGIA DE MESOAMERICA S.A. DE CV (paga)/SEGURIDAD PHAZ" }, "geometry": { "type": "Point", "coordinates": [ -88.29226, 14.89216 ] } },
{ "type": "Feature", "properties": { "Latitud Origen": 14.91176239, "Longitud Origen": -88.2433478, "Usuario Origen": "Jorge Alberto Avila Menjivar/Jorge Seguridad DESA/POTENCIA Y ENERGIA DE MESOAMERICA S.A. DE CV (paga)/SEGURIDAD PHAZ" }, "geometry": { "type": "Point", "coordinates": [ -88.2433478, 14.91176239 ] } },
{ "type": "Feature", "properties": { "Latitud Origen": 14.919182, "Longitud Origen": -88.23618, "Usuario Origen": "Jorge Alberto Avila Menjivar/Jorge Seguridad DESA/POTENCIA Y ENERGIA DE MESOAMERICA S.A. DE CV (paga)/SEGURIDAD PHAZ" }, "geometry": { "type": "Point", "coordinates": [ -88.23618, 14.919182 ] } },
{ "type": "Feature", "properties": { "Latitud Origen": 14.92613889, "Longitud Origen": -88.2408333, "Usuario Origen": "Jorge Alberto Avila Menjivar/Jorge Seguridad DESA/POTENCIA Y ENERGIA DE MESOAMERICA S.A. DE CV (paga)/SEGURIDAD PHAZ" }, "geometry": { "type": "Point", "coordinates": [ -88.2408333, 14.92613889 ] } },
{ "type": "Feature", "properties": { "Latitud Origen": 14.92944836, "Longitud Origen": -87.9566701, "Usuario Origen": "Jorge Alberto Avila Menjivar/Jorge Seguridad DESA/POTENCIA Y ENERGIA DE MESOAMERICA S.A. DE CV (paga)/SEGURIDAD PHAZ" }, "geometry": { "type": "Point", "coordinates": [ -87.9566701, 14.92944836 ] } },
{ "type": "Feature", "properties": { "Latitud Origen": 14.94336981, "Longitud Origen": -88.3188277, "Usuario Origen": "Jorge Alberto Avila Menjivar/Jorge Seguridad DESA/POTENCIA Y ENERGIA DE MESOAMERICA S.A. DE CV (paga)/SEGURIDAD PHAZ" }, "geometry": { "type": "Point", "coordinates": [ -88.3188277, 14.94336981 ] } },
{ "type": "Feature", "properties": { "Latitud Origen": 14.95741667, "Longitud Origen": -88.2317222, "Usuario Origen": "Jorge Alberto Avila Menjivar/Jorge Seguridad DESA/POTENCIA Y ENERGIA DE MESOAMERICA S.A. DE CV (paga)/SEGURIDAD PHAZ" }, "geometry": { "type": "Point", "coordinates": [ -88.2317222, 14.95741667 ] } },
{ "type": "Feature", "properties": { "Latitud Origen": 15.00963889, "Longitud Origen": -87.9281389, "Usuario Origen": "Jorge Alberto Avila Menjivar/Jorge Seguridad DESA/POTENCIA Y ENERGIA DE MESOAMERICA S.A. DE CV (paga)/SEGURIDAD PHAZ" }, "geometry": { "type": "Point", "coordinates": [ -87.9281389, 15.00963889 ] } },
{ "type": "Feature", "properties": { "Latitud Origen": 15.05785682, "Longitud Origen": -88.2515868, "Usuario Origen": "Jorge Alberto Avila Menjivar/Jorge Seguridad DESA/POTENCIA Y ENERGIA DE MESOAMERICA S.A. DE CV (paga)/SEGURIDAD PHAZ" }, "geometry": { "type": "Point", "coordinates": [ -88.2515868, 15.05785682 ] } },
{ "type": "Feature", "properties": { "Latitud Origen": 15.09183333, "Longitud Origen": -87.9253889, "Usuario Origen": "Jorge Alberto Avila Menjivar/Jorge Seguridad DESA/POTENCIA Y ENERGIA DE MESOAMERICA S.A. DE CV (paga)/SEGURIDAD PHAZ" }, "geometry": { "type": "Point", "coordinates": [ -87.9253889, 15.09183333 ] } },
{ "type": "Feature", "properties": { "Latitud Origen": 15.16185602, "Longitud Origen": -88.3498883, "Usuario Origen": "Jorge Alberto Avila Menjivar/Jorge Seguridad DESA/POTENCIA Y ENERGIA DE MESOAMERICA S.A. DE CV (paga)/SEGURIDAD PHAZ" }, "geometry": { "type": "Point", "coordinates": [ -88.3498883, 15.16185602 ] } },
{ "type": "Feature", "properties": { "Latitud Origen": 15.19766667, "Longitud Origen": -87.9634722, "Usuario Origen": "Jorge Alberto Avila Menjivar/Jorge Seguridad DESA/POTENCIA Y ENERGIA DE MESOAMERICA S.A. DE CV (paga)/SEGURIDAD PHAZ" }, "geometry": { "type": "Point", "coordinates": [ -87.9634722, 15.19766667 ] } },
{ "type": "Feature", "properties": { "Latitud Origen": 15.30169275, "Longitud Origen": -88.4176627, "Usuario Origen": "Jorge Alberto Avila Menjivar/Jorge Seguridad DESA/POTENCIA Y ENERGIA DE MESOAMERICA S.A. DE CV (paga)/SEGURIDAD PHAZ" }, "geometry": { "type": "Point", "coordinates": [ -88.4176627, 15.30169275 ] } },
{ "type": "Feature", "properties": { "Latitud Origen": 15.32069, "Longitud Origen": -87.99219, "Usuario Origen": "Jorge Alberto Avila Menjivar/Jorge Seguridad DESA/POTENCIA Y ENERGIA DE MESOAMERICA S.A. DE CV (paga)/SEGURIDAD PHAZ" }, "geometry": { "type": "Point", "coordinates": [ -87.99219, 15.32069 ] } },
{ "type": "Feature", "properties": { "Latitud Origen": 15.34111111, "Longitud Origen": -88.2889444, "Usuario Origen": "Jorge Alberto Avila Menjivar/Jorge Seguridad DESA/POTENCIA Y ENERGIA DE MESOAMERICA S.A. DE CV (paga)/SEGURIDAD PHAZ" }, "geometry": { "type": "Point", "coordinates": [ -88.2889444, 15.34111111 ] } },
{ "type": "Feature", "properties": { "Latitud Origen": 15.36777641, "Longitud Origen": -88.4327801, "Usuario Origen": "Jorge Alberto Avila Menjivar/Jorge Seguridad DESA/POTENCIA Y ENERGIA DE MESOAMERICA S.A. DE CV (paga)/SEGURIDAD PHAZ" }, "geometry": { "type": "Point", "coordinates": [ -88.4327801, 15.36777641 ] } },
{ "type": "Feature", "properties": { "Latitud Origen": 15.36802778, "Longitud Origen": -87.9859444, "Usuario Origen": "Jorge Alberto Avila Menjivar/Jorge Seguridad DESA/POTENCIA Y ENERGIA DE MESOAMERICA S.A. DE CV (paga)/SEGURIDAD PHAZ" }, "geometry": { "type": "Point", "coordinates": [ -87.9859444, 15.36802778 ] } },
{ "type": "Feature", "properties": { "Latitud Origen": 15.38369223, "Longitud Origen": -87.8055524, "Usuario Origen": "Jorge Alberto Avila Menjivar/Jorge Seguridad DESA/POTENCIA Y ENERGIA DE MESOAMERICA S.A. DE CV (paga)/SEGURIDAD PHAZ" }, "geometry": { "type": "Point", "coordinates": [ -87.8055524, 15.38369223 ] } },
{ "type": "Feature", "properties": { "Latitud Origen": 15.38933334, "Longitud Origen": -88.4001111, "Usuario Origen": "Jorge Alberto Avila Menjivar/Jorge Seguridad DESA/POTENCIA Y ENERGIA DE MESOAMERICA S.A. DE CV (paga)/SEGURIDAD PHAZ" }, "geometry": { "type": "Point", "coordinates": [ -88.4001111, 15.38933334 ] } },
{ "type": "Feature", "properties": { "Latitud Origen": 15.39622, "Longitud Origen": -87.8044, "Usuario Origen": "Jorge Alberto Avila Menjivar/Jorge Seguridad DESA/POTENCIA Y ENERGIA DE MESOAMERICA S.A. DE CV (paga)/SEGURIDAD PHAZ" }, "geometry": { "type": "Point", "coordinates": [ -87.8044, 15.39622 ] } },
{ "type": "Feature", "properties": { "Latitud Origen": 15.40260556, "Longitud Origen": -87.8118861, "Usuario Origen": "Jorge Alberto Avila Menjivar/Jorge Seguridad DESA/POTENCIA Y ENERGIA DE MESOAMERICA S.A. DE CV (paga)/SEGURIDAD PHAZ" }, "geometry": { "type": "Point", "coordinates": [ -87.8118861, 15.40260556 ] } },
{ "type": "Feature", "properties": { "Latitud Origen": 15.40958333, "Longitud Origen": -88.1118056, "Usuario Origen": "Jorge Alberto Avila Menjivar/Jorge Seguridad DESA/POTENCIA Y ENERGIA DE MESOAMERICA S.A. DE CV (paga)/SEGURIDAD PHAZ" }, "geometry": { "type": "Point", "coordinates": [ -88.1118056, 15.40958333 ] } },
{ "type": "Feature", "properties": { "Latitud Origen": 15.41758124, "Longitud Origen": -88.0237568, "Usuario Origen": "Jorge Alberto Avila Menjivar/Jorge Seguridad DESA/POTENCIA Y ENERGIA DE MESOAMERICA S.A. DE CV (paga)/SEGURIDAD PHAZ" }, "geometry": { "type": "Point", "coordinates": [ -88.0237568, 15.41758124 ] } },
{ "type": "Feature", "properties": { "Latitud Origen": 15.43097569, "Longitud Origen": -88.0201128, "Usuario Origen": "Jorge Alberto Avila Menjivar/Jorge Seguridad DESA/POTENCIA Y ENERGIA DE MESOAMERICA S.A. DE CV (paga)/SEGURIDAD PHAZ" }, "geometry": { "type": "Point", "coordinates": [ -88.0201128, 15.43097569 ] } },
{ "type": "Feature", "properties": { "Latitud Origen": 15.44166667, "Longitud Origen": -88.0191111, "Usuario Origen": "Jorge Alberto Avila Menjivar/Jorge Seguridad DESA/POTENCIA Y ENERGIA DE MESOAMERICA S.A. DE CV (paga)/SEGURIDAD PHAZ" }, "geometry": { "type": "Point", "coordinates": [ -88.0191111, 15.44166667 ] } },
{ "type": "Feature", "properties": { "Latitud Origen": 15.45058355, "Longitud Origen": -88.0199197, "Usuario Origen": "Jorge Alberto Avila Menjivar/Jorge Seguridad DESA/POTENCIA Y ENERGIA DE MESOAMERICA S.A. DE CV (paga)/SEGURIDAD PHAZ" }, "geometry": { "type": "Point", "coordinates": [ -88.0199197, 15.45058355 ] } },
{ "type": "Feature", "properties": { "Latitud Origen": 15.4577, "Longitud Origen": -88.0272611, "Usuario Origen": "Jorge Alberto Avila Menjivar/Jorge Seguridad DESA/POTENCIA Y ENERGIA DE MESOAMERICA S.A. DE CV (paga)/SEGURIDAD PHAZ" }, "geometry": { "type": "Point", "coordinates": [ -88.0272611, 15.4577 ] } },
{ "type": "Feature", "properties": { "Latitud Origen": 15.46119, "Longitud Origen": -88.0295, "Usuario Origen": "Jorge Alberto Avila Menjivar/Jorge Seguridad DESA/POTENCIA Y ENERGIA DE MESOAMERICA S.A. DE CV (paga)/SEGURIDAD PHAZ" }, "geometry": { "type": "Point", "coordinates": [ -88.0295, 15.46119 ] } },
{ "type": "Feature", "properties": { "Latitud Origen": 15.47669444, "Longitud Origen": -88.02425, "Usuario Origen": "Jorge Alberto Avila Menjivar/Jorge Seguridad DESA/POTENCIA Y ENERGIA DE MESOAMERICA S.A. DE CV (paga)/SEGURIDAD PHAZ" }, "geometry": { "type": "Point", "coordinates": [ -88.02425, 15.47669444 ] } },
{ "type": "Feature", "properties": { "Latitud Origen": 15.4911, "Longitud Origen": -88.0285, "Usuario Origen": "Jorge Alberto Avila Menjivar/Jorge Seguridad DESA/POTENCIA Y ENERGIA DE MESOAMERICA S.A. DE CV (paga)/SEGURIDAD PHAZ" }, "geometry": { "type": "Point", "coordinates": [ -88.0285, 15.4911 ] } },
{ "type": "Feature", "properties": { "Latitud Origen": 15.4911, "Longitud Origen": -88.03444, "Usuario Origen": "Jorge Alberto Avila Menjivar/Jorge Seguridad DESA/POTENCIA Y ENERGIA DE MESOAMERICA S.A. DE CV (paga)/SEGURIDAD PHAZ" }, "geometry": { "type": "Point", "coordinates": [ -88.03444, 15.4911 ] } },
{ "type": "Feature", "properties": { "Latitud Origen": 15.49530556, "Longitud Origen": -88.0390278, "Usuario Origen": "Jorge Alberto Avila Menjivar/Jorge Seguridad DESA/POTENCIA Y ENERGIA DE MESOAMERICA S.A. DE CV (paga)/SEGURIDAD PHAZ" }, "geometry": { "type": "Point", "coordinates": [ -88.0390278, 15.49530556 ] } },
{ "type": "Feature", "properties": { "Latitud Origen": 15.497, "Longitud Origen": -88.0361111, "Usuario Origen": "Jorge Alberto Avila Menjivar/Jorge Seguridad DESA/POTENCIA Y ENERGIA DE MESOAMERICA S.A. DE CV (paga)/SEGURIDAD PHAZ" }, "geometry": { "type": "Point", "coordinates": [ -88.0361111, 15.497 ] } },
{ "type": "Feature", "properties": { "Latitud Origen": 15.49700715, "Longitud Origen": -88.0324339, "Usuario Origen": "Jorge Alberto Avila Menjivar/Jorge Seguridad DESA/POTENCIA Y ENERGIA DE MESOAMERICA S.A. DE CV (paga)/SEGURIDAD PHAZ" }, "geometry": { "type": "Point", "coordinates": [ -88.0324339, 15.49700715 ] } },
{ "type": "Feature", "properties": { "Latitud Origen": 15.49771862, "Longitud Origen": -88.0368655, "Usuario Origen": "Jorge Alberto Avila Menjivar/Jorge Seguridad DESA/POTENCIA Y ENERGIA DE MESOAMERICA S.A. DE CV (paga)/SEGURIDAD PHAZ" }, "geometry": { "type": "Point", "coordinates": [ -88.0368655, 15.49771862 ] } },
{ "type": "Feature", "properties": { "Latitud Origen": 15.497869, "Longitud Origen": -88.023946, "Usuario Origen": "Jorge Alberto Avila Menjivar/Jorge Seguridad DESA/POTENCIA Y ENERGIA DE MESOAMERICA S.A. DE CV (paga)/SEGURIDAD PHAZ" }, "geometry": { "type": "Point", "coordinates": [ -88.023946, 15.497869 ] } },
{ "type": "Feature", "properties": { "Latitud Origen": 15.49786922, "Longitud Origen": -88.0239455, "Usuario Origen": "Jorge Alberto Avila Menjivar/Jorge Seguridad DESA/POTENCIA Y ENERGIA DE MESOAMERICA S.A. DE CV (paga)/SEGURIDAD PHAZ" }, "geometry": { "type": "Point", "coordinates": [ -88.0239455, 15.49786922 ] } },
{ "type": "Feature", "properties": { "Latitud Origen": 15.498712, "Longitud Origen": -87.686417, "Usuario Origen": "Jorge Alberto Avila Menjivar/Jorge Seguridad DESA/POTENCIA Y ENERGIA DE MESOAMERICA S.A. DE CV (paga)/SEGURIDAD PHAZ" }, "geometry": { "type": "Point", "coordinates": [ -87.686417, 15.498712 ] } },
{ "type": "Feature", "properties": { "Latitud Origen": 15.50266383, "Longitud Origen": -88.0290033, "Usuario Origen": "Jorge Alberto Avila Menjivar/Jorge Seguridad DESA/POTENCIA Y ENERGIA DE MESOAMERICA S.A. DE CV (paga)/SEGURIDAD PHAZ" }, "geometry": { "type": "Point", "coordinates": [ -88.0290033, 15.50266383 ] } },
{ "type": "Feature", "properties": { "Latitud Origen": 15.5035821, "Longitud Origen": -88.0413882, "Usuario Origen": "Jorge Alberto Avila Menjivar/Jorge Seguridad DESA/POTENCIA Y ENERGIA DE MESOAMERICA S.A. DE CV (paga)/SEGURIDAD PHAZ" }, "geometry": { "type": "Point", "coordinates": [ -88.0413882, 15.5035821 ] } },
{ "type": "Feature", "properties": { "Latitud Origen": 15.50411111, "Longitud Origen": -88.0241389, "Usuario Origen": "Jorge Alberto Avila Menjivar/Jorge Seguridad DESA/POTENCIA Y ENERGIA DE MESOAMERICA S.A. DE CV (paga)/SEGURIDAD PHAZ" }, "geometry": { "type": "Point", "coordinates": [ -88.0241389, 15.50411111 ] } },
{ "type": "Feature", "properties": { "Latitud Origen": 15.5059727, "Longitud Origen": -88.0250296, "Usuario Origen": "Jorge Alberto Avila Menjivar/Jorge Seguridad DESA/POTENCIA Y ENERGIA DE MESOAMERICA S.A. DE CV (paga)/SEGURIDAD PHAZ" }, "geometry": { "type": "Point", "coordinates": [ -88.0250296, 15.5059727 ] } },
{ "type": "Feature", "properties": { "Latitud Origen": 15.50636111, "Longitud Origen": -88.0233333, "Usuario Origen": "Jorge Alberto Avila Menjivar/Jorge Seguridad DESA/POTENCIA Y ENERGIA DE MESOAMERICA S.A. DE CV (paga)/SEGURIDAD PHAZ" }, "geometry": { "type": "Point", "coordinates": [ -88.0233333, 15.50636111 ] } },
{ "type": "Feature", "properties": { "Latitud Origen": 15.51205, "Longitud Origen": -88.03062, "Usuario Origen": "Jorge Alberto Avila Menjivar/Jorge Seguridad DESA/POTENCIA Y ENERGIA DE MESOAMERICA S.A. DE CV (paga)/SEGURIDAD PHAZ" }, "geometry": { "type": "Point", "coordinates": [ -88.03062, 15.51205 ] } },
{ "type": "Feature", "properties": { "Latitud Origen": 15.51338889, "Longitud Origen": -88.0140833, "Usuario Origen": "Jorge Alberto Avila Menjivar/Jorge Seguridad DESA/POTENCIA Y ENERGIA DE MESOAMERICA S.A. DE CV (paga)/SEGURIDAD PHAZ" }, "geometry": { "type": "Point", "coordinates": [ -88.0140833, 15.51338889 ] } },
{ "type": "Feature", "properties": { "Latitud Origen": 15.51723829, "Longitud Origen": -88.0264837, "Usuario Origen": "Jorge Alberto Avila Menjivar/Jorge Seguridad DESA/POTENCIA Y ENERGIA DE MESOAMERICA S.A. DE CV (paga)/SEGURIDAD PHAZ" }, "geometry": { "type": "Point", "coordinates": [ -88.0264837, 15.51723829 ] } },
{ "type": "Feature", "properties": { "Latitud Origen": 15.52643225, "Longitud Origen": -88.0360019, "Usuario Origen": "Jorge Alberto Avila Menjivar/Jorge Seguridad DESA/POTENCIA Y ENERGIA DE MESOAMERICA S.A. DE CV (paga)/SEGURIDAD PHAZ" }, "geometry": { "type": "Point", "coordinates": [ -88.0360019, 15.52643225 ] } },
{ "type": "Feature", "properties": { "Latitud Origen": 15.53016667, "Longitud Origen": -88.0351667, "Usuario Origen": "Jorge Alberto Avila Menjivar/Jorge Seguridad DESA/POTENCIA Y ENERGIA DE MESOAMERICA S.A. DE CV (paga)/SEGURIDAD PHAZ" }, "geometry": { "type": "Point", "coordinates": [ -88.0351667, 15.53016667 ] } },
{ "type": "Feature", "properties": { "Latitud Origen": 15.56822222, "Longitud Origen": -87.9668889, "Usuario Origen": "Jorge Alberto Avila Menjivar/Jorge Seguridad DESA/POTENCIA Y ENERGIA DE MESOAMERICA S.A. DE CV (paga)/SEGURIDAD PHAZ" }, "geometry": { "type": "Point", "coordinates": [ -87.9668889, 15.56822222 ] } },
{ "type": "Feature", "properties": { "Latitud Origen": 15.60619532, "Longitud Origen": -87.9355826, "Usuario Origen": "Jorge Alberto Avila Menjivar/Jorge Seguridad DESA/POTENCIA Y ENERGIA DE MESOAMERICA S.A. DE CV (paga)/SEGURIDAD PHAZ" }, "geometry": { "type": "Point", "coordinates": [ -87.9355826, 15.60619532 ] } },
{ "type": "Feature", "properties": { "Latitud Origen": 15.60836111, "Longitud Origen": -87.9488056, "Usuario Origen": "Jorge Alberto Avila Menjivar/Jorge Seguridad DESA/POTENCIA Y ENERGIA DE MESOAMERICA S.A. DE CV (paga)/SEGURIDAD PHAZ" }, "geometry": { "type": "Point", "coordinates": [ -87.9488056, 15.60836111 ] } },
{ "type": "Feature", "properties": { "Latitud Origen": 15.61152778, "Longitud Origen": -87.9415278, "Usuario Origen": "Jorge Alberto Avila Menjivar/Jorge Seguridad DESA/POTENCIA Y ENERGIA DE MESOAMERICA S.A. DE CV (paga)/SEGURIDAD PHAZ" }, "geometry": { "type": "Point", "coordinates": [ -87.9415278, 15.61152778 ] } },
{ "type": "Feature", "properties": { "Latitud Origen": 15.615081, "Longitud Origen": -87.958607, "Usuario Origen": "Jorge Alberto Avila Menjivar/Jorge Seguridad DESA/POTENCIA Y ENERGIA DE MESOAMERICA S.A. DE CV (paga)/SEGURIDAD PHAZ" }, "geometry": { "type": "Point", "coordinates": [ -87.958607, 15.615081 ] } },
{ "type": "Feature", "properties": { "Latitud Origen": 15.62088889, "Longitud Origen": -87.0948333, "Usuario Origen": "Jorge Alberto Avila Menjivar/Jorge Seguridad DESA/POTENCIA Y ENERGIA DE MESOAMERICA S.A. DE CV (paga)/SEGURIDAD PHAZ" }, "geometry": { "type": "Point", "coordinates": [ -87.0948333, 15.62088889 ] } },
{ "type": "Feature", "properties": { "Latitud Origen": 15.63514294, "Longitud Origen": -87.304663, "Usuario Origen": "Jorge Alberto Avila Menjivar/Jorge Seguridad DESA/POTENCIA Y ENERGIA DE MESOAMERICA S.A. DE CV (paga)/SEGURIDAD PHAZ" }, "geometry": { "type": "Point", "coordinates": [ -87.304663, 15.63514294 ] } },
{ "type": "Feature", "properties": { "Latitud Origen": 15.63969678, "Longitud Origen": -87.0998099, "Usuario Origen": "Jorge Alberto Avila Menjivar/Jorge Seguridad DESA/POTENCIA Y ENERGIA DE MESOAMERICA S.A. DE CV (paga)/SEGURIDAD PHAZ" }, "geometry": { "type": "Point", "coordinates": [ -87.0998099, 15.63969678 ] } },
{ "type": "Feature", "properties": { "Latitud Origen": 15.64308333, "Longitud Origen": -87.3268333, "Usuario Origen": "Jorge Alberto Avila Menjivar/Jorge Seguridad DESA/POTENCIA Y ENERGIA DE MESOAMERICA S.A. DE CV (paga)/SEGURIDAD PHAZ" }, "geometry": { "type": "Point", "coordinates": [ -87.3268333, 15.64308333 ] } },
{ "type": "Feature", "properties": { "Latitud Origen": 15.67660776, "Longitud Origen": -88.1251412, "Usuario Origen": "Jorge Alberto Avila Menjivar/Jorge Seguridad DESA/POTENCIA Y ENERGIA DE MESOAMERICA S.A. DE CV (paga)/SEGURIDAD PHAZ" }, "geometry": { "type": "Point", "coordinates": [ -88.1251412, 15.67660776 ] } },
{ "type": "Feature", "properties": { "Latitud Origen": 15.71122222, "Longitud Origen": -86.9145556, "Usuario Origen": "Jorge Alberto Avila Menjivar/Jorge Seguridad DESA/POTENCIA Y ENERGIA DE MESOAMERICA S.A. DE CV (paga)/SEGURIDAD PHAZ" }, "geometry": { "type": "Point", "coordinates": [ -86.9145556, 15.71122222 ] } },
{ "type": "Feature", "properties": { "Latitud Origen": 15.74380422, "Longitud Origen": -88.0751106, "Usuario Origen": "Jorge Alberto Avila Menjivar/Jorge Seguridad DESA/POTENCIA Y ENERGIA DE MESOAMERICA S.A. DE CV (paga)/SEGURIDAD PHAZ" }, "geometry": { "type": "Point", "coordinates": [ -88.0751106, 15.74380422 ] } },
{ "type": "Feature", "properties": { "Latitud Origen": 15.74577577, "Longitud Origen": -86.888393, "Usuario Origen": "Jorge Alberto Avila Menjivar/Jorge Seguridad DESA/POTENCIA Y ENERGIA DE MESOAMERICA S.A. DE CV (paga)/SEGURIDAD PHAZ" }, "geometry": { "type": "Point", "coordinates": [ -86.888393, 15.74577577 ] } },
{ "type": "Feature", "properties": { "Latitud Origen": 15.75674583, "Longitud Origen": -86.804108, "Usuario Origen": "Jorge Alberto Avila Menjivar/Jorge Seguridad DESA/POTENCIA Y ENERGIA DE MESOAMERICA S.A. DE CV (paga)/SEGURIDAD PHAZ" }, "geometry": { "type": "Point", "coordinates": [ -86.804108, 15.75674583 ] } },
{ "type": "Feature", "properties": { "Latitud Origen": 15.76577143, "Longitud Origen": -86.8076002, "Usuario Origen": "Jorge Alberto Avila Menjivar/Jorge Seguridad DESA/POTENCIA Y ENERGIA DE MESOAMERICA S.A. DE CV (paga)/SEGURIDAD PHAZ" }, "geometry": { "type": "Point", "coordinates": [ -86.8076002, 15.76577143 ] } },
{ "type": "Feature", "properties": { "Latitud Origen": 15.76966796, "Longitud Origen": -87.4409687, "Usuario Origen": "Jorge Alberto Avila Menjivar/Jorge Seguridad DESA/POTENCIA Y ENERGIA DE MESOAMERICA S.A. DE CV (paga)/SEGURIDAD PHAZ" }, "geometry": { "type": "Point", "coordinates": [ -87.4409687, 15.76966796 ] } },
{ "type": "Feature", "properties": { "Latitud Origen": 15.77228, "Longitud Origen": -86.79282, "Usuario Origen": "Jorge Alberto Avila Menjivar/Jorge Seguridad DESA/POTENCIA Y ENERGIA DE MESOAMERICA S.A. DE CV (paga)/SEGURIDAD PHAZ" }, "geometry": { "type": "Point", "coordinates": [ -86.79282, 15.77228 ] } },
{ "type": "Feature", "properties": { "Latitud Origen": 15.77483236, "Longitud Origen": -88.0341092, "Usuario Origen": "Jorge Alberto Avila Menjivar/Jorge Seguridad DESA/POTENCIA Y ENERGIA DE MESOAMERICA S.A. DE CV (paga)/SEGURIDAD PHAZ" }, "geometry": { "type": "Point", "coordinates": [ -88.0341092, 15.77483236 ] } },
{ "type": "Feature", "properties": { "Latitud Origen": 15.78461499, "Longitud Origen": -86.7912808, "Usuario Origen": "Jorge Alberto Avila Menjivar/Jorge Seguridad DESA/POTENCIA Y ENERGIA DE MESOAMERICA S.A. DE CV (paga)/SEGURIDAD PHAZ" }, "geometry": { "type": "Point", "coordinates": [ -86.7912808, 15.78461499 ] } },
{ "type": "Feature", "properties": { "Latitud Origen": 15.78536111, "Longitud Origen": -86.78625, "Usuario Origen": "Jorge Alberto Avila Menjivar/Jorge Seguridad DESA/POTENCIA Y ENERGIA DE MESOAMERICA S.A. DE CV (paga)/SEGURIDAD PHAZ" }, "geometry": { "type": "Point", "coordinates": [ -86.78625, 15.78536111 ] } },
{ "type": "Feature", "properties": { "Latitud Origen": 15.7864984, "Longitud Origen": -86.794416, "Usuario Origen": "Jorge Alberto Avila Menjivar/Jorge Seguridad DESA/POTENCIA Y ENERGIA DE MESOAMERICA S.A. DE CV (paga)/SEGURIDAD PHAZ" }, "geometry": { "type": "Point", "coordinates": [ -86.794416, 15.7864984 ] } },
{ "type": "Feature", "properties": { "Latitud Origen": 15.78772372, "Longitud Origen": -86.7900265, "Usuario Origen": "Jorge Alberto Avila Menjivar/Jorge Seguridad DESA/POTENCIA Y ENERGIA DE MESOAMERICA S.A. DE CV (paga)/SEGURIDAD PHAZ" }, "geometry": { "type": "Point", "coordinates": [ -86.7900265, 15.78772372 ] } },
{ "type": "Feature", "properties": { "Latitud Origen": 15.79580556, "Longitud Origen": -87.9663889, "Usuario Origen": "Jorge Alberto Avila Menjivar/Jorge Seguridad DESA/POTENCIA Y ENERGIA DE MESOAMERICA S.A. DE CV (paga)/SEGURIDAD PHAZ" }, "geometry": { "type": "Point", "coordinates": [ -87.9663889, 15.79580556 ] } }
]
}
