{
"type": "FeatureCollection",
"name": "Proyecto Agua Zarca 2011",
"crs": { "type": "name", "properties": { "name": "urn:ogc:def:crs:OGC:1.3:CRS84" } },
"features": [
{ "type": "Feature", "properties": { "id": 1, "Prop_orig": "Ricardo Pineda", "Comunidad": "El Barreal", "Infr_asoci": "Casa de Máquinas", "Area (m2)": 22332.7 }, "geometry": { "type": "MultiPolygon", "coordinates": [ [ [ [ -88.175357669635687, 14.69132194015082 ], [ -88.175403252354997, 14.691608392214027 ], [ -88.175417384899333, 14.691662226822306 ], [ -88.175417666517305, 14.691714906447768 ], [ -88.175436663112777, 14.691736862756741 ], [ -88.175440799072675, 14.691804224546358 ], [ -88.175589920797847, 14.69191740721465 ], [ -88.175618900925286, 14.691923386099697 ], [ -88.17564418391693, 14.691944085399555 ], [ -88.175787654974386, 14.692177360328555 ], [ -88.176054847315314, 14.692716293226487 ], [ -88.175975838175773, 14.692769374697862 ], [ -88.175954520842808, 14.692784184419001 ], [ -88.175915537429134, 14.692790507683844 ], [ -88.175895400046969, 14.692790609734836 ], [ -88.175876560565044, 14.692798056049551 ], [ -88.175857793156268, 14.692818978542643 ], [ -88.175839012639685, 14.692837450819926 ], [ -88.17583785233505, 14.692855833806687 ], [ -88.175820330400654, 14.692874299704897 ], [ -88.175805378053198, 14.692902553704766 ], [ -88.175770307961599, 14.692934585066832 ], [ -88.175726519469492, 14.69298381256762 ], [ -88.175684028854079, 14.693040384328162 ], [ -88.175615173373913, 14.693109341068691 ], [ -88.175603852629777, 14.693110623566479 ], [ -88.175586337206582, 14.693130314556925 ], [ -88.175534918495117, 14.693164878997967 ], [ -88.17549227713755, 14.693193273259157 ], [ -88.175455974565224, 14.693230211385416 ], [ -88.17544468656402, 14.693237619412924 ], [ -88.175382078045473, 14.693297968461753 ], [ -88.175358204142427, 14.693305440240778 ], [ -88.175289328827972, 14.693370721574443 ], [ -88.175258945841193, 14.693337796673159 ], [ -88.175256376268578, 14.693328008563237 ], [ -88.175243672488193, 14.693306020377307 ], [ -88.175220860700904, 14.693276732543211 ], [ -88.17519296217273, 14.69323766934445 ], [ -88.175154929457378, 14.693186406060731 ], [ -88.17512961361389, 14.693159581179184 ], [ -88.175125589011813, 14.693113046214846 ], [ -88.17511543517611, 14.693097170809196 ], [ -88.175101407354603, 14.693062937911412 ], [ -88.175069805139728, 14.693037369998667 ], [ -88.175044594089258, 14.693030146826947 ], [ -88.175025675980834, 14.693022891784867 ], [ -88.174996662978799, 14.693010787297734 ], [ -88.174960046073181, 14.692988920184675 ], [ -88.174929774490835, 14.692976822061686 ], [ -88.174922065833357, 14.692947457715738 ], [ -88.174904334306476, 14.692926720105662 ], [ -88.174892790970219, 14.69288634890755 ], [ -88.174885075774853, 14.692855759451858 ], [ -88.17487486304816, 14.692828858063981 ], [ -88.174865882724291, 14.692797049872077 ], [ -88.174858160990084, 14.69276523530705 ], [ -88.174846604579812, 14.69272241388941 ], [ -88.174832596466771, 14.69269185629258 ], [ -88.174813573652386, 14.692664999506631 ], [ -88.174788218635555, 14.692630823932641 ], [ -88.174768081259856, 14.692630925884728 ], [ -88.17472022880871, 14.692626267582824 ], [ -88.174698819755562, 14.692623925684988 ], [ -88.174677423793867, 14.692624034000733 ], [ -88.174659810135438, 14.692625348308253 ], [ -88.174651032760522, 14.692631518446658 ], [ -88.174628410938155, 14.692637758668331 ], [ -88.174608299741422, 14.692642761037899 ], [ -88.17458823435922, 14.692656339160626 ], [ -88.174560552007321, 14.69265770442852 ], [ -88.174545442427629, 14.692656555770213 ], [ -88.174534102061941, 14.692654162891017 ], [ -88.174508930337311, 14.692654290303491 ], [ -88.17447610238365, 14.692634854209487 ], [ -88.174460914273197, 14.692619004250833 ], [ -88.174448190982673, 14.692593340687395 ], [ -88.174435421885946, 14.692559101367623 ], [ -88.174423944099658, 14.692530981216306 ], [ -88.174401191399582, 14.692512719257017 ], [ -88.174387274976468, 14.692499313138322 ], [ -88.174373332379801, 14.692481006586862 ], [ -88.174364391407593, 14.692456549015896 ], [ -88.174346653429595, 14.692434586247554 ], [ -88.174328908911676, 14.692411398369583 ], [ -88.174313727371214, 14.692396773507038 ], [ -88.174304819126519, 14.692378441472796 ], [ -88.174285802946613, 14.692352809744072 ], [ -88.174275564146612, 14.692321007889488 ], [ -88.174271598641724, 14.692285498864628 ], [ -88.174271232226346, 14.692216892815784 ], [ -88.174267273268427, 14.692182608898376 ], [ -88.174252091748755, 14.692167984030043 ], [ -88.174253278359444, 14.692154501472722 ], [ -88.174304631638179, 14.69210768623525 ], [ -88.17434340560925, 14.692062159790243 ], [ -88.174367109290486, 14.692022835314452 ], [ -88.174398312108607, 14.691973671754917 ], [ -88.174428302138196, 14.691933090317686 ], [ -88.174458226716965, 14.691880257797553 ], [ -88.174501904059639, 14.691810203691531 ], [ -88.174539406269687, 14.691762233373785 ], [ -88.174571906863193, 14.691720414072728 ], [ -88.174583077020188, 14.691690954147498 ], [ -88.174608091560088, 14.691661424144897 ], [ -88.174655590369809, 14.69159992665886 ], [ -88.174696927158237, 14.691562963178368 ], [ -88.174735720591798, 14.691521112002503 ], [ -88.174778355204865, 14.691491492785305 ], [ -88.174798407381914, 14.691475464437817 ], [ -88.174818407189505, 14.691449635225935 ], [ -88.174833366130457, 14.691422606391994 ], [ -88.174844516601638, 14.691389471133595 ], [ -88.174860766844418, 14.691368561465705 ], [ -88.174863094167591, 14.691333020594231 ], [ -88.174857902750347, 14.691303643493329 ], [ -88.17484816973473, 14.6911309478867 ], [ -88.175357669635687, 14.69132194015082 ] ] ] ] } },
{ "type": "Feature", "properties": { "id": 9, "Prop_orig": "José Santos Vasquez", "Comunidad": "La Tejera", "Infr_asoci": "Tubería forzada", "Area (m2)": 20364.12 }, "geometry": { "type": "MultiPolygon", "coordinates": [ [ [ [ -88.176096215440509, 14.689861506138561 ], [ -88.175357669635687, 14.69132194015082 ], [ -88.17484816973473, 14.6911309478867 ], [ -88.17454166137594, 14.691006309894401 ], [ -88.174578751167161, 14.690881157772532 ], [ -88.174643032197309, 14.690662757288576 ], [ -88.174766703621273, 14.690252934143505 ], [ -88.174913971468769, 14.69001941181423 ], [ -88.17502104334288, 14.689800794616627 ], [ -88.175073654503564, 14.689753972880386 ], [ -88.175146219436272, 14.689672746149169 ], [ -88.175183766998373, 14.689633351511285 ], [ -88.175196182461249, 14.689601434976591 ], [ -88.175412376059825, 14.689224145290094 ], [ -88.176058314210906, 14.689834745110314 ], [ -88.176096215440509, 14.689861506138561 ] ] ] ] } },
{ "type": "Feature", "properties": { "id": 2, "Prop_orig": "Irene Gonzalez", "Comunidad": "El Barreal", "Infr_asoci": "Tubería forzada", "Area (m2)": 6848.07 }, "geometry": { "type": "MultiPolygon", "coordinates": [ [ [ [ -88.174766703621273, 14.690252934143505 ], [ -88.174751497017354, 14.690263041962449 ], [ -88.174619533416006, 14.690298626444903 ], [ -88.174568350181161, 14.69025937469476 ], [ -88.17449816814387, 14.690197707112681 ], [ -88.174436031624083, 14.690140133643361 ], [ -88.174360112485061, 14.690064712206757 ], [ -88.17428147201187, 14.690009978771144 ], [ -88.174239810367894, 14.689986069599138 ], [ -88.174198212513815, 14.689974105224707 ], [ -88.174146726720821, 14.689966555434719 ], [ -88.17415752302297, 14.689955474540392 ], [ -88.174203540004655, 14.689911136631524 ], [ -88.174239276796058, 14.689886146705588 ], [ -88.174273184601859, 14.689872192301261 ], [ -88.174374898177675, 14.689828491398035 ], [ -88.174417281683986, 14.689810818660877 ], [ -88.1744391605244, 14.689798073674673 ], [ -88.174461449984889, 14.689773840908819 ], [ -88.174466936886219, 14.689740734326724 ], [ -88.174515495999458, 14.68964217099567 ], [ -88.174543514440188, 14.689585978985436 ], [ -88.174555466490901, 14.689526192859576 ], [ -88.174570215960856, 14.689459960583902 ], [ -88.174584041128426, 14.689397408409304 ], [ -88.174607398790428, 14.68935226625317 ], [ -88.174632688464413, 14.68931538402064 ], [ -88.174666419468835, 14.68926835164638 ], [ -88.174698218436831, 14.689213059343318 ], [ -88.17473222427202, 14.689217481502965 ], [ -88.174771834756783, 14.689210849017199 ], [ -88.174843558315217, 14.689207729393141 ], [ -88.174911609259183, 14.689223924312763 ], [ -88.174932444331873, 14.68923668282005 ], [ -88.174949567525985, 14.68926140524313 ], [ -88.174973254016336, 14.689277824734427 ], [ -88.175002540238864, 14.689282270746906 ], [ -88.175026256191956, 14.689304203218279 ], [ -88.175048157942953, 14.689339927709717 ], [ -88.175066389874999, 14.689351321099426 ], [ -88.175089015851313, 14.689345923121016 ], [ -88.175119822614263, 14.689325782025913 ], [ -88.175147196444442, 14.689325643423336 ], [ -88.175189879304114, 14.689364019243358 ], [ -88.175227778716675, 14.689390474151397 ], [ -88.175305318099205, 14.689415809459689 ], [ -88.175196182461249, 14.689601434976591 ], [ -88.175183766998373, 14.689633351511285 ], [ -88.175073654503564, 14.689753972880386 ], [ -88.17502104334288, 14.689800794616627 ], [ -88.174913971468769, 14.69001941181423 ], [ -88.174766703621273, 14.690252934143505 ] ] ] ] } },
{ "type": "Feature", "properties": { "id": 3, "Prop_orig": "Juan Madrid", "Comunidad": "El Barreal", "Infr_asoci": "Casa de Máquinas", "Area (m2)": 22332.7 }, "geometry": { "type": "MultiPolygon", "coordinates": [ [ [ [ -88.174932444331873, 14.68923668282005 ], [ -88.174911609259183, 14.689223924312763 ], [ -88.174843558315217, 14.689207729393141 ], [ -88.174771834756783, 14.689210849017199 ], [ -88.17473222427202, 14.689217481502965 ], [ -88.174698218436831, 14.689213059343318 ], [ -88.174600729975879, 14.689208269330338 ], [ -88.174542145291468, 14.689197080119538 ], [ -88.174492963055869, 14.68917895189233 ], [ -88.17449942821969, 14.689152272350791 ], [ -88.174502835876567, 14.689083340905027 ], [ -88.174509016418639, 14.689003369154435 ], [ -88.174517994378931, 14.688916951254836 ], [ -88.174528909253638, 14.688839712113186 ], [ -88.174530497759122, 14.688783653856573 ], [ -88.174541108378222, 14.688649447179609 ], [ -88.174565308577556, 14.688408584428773 ], [ -88.17457880001011, 14.68828355173072 ], [ -88.174567389536989, 14.688267988921321 ], [ -88.174529372630928, 14.688219481932835 ], [ -88.174463849567474, 14.688146305006962 ], [ -88.174438187080185, 14.688113356039556 ], [ -88.174399260655306, 14.688071285620282 ], [ -88.174410494472923, 14.688053770513203 ], [ -88.174462341377023, 14.688040644186444 ], [ -88.17457825704922, 14.688005141089967 ], [ -88.174633874700262, 14.6879910767883 ], [ -88.174671597132075, 14.68798445388898 ], [ -88.174706311126485, 14.687944767391981 ], [ -88.174751231537925, 14.687871950416387 ], [ -88.174781176827054, 14.687823099485074 ], [ -88.174855172152874, 14.687715218804311 ], [ -88.174905716712914, 14.687635022488728 ], [ -88.174944983311065, 14.687564071813036 ], [ -88.17498352194923, 14.687533554480966 ], [ -88.175017488253943, 14.687530625969156 ], [ -88.175101132277732, 14.687638627529358 ], [ -88.175123972862067, 14.687673428420213 ], [ -88.175154600453794, 14.687752294968217 ], [ -88.175189043021518, 14.687838493041902 ], [ -88.175189131395129, 14.687855032000909 ], [ -88.175210015443454, 14.68787697880364 ], [ -88.175314622336458, 14.688021628361932 ], [ -88.175375278709652, 14.68806726400085 ], [ -88.175447370183974, 14.688133056539536 ], [ -88.17548527431147, 14.688160430252642 ], [ -88.175531816154418, 14.688214407029543 ], [ -88.175570791922439, 14.68826566554934 ], [ -88.175586081285402, 14.68830050462922 ], [ -88.175628055841145, 14.688382989043731 ], [ -88.175661422166343, 14.688444383369788 ], [ -88.175689120070345, 14.688504887546951 ], [ -88.175740641995006, 14.68860753839742 ], [ -88.175764529869227, 14.688661629872609 ], [ -88.175773127099973, 14.688680652575712 ], [ -88.175781683804871, 14.688692094924315 ], [ -88.175781249914962, 14.688699218253872 ], [ -88.175772791457391, 14.68870615252119 ], [ -88.175706883907253, 14.688737727485634 ], [ -88.175608012721028, 14.688783252237988 ], [ -88.175520453832178, 14.688825963088973 ], [ -88.175418760615415, 14.688873339770421 ], [ -88.175402713921983, 14.688873421036929 ], [ -88.175387645527437, 14.6888799293384 ], [ -88.175350965111733, 14.688904924201658 ], [ -88.175321804156042, 14.68892390841847 ], [ -88.175271038528024, 14.688962757434446 ], [ -88.175179447878662, 14.689045918237989 ], [ -88.175135319124692, 14.689090246757006 ], [ -88.175097788004152, 14.68913270415257 ], [ -88.175051751729185, 14.689173366892314 ], [ -88.175005218927922, 14.689209437858427 ], [ -88.17496568700065, 14.68923077167983 ], [ -88.174932444331873, 14.68923668282005 ] ] ] ] } },
{ "type": "Feature", "properties": { "id": 4, "Prop_orig": "Aquilino Madrid", "Comunidad": "El Barreal", "Infr_asoci": "Tanque de Oscilación", "Area (m2)": 7947.98 }, "geometry": { "type": "MultiPolygon", "coordinates": [ [ [ [ -88.174410494472923, 14.688053770513203 ], [ -88.174416107648497, 14.687933831387147 ], [ -88.174449017257913, 14.687909774609736 ], [ -88.174454602268369, 14.687895044651965 ], [ -88.174470088349153, 14.687436457081334 ], [ -88.174479492016928, 14.687076217883803 ], [ -88.174482718162125, 14.686973289667989 ], [ -88.174488057831411, 14.686912618142188 ], [ -88.174478010296028, 14.686798730812292 ], [ -88.174467766526789, 14.686648090224597 ], [ -88.174461504490651, 14.686536021449328 ], [ -88.174459381169413, 14.686491927093565 ], [ -88.174944503451925, 14.686480283534884 ], [ -88.174945337841748, 14.686636484845401 ], [ -88.174942376950952, 14.686789029940192 ], [ -88.174946594353258, 14.686871705638367 ], [ -88.17495477393912, 14.686989277809714 ], [ -88.174953200244374, 14.687048092562328 ], [ -88.174963218594996, 14.68715646686306 ], [ -88.174972854094534, 14.687193172329907 ], [ -88.174977061710777, 14.687274010360962 ], [ -88.174986834660544, 14.687336443098911 ], [ -88.17498693283305, 14.687354819722161 ], [ -88.175015573598841, 14.687503529409973 ], [ -88.175020437382585, 14.687530496182891 ], [ -88.17498352194923, 14.687533554480966 ], [ -88.174944983311065, 14.687564071813036 ], [ -88.174905716712914, 14.687635022488728 ], [ -88.174855172152874, 14.687715218804311 ], [ -88.174781176827054, 14.687823099485074 ], [ -88.174706311126485, 14.687944767391981 ], [ -88.174671597132075, 14.68798445388898 ], [ -88.17457825704922, 14.688005141089967 ], [ -88.174462341377023, 14.688040644186444 ], [ -88.174410494472923, 14.688053770513203 ] ] ] ] } },
{ "type": "Feature", "properties": { "id": 7, "Prop_orig": "Virgilio Pineda", "Comunidad": "El Barreal", "Infr_asoci": "Campamento", "Area (m2)": 34700.0 }, "geometry": { "type": "MultiPolygon", "coordinates": [ [ [ [ -88.173992397392894, 14.670461613536549 ], [ -88.17356879288333, 14.670232201267964 ], [ -88.173218562224505, 14.670044685167156 ], [ -88.173068984703519, 14.66996090541619 ], [ -88.17300274929913, 14.669929998618475 ], [ -88.172949884318029, 14.669928427762606 ], [ -88.172857191982331, 14.669892141322375 ], [ -88.172825487317269, 14.669787551540052 ], [ -88.172802394701876, 14.669704970875891 ], [ -88.17277953698138, 14.669666494205472 ], [ -88.172782793664382, 14.669569078822281 ], [ -88.172778871503269, 14.669541532877645 ], [ -88.17272928289438, 14.669446221911933 ], [ -88.172712029545551, 14.669396690651238 ], [ -88.172732451531203, 14.669332267526309 ], [ -88.172722827198996, 14.669297399492359 ], [ -88.172782048837348, 14.669074736972318 ], [ -88.172869156067634, 14.669125753387002 ], [ -88.173013216714537, 14.669237126904013 ], [ -88.173035996116823, 14.669260902221348 ], [ -88.173054794605648, 14.669246105598829 ], [ -88.17338455688018, 14.668426657192903 ], [ -88.17341067098441, 14.668367718429579 ], [ -88.173477082195674, 14.668431703139255 ], [ -88.173633778575933, 14.668434587257526 ], [ -88.173751186412616, 14.668503827473719 ], [ -88.173864721025978, 14.668554710035012 ], [ -88.173840347783667, 14.668586074315309 ], [ -88.173804775818851, 14.668641385461621 ], [ -88.173959692413675, 14.668664493209082 ], [ -88.174014493734234, 14.668675242650311 ], [ -88.174127989301553, 14.668718774407791 ], [ -88.174216954938061, 14.668764267771094 ], [ -88.174298487492422, 14.668831851241908 ], [ -88.174423162246214, 14.668847760625773 ], [ -88.174453345449578, 14.668843932652409 ], [ -88.174510250113926, 14.668895101073465 ], [ -88.174682254025811, 14.668936499106792 ], [ -88.174653070587098, 14.669127768985128 ], [ -88.17464222480487, 14.669217871842902 ], [ -88.174655879636049, 14.669300499991325 ], [ -88.174682826654603, 14.669397762663653 ], [ -88.174775920943048, 14.669509392646845 ], [ -88.174827202031182, 14.669567940259959 ], [ -88.174872692651277, 14.669602626844394 ], [ -88.174923885547798, 14.669644635445728 ], [ -88.174977083803753, 14.669708686470557 ], [ -88.175009311672937, 14.669734251513647 ], [ -88.175047486956586, 14.669813080201406 ], [ -88.175068653504439, 14.66988831946418 ], [ -88.17508795199619, 14.669967243599602 ], [ -88.175120493717813, 14.670051613902094 ], [ -88.175139625536318, 14.670099297725633 ], [ -88.175166661150641, 14.670213099296415 ], [ -88.175172530153674, 14.670251661618579 ], [ -88.17519167181095, 14.670301183099776 ], [ -88.175201276968153, 14.670332375666518 ], [ -88.175201473111628, 14.670369128963848 ], [ -88.175205513282449, 14.670418726820355 ], [ -88.175194344068345, 14.670448186742007 ], [ -88.175186852157495, 14.67045925092021 ], [ -88.175136322166225, 14.670453074476267 ], [ -88.175065701780483, 14.670396462471603 ], [ -88.175022479866257, 14.670344765608313 ], [ -88.174960816253048, 14.670286270558762 ], [ -88.174900233780036, 14.670253498028902 ], [ -88.17482503400727, 14.670223096530853 ], [ -88.174806169394728, 14.670225489053028 ], [ -88.174783585778826, 14.670238467236043 ], [ -88.174747328683466, 14.670253811689573 ], [ -88.174721350929616, 14.670249808165085 ], [ -88.174629518741625, 14.670197897538305 ], [ -88.174600058656821, 14.670160373307466 ], [ -88.174580071318829, 14.670129233190329 ], [ -88.174540263285436, 14.670098193260273 ], [ -88.174470208189334, 14.670059036488883 ], [ -88.174461698903116, 14.670056322925866 ], [ -88.173992397392894, 14.670461613536549 ] ] ] ] } },
{ "type": "Feature", "properties": { "id": 14, "Prop_orig": "Benigno Domínguez", "Comunidad": "La Tejera", "Infr_asoci": "Embalse lado derecho", "Area (m2)": 4281.19 }, "geometry": { "type": "MultiPolygon", "coordinates": [ [ [ [ -88.188237554046282, 14.664831517003785 ], [ -88.188229168737024, 14.664851774654698 ], [ -88.188217922243069, 14.664866533808448 ], [ -88.188178470298098, 14.664901651929235 ], [ -88.188126862709211, 14.66495796581853 ], [ -88.188075235272535, 14.665010604383808 ], [ -88.188076243509457, 14.665022544331007 ], [ -88.188064102733975, 14.66504649658847 ], [ -88.188024695329474, 14.665089884144107 ], [ -88.188012465351761, 14.665097297484929 ], [ -88.187952507014941, 14.665180300786465 ], [ -88.1872331596945, 14.665154572864852 ], [ -88.187525550403677, 14.664767160497153 ], [ -88.18769235078959, 14.664543945585519 ], [ -88.188237554046282, 14.664831517003785 ] ] ] ] } },
{ "type": "Feature", "properties": { "id": 13, "Prop_orig": "Santos Dominguez", "Comunidad": "La Tejera", "Infr_asoci": "Embalse lado derecho", "Area (m2)": 28694.92 }, "geometry": { "type": "MultiPolygon", "coordinates": [ [ [ [ -88.187952507014941, 14.665180300786465 ], [ -88.187913715163518, 14.665250331943943 ], [ -88.187879558148239, 14.665304718892413 ], [ -88.187808896909345, 14.665415801907075 ], [ -88.187758438529727, 14.665510242293458 ], [ -88.187738848705862, 14.665553069109359 ], [ -88.187709005670925, 14.665619838521129 ], [ -88.187660943910572, 14.665721158048942 ], [ -88.187615693754182, 14.665818787786815 ], [ -88.187614334992432, 14.665829361550326 ], [ -88.187426042334664, 14.66618040696625 ], [ -88.187312089676084, 14.666402432939012 ], [ -88.187275049939387, 14.66653493713469 ], [ -88.187234284393327, 14.666676648898905 ], [ -88.187165837956215, 14.666936115370133 ], [ -88.187167874175643, 14.666963670589492 ], [ -88.187126300435168, 14.667305696642954 ], [ -88.187122822264001, 14.667360845649696 ], [ -88.187150507332092, 14.667594093143542 ], [ -88.187183261131395, 14.667717052258027 ], [ -88.18724100028895, 14.667922580576215 ], [ -88.187451322993951, 14.668068522617611 ], [ -88.187411751493627, 14.668081588765828 ], [ -88.18714651547235, 14.668079268424478 ], [ -88.187120477006331, 14.668151531471661 ], [ -88.186787545948391, 14.668285546918137 ], [ -88.186769944885739, 14.668347200024188 ], [ -88.186639630086191, 14.668160419252155 ], [ -88.186212515743435, 14.667017707401596 ], [ -88.186303951642387, 14.666820605879543 ], [ -88.186387965469493, 14.666647432427858 ], [ -88.186477553026023, 14.666457691122234 ], [ -88.186559659152664, 14.666280851944158 ], [ -88.186621298063955, 14.666159248493923 ], [ -88.186675416039819, 14.666043196555961 ], [ -88.186823173475958, 14.665788838346447 ], [ -88.187013969977798, 14.665464427348279 ], [ -88.187087023380386, 14.665359304881456 ], [ -88.1872331596945, 14.665154572864852 ], [ -88.187952507014941, 14.665180300786465 ] ] ] ] } },
{ "type": "Feature", "properties": { "id": 12, "Prop_orig": "Benigno Dominguez", "Comunidad": "La Tejera", "Infr_asoci": "Sitio de Presa lado derecho", "Area (m2)": 24262.56 }, "geometry": { "type": "MultiPolygon", "coordinates": [ [ [ [ -88.186274250839233, 14.671206907636957 ], [ -88.185746768435891, 14.670882488085878 ], [ -88.185811737087178, 14.670765462053524 ], [ -88.185822502204658, 14.670748867739595 ], [ -88.185842703264328, 14.670731765841159 ], [ -88.185853517859471, 14.670724359814676 ], [ -88.185853478274211, 14.670717009183765 ], [ -88.185909357271925, 14.670664808734191 ], [ -88.18597228288624, 14.670606599754578 ], [ -88.186062379420918, 14.670511038478224 ], [ -88.186114962298646, 14.670460233091351 ], [ -88.186114930129136, 14.670454260704172 ], [ -88.186086038353736, 14.670347361686074 ], [ -88.186045965835248, 14.670179875361237 ], [ -88.186028501653482, 14.670091754508357 ], [ -88.185995723285615, 14.669964201089382 ], [ -88.185972598593395, 14.66987656854629 ], [ -88.185960431969548, 14.669808176008669 ], [ -88.185965884617801, 14.669418554012269 ], [ -88.186070348559483, 14.669361970731874 ], [ -88.18616446984548, 14.66931279103564 ], [ -88.186183133748855, 14.669273185036905 ], [ -88.186204601931635, 14.669228511024391 ], [ -88.186239169964324, 14.669162636493668 ], [ -88.186257828893929, 14.669122111661538 ], [ -88.186288685900138, 14.669068201172848 ], [ -88.186323644135484, 14.668987163547413 ], [ -88.186341443345427, 14.668962263618896 ], [ -88.186348413209416, 14.668942013246042 ], [ -88.186404034273465, 14.668842033613245 ], [ -88.186410952155612, 14.668812135536337 ], [ -88.186467084678469, 14.668719504113154 ], [ -88.186489921479705, 14.668666093978549 ], [ -88.186494578766911, 14.668654584523601 ], [ -88.186515224280726, 14.668632426614064 ], [ -88.186632285871596, 14.668549132024109 ], [ -88.186696226338626, 14.668504241095203 ], [ -88.18674323226962, 14.668469544025729 ], [ -88.186769944885739, 14.668347200024188 ], [ -88.186787545948391, 14.668285546918137 ], [ -88.187120477006331, 14.668151531471661 ], [ -88.18714651547235, 14.668079268424478 ], [ -88.187411751493627, 14.668081588765828 ], [ -88.18770577926027, 14.668084680511287 ], [ -88.187715281973155, 14.668096577043904 ], [ -88.18773094435673, 14.668113036363559 ], [ -88.187749477873808, 14.668136831837767 ], [ -88.187750036504113, 14.668152908923382 ], [ -88.187723061836948, 14.66822655509003 ], [ -88.187713339909365, 14.668261521220511 ], [ -88.187689194234281, 14.668334693498791 ], [ -88.187665965124097, 14.668402807395257 ], [ -88.187585592082357, 14.668463403067134 ], [ -88.187242174490038, 14.66875321849583 ], [ -88.187225336571572, 14.66878132956286 ], [ -88.18721665001263, 14.668833289185018 ], [ -88.187171554045889, 14.668872111434444 ], [ -88.187108120171317, 14.668923431882854 ], [ -88.187043749861672, 14.66897613538015 ], [ -88.186993954473664, 14.669018657020088 ], [ -88.186988057987023, 14.669019146566272 ], [ -88.186975448699869, 14.669043790316236 ], [ -88.186954692284075, 14.669089149893335 ], [ -88.186942764866785, 14.669108966175932 ], [ -88.186935525669426, 14.66912301567462 ], [ -88.186934614023585, 14.66912899288161 ], [ -88.186925719400534, 14.669142361695174 ], [ -88.186915418928521, 14.669157575396994 ], [ -88.18690771400064, 14.669172775841224 ], [ -88.18689552957045, 14.669188688305418 ], [ -88.18689014337383, 14.669196296361017 ], [ -88.186877342675089, 14.669229210769805 ], [ -88.186863100222908, 14.669257308558709 ], [ -88.186855848636569, 14.669269060983883 ], [ -88.186838752390571, 14.669293038504591 ], [ -88.186828223374775, 14.669309631651442 ], [ -88.186820742015755, 14.669322533816681 ], [ -88.186809769551601, 14.669344412637869 ], [ -88.186791287251253, 14.669373910358393 ], [ -88.186778441965103, 14.6693985553052 ], [ -88.186766977769452, 14.669416761220367 ], [ -88.186760684863501, 14.669431265308855 ], [ -88.186738931307971, 14.669466752283416 ], [ -88.186725851289935, 14.669491628140191 ], [ -88.18671181753021, 14.669514671159186 ], [ -88.186708311565482, 14.669520891328165 ], [ -88.186701494746529, 14.669525750124425 ], [ -88.186542266114287, 14.669578478487276 ], [ -88.186545649622587, 14.669680913430952 ], [ -88.186556152405231, 14.669878413406835 ], [ -88.186563462290195, 14.670008853343084 ], [ -88.1865793013977, 14.670145681699765 ], [ -88.186599188201626, 14.670333026348256 ], [ -88.186625904745341, 14.670561684536839 ], [ -88.186637948787109, 14.670694856843451 ], [ -88.186640129371611, 14.670705412526903 ], [ -88.186642076471713, 14.670716428829669 ], [ -88.186639542800734, 14.670727927442783 ], [ -88.186274250839233, 14.671206907636957 ] ] ] ] } },
{ "type": "Feature", "properties": { "id": 19, "Prop_orig": "Ramon Argueta", "Comunidad": "San Ramon, SFdO", "Infr_asoci": "Embalse lado izquierdo", "Area (m2)": 69880.0 }, "geometry": { "type": "MultiPolygon", "coordinates": [ [ [ [ -88.188660027576091, 14.664894595537286 ], [ -88.188720885498583, 14.664912776240914 ], [ -88.189132829156023, 14.665167029290643 ], [ -88.189355047751476, 14.665418806743286 ], [ -88.189602332382904, 14.665724208575634 ], [ -88.189346253258066, 14.669492702903177 ], [ -88.189205494593338, 14.669382471775107 ], [ -88.189182134680919, 14.669382591321614 ], [ -88.188935311052091, 14.669294438406943 ], [ -88.188399715606366, 14.669084233841719 ], [ -88.188108193093129, 14.668911544344645 ], [ -88.187877812431552, 14.668984392699235 ], [ -88.187333043733844, 14.66917324470638 ], [ -88.187308253214752, 14.669170614811186 ], [ -88.187346203577604, 14.669119424518248 ], [ -88.187351333378899, 14.669086147285215 ], [ -88.187370334558679, 14.669065375986166 ], [ -88.187423237619072, 14.668964663459729 ], [ -88.187627353068891, 14.668900104608779 ], [ -88.187650453402, 14.668808101175456 ], [ -88.187672936919526, 14.668776745239475 ], [ -88.187695494758046, 14.668759171727761 ], [ -88.187747014082532, 14.668686318966088 ], [ -88.187790251972174, 14.668653019233558 ], [ -88.187830757465747, 14.668638110534372 ], [ -88.187910760175086, 14.668596353172244 ], [ -88.187924838357077, 14.668581579547913 ], [ -88.187934152773565, 14.668558560591761 ], [ -88.187971504589498, 14.668483942502812 ], [ -88.188012393801586, 14.668365201349472 ], [ -88.188025523175497, 14.668349513717068 ], [ -88.188063147538116, 14.668325431174461 ], [ -88.188149776729134, 14.668287315277297 ], [ -88.18816478135696, 14.668269320916171 ], [ -88.188172074238594, 14.668221503240305 ], [ -88.188175472831205, 14.668151652987914 ], [ -88.187861513635212, 14.667515573490206 ], [ -88.187830035331444, 14.667454171178454 ], [ -88.187800982208799, 14.667317410454032 ], [ -88.187778714288001, 14.667213693781759 ], [ -88.187747808272775, 14.667083374490113 ], [ -88.187720843579584, 14.666983816652541 ], [ -88.187711656762374, 14.666942974604799 ], [ -88.187714866012357, 14.66692549998076 ], [ -88.187825924978057, 14.666516961286685 ], [ -88.187826749883442, 14.66649490457813 ], [ -88.18787120606936, 14.66633755335862 ], [ -88.187893694284469, 14.666307116244585 ], [ -88.187910524516809, 14.666277626901072 ], [ -88.187950761988759, 14.666213101471492 ], [ -88.188049929926819, 14.666049957452946 ], [ -88.188164045209064, 14.665858252520971 ], [ -88.188267897244586, 14.665688652505189 ], [ -88.188306227048514, 14.665620461363392 ], [ -88.188365182051186, 14.665526436859029 ], [ -88.188416606287944, 14.665436126262458 ], [ -88.188417500536261, 14.665426933152476 ], [ -88.188457757545564, 14.66536608296698 ], [ -88.188534451613691, 14.665236132428188 ], [ -88.18860455375129, 14.665108972139466 ], [ -88.188659391144853, 14.66495156772355 ], [ -88.188660027576091, 14.664894595537286 ] ] ] ] } },
{ "type": "Feature", "properties": { "id": 20, "Prop_orig": "Prisiliano Argueta", "Comunidad": "San Ramon, SFdO", "Infr_asoci": "Sitio Presa lado izquierdo", "Area (m2)": 34940.0 }, "geometry": { "type": "MultiPolygon", "coordinates": [ [ [ [ -88.188108193093129, 14.668911544344645 ], [ -88.188399715606366, 14.669084233841719 ], [ -88.188935311052091, 14.669294438406943 ], [ -88.189097289183593, 14.669352315707282 ], [ -88.189096410039411, 14.669369764061116 ], [ -88.189059432121482, 14.669469878574597 ], [ -88.189058120551451, 14.669489181204742 ], [ -88.189308721081318, 14.669621247306329 ], [ -88.188654819724746, 14.670706542969651 ], [ -88.186945470754935, 14.670683580730129 ], [ -88.186962118155989, 14.670620094777055 ], [ -88.186998779364572, 14.670592341881111 ], [ -88.18702049706414, 14.670550193373851 ], [ -88.187029558349451, 14.670523959750174 ], [ -88.187054029547056, 14.670467325226705 ], [ -88.187074324035422, 14.670423805705669 ], [ -88.187072848837715, 14.670412786996744 ], [ -88.187072637091475, 14.670373507079155 ], [ -88.187060450826948, 14.670345314581622 ], [ -88.187084236409689, 14.670292818400723 ], [ -88.187103841573588, 14.670252748101344 ], [ -88.187080795658957, 14.670179816961957 ], [ -88.187089418575766, 14.670072267014714 ], [ -88.187127727808146, 14.669956295720553 ], [ -88.18723280073317, 14.669618769266084 ], [ -88.187275886635618, 14.669469694812356 ], [ -88.18730297369143, 14.669373076764963 ], [ -88.187321588503238, 14.669280636846471 ], [ -88.187308253214752, 14.669170614811186 ], [ -88.187333043733844, 14.66917324470638 ], [ -88.188108193093129, 14.668911544344645 ] ] ] ] } },
{ "type": "Feature", "properties": { "id": 11, "Prop_orig": "Santiago Gomez", "Comunidad": "La Tejera", "Infr_asoci": "Sitio de Presa lado derecho", "Area (m2)": 11521.45 }, "geometry": { "type": "MultiPolygon", "coordinates": [ [ [ [ -88.186274250839233, 14.671206907636957 ], [ -88.186042198191487, 14.671547637561295 ], [ -88.185806119444905, 14.67187756259359 ], [ -88.185787154070113, 14.671905052724577 ], [ -88.185746057306204, 14.671963667128534 ], [ -88.185730802748751, 14.671990104606481 ], [ -88.18572195534, 14.672023228505241 ], [ -88.185684469856454, 14.672160903347827 ], [ -88.185678791223765, 14.672190909941525 ], [ -88.185645964250185, 14.672306336223118 ], [ -88.185612203439476, 14.672445542615616 ], [ -88.185473860237195, 14.672981193917515 ], [ -88.1850167657214, 14.672889458194449 ], [ -88.18502807311684, 14.672820141883294 ], [ -88.185079068029239, 14.672627611526066 ], [ -88.185087379074318, 14.672593456669992 ], [ -88.185176904895357, 14.672260145059198 ], [ -88.185234120319976, 14.672039672749106 ], [ -88.185351742950786, 14.671797184319775 ], [ -88.185452526379535, 14.67158269195666 ], [ -88.185535692702459, 14.671448918903517 ], [ -88.185545093298273, 14.671419927030982 ], [ -88.185571388481009, 14.671373275866282 ], [ -88.185613421790876, 14.671291398220356 ], [ -88.185639549969082, 14.671213736574465 ], [ -88.185700723889269, 14.67113692979766 ], [ -88.185748144157429, 14.671069496594503 ], [ -88.185812548003938, 14.67100094299653 ], [ -88.185864595077405, 14.670954677232796 ], [ -88.186274250839233, 14.671206907636957 ] ] ] ] } },
{ "type": "Feature", "properties": { "id": 10, "Prop_orig": "José Santos Vasquez", "Comunidad": "La Tejera", "Infr_asoci": "Assit", "Area (m2)": 4380.2 }, "geometry": { "type": "MultiPolygon", "coordinates": [ [ [ [ -88.17694725893503, 14.683089294536629 ], [ -88.176799900344392, 14.68303628841249 ], [ -88.176736574449436, 14.683009732840006 ], [ -88.176644920664785, 14.682948174575493 ], [ -88.176482906198174, 14.682835287162096 ], [ -88.176440209748549, 14.682794154988434 ], [ -88.176382525351272, 14.682730357059834 ], [ -88.176326854221102, 14.682645874654783 ], [ -88.176375380286032, 14.682585673446855 ], [ -88.176396441079902, 14.682552487925397 ], [ -88.176421561478193, 14.682484135592896 ], [ -88.176429957049393, 14.682465486221442 ], [ -88.176537793663414, 14.682376040502715 ], [ -88.177074010603832, 14.682565593339493 ], [ -88.177152777941373, 14.682600340242347 ], [ -88.17717475669923, 14.682738746312499 ], [ -88.177232197951085, 14.682757061903375 ], [ -88.1771753761372, 14.68285451899291 ], [ -88.177116209287732, 14.68291063945246 ], [ -88.17694725893503, 14.683089294536629 ] ] ] ] } },
{ "type": "Feature", "properties": { "id": 6, "Prop_orig": "Lucio Madrid", "Comunidad": "El Barreal", "Infr_asoci": "Camino al addit", "Area (m2)": 1309.55 }, "geometry": { "type": "MultiPolygon", "coordinates": [ [ [ [ -88.17694725893503, 14.683089294536629 ], [ -88.177116209287732, 14.68291063945246 ], [ -88.1771753761372, 14.68285451899291 ], [ -88.177232197951085, 14.682757061903375 ], [ -88.17717475669923, 14.682738746312499 ], [ -88.177152777941373, 14.682600340242347 ], [ -88.177074010603832, 14.682565593339493 ], [ -88.176537793663414, 14.682376040502715 ], [ -88.176576369932263, 14.682341732499729 ], [ -88.177570158801544, 14.682708831027316 ], [ -88.177516760694473, 14.682850720465993 ], [ -88.177467294730462, 14.682933668337112 ], [ -88.177422977726948, 14.682986612423218 ], [ -88.177406148001282, 14.683016675434756 ], [ -88.177340919635441, 14.683130714594638 ], [ -88.177275569515672, 14.683222012679568 ], [ -88.177210617503945, 14.683189263214125 ], [ -88.177103201160108, 14.683158796447184 ], [ -88.177070205290661, 14.683144491752117 ], [ -88.17694725893503, 14.683089294536629 ] ] ] ] } },
{ "type": "Feature", "properties": { "id": 16, "Prop_orig": "Municipalidad de Intibúca", "Comunidad": "Initbuca, Intibuca", "Infr_asoci": "Tunel de conducción", "Area (m2)": 20079.43 }, "geometry": { "type": "MultiPolygon", "coordinates": [ [ [ [ -88.185965884617801, 14.669418554012269 ], [ -88.185963406632169, 14.669585539691578 ], [ -88.185888321033545, 14.669642260145173 ], [ -88.185807962489704, 14.669705726606834 ], [ -88.185623979879637, 14.669850351253379 ], [ -88.185554200408177, 14.669906527680583 ], [ -88.185485454895783, 14.669957530258646 ], [ -88.185172497365926, 14.670208251087333 ], [ -88.185045585200271, 14.670302966091542 ], [ -88.184868839652665, 14.670411373399789 ], [ -88.184777901242867, 14.670482129469731 ], [ -88.184582315090836, 14.670641284498361 ], [ -88.184467593909602, 14.670732319076722 ], [ -88.184422638810659, 14.670764593290606 ], [ -88.18431215089096, 14.670853021942712 ], [ -88.18422914243564, 14.670917535132343 ], [ -88.184100153038358, 14.671021046805363 ], [ -88.184013450302771, 14.671089713598329 ], [ -88.183916718533126, 14.671169285435351 ], [ -88.183897194263338, 14.67119160971618 ], [ -88.183871893863767, 14.671225851108678 ], [ -88.183811189027452, 14.671291284232808 ], [ -88.183795920374664, 14.671315137391106 ], [ -88.18374792683916, 14.6713748203239 ], [ -88.183694651931162, 14.671439698712305 ], [ -88.183671461233885, 14.671471345059553 ], [ -88.183652492831413, 14.671498318192901 ], [ -88.183608668735459, 14.671543507898926 ], [ -88.183581806071928, 14.67158344263685 ], [ -88.183512181086101, 14.671668561653972 ], [ -88.183387182304514, 14.671823221374931 ], [ -88.183262180573053, 14.67197736419808 ], [ -88.183212054763089, 14.672035507328992 ], [ -88.183133470597141, 14.672133076415435 ], [ -88.1830960255825, 14.6721797841212 ], [ -88.183068604066634, 14.672214553097026 ], [ -88.183030088863404, 14.672259715675802 ], [ -88.182966770574893, 14.672332914756209 ], [ -88.182859205191804, 14.67247146293842 ], [ -88.182756884979256, 14.672598096691091 ], [ -88.182628188176338, 14.672756392882885 ], [ -88.182535360358699, 14.672871090547307 ], [ -88.182454654713268, 14.672969187093289 ], [ -88.182389256777299, 14.673050666318833 ], [ -88.182297979836093, 14.673157603170901 ], [ -88.18224792011975, 14.673228150330266 ], [ -88.182205176660787, 14.673276952301219 ], [ -88.18217617322, 14.673313796661544 ], [ -88.182140292811638, 14.673355327715669 ], [ -88.182111809167836, 14.673390102000461 ], [ -88.182065396395089, 14.673447709171226 ], [ -88.18194407598294, 14.673595630389782 ], [ -88.181892923700048, 14.673660497627967 ], [ -88.181843858994782, 14.673718635108866 ], [ -88.181839681005826, 14.673731577762839 ], [ -88.181787964449882, 14.673790245580454 ], [ -88.181729957289136, 14.673863934211246 ], [ -88.181679861173947, 14.67392776232519 ], [ -88.181611296577032, 14.674012875464738 ], [ -88.181524786056173, 14.674117720390182 ], [ -88.181424582472886, 14.674243309167712 ], [ -88.181366035834813, 14.674315449897142 ], [ -88.181270029521329, 14.674431713864676 ], [ -88.181196191455612, 14.674523572844627 ], [ -88.181145558574158, 14.674586369878266 ], [ -88.181081227079815, 14.674668877081274 ], [ -88.18104375903188, 14.674711449775245 ], [ -88.18099259514365, 14.674774249480327 ], [ -88.180955185286805, 14.674827675843639 ], [ -88.180845947074161, 14.67495175977173 ], [ -88.180809571274153, 14.675000012297971 ], [ -88.180730443013005, 14.675095516036331 ], [ -88.180677182979267, 14.675163494897971 ], [ -88.180637187668694, 14.675229855762046 ], [ -88.180545917316962, 14.675338342562922 ], [ -88.180458355025635, 14.675445259920863 ], [ -88.180373452811963, 14.675553197445652 ], [ -88.180351851224088, 14.675584318582633 ], [ -88.180286396337195, 14.675655460472964 ], [ -88.18025213568616, 14.675702151609636 ], [ -88.180224721612916, 14.675738470831849 ], [ -88.180180954178098, 14.675794513674035 ], [ -88.180127146262578, 14.67585939407584 ], [ -88.180067536935937, 14.675931539926721 ], [ -88.180010560029686, 14.675999537542152 ], [ -88.17993195091816, 14.676092970987412 ], [ -88.179882937808117, 14.676160928121316 ], [ -88.179805937984611, 14.676257454492921 ], [ -88.17972626684579, 14.67635089327341 ], [ -88.17962712311062, 14.676476476010837 ], [ -88.179545361350165, 14.676576127630572 ], [ -88.17947311742148, 14.676668494906822 ], [ -88.17936973152824, 14.676795132805449 ], [ -88.179183010034834, 14.677025048160861 ], [ -88.179105489760815, 14.677123644402908 ], [ -88.179019493951458, 14.677225901641249 ], [ -88.178938262575457, 14.677325550387005 ], [ -88.178805359991514, 14.677492652686395 ], [ -88.178678756394191, 14.677646284690262 ], [ -88.178614425884632, 14.677729308166445 ], [ -88.178480405612078, 14.677886078853341 ], [ -88.17839815063887, 14.677992968621286 ], [ -88.178223027382089, 14.678207835639334 ], [ -88.178058433880352, 14.678406109728817 ], [ -88.177933952979586, 14.678559730619947 ], [ -88.177759874102676, 14.678771490905476 ], [ -88.177725092584396, 14.678820251795186 ], [ -88.177673785867711, 14.678955928360077 ], [ -88.177584644649315, 14.679165190379431 ], [ -88.177484010785861, 14.679409656882255 ], [ -88.177442061513162, 14.679508072299511 ], [ -88.177416985952505, 14.679584694189503 ], [ -88.177354059178057, 14.679731800457587 ], [ -88.177334215488145, 14.679793923835495 ], [ -88.177318464419628, 14.679827082502582 ], [ -88.177224024273301, 14.680038438706642 ], [ -88.177045900427487, 14.680486939327457 ], [ -88.176947389204926, 14.680731394894888 ], [ -88.176776526085689, 14.681147813457866 ], [ -88.176562705753582, 14.681672989459322 ], [ -88.1763708468564, 14.682134997553717 ], [ -88.176302791728673, 14.68231624211665 ], [ -88.176187449124541, 14.682590760387448 ], [ -88.176065806780841, 14.682878748794415 ], [ -88.17595264265411, 14.68316359307229 ], [ -88.175820585273328, 14.683489881515927 ], [ -88.175675856677231, 14.683829672339373 ], [ -88.175644425346718, 14.683909427411747 ], [ -88.175598326392503, 14.684026470424616 ], [ -88.175510182593726, 14.684224355943604 ], [ -88.175422974973117, 14.684199988374386 ], [ -88.175527783202782, 14.68394102943183 ], [ -88.175712278281097, 14.683491463719529 ], [ -88.175850668470716, 14.683157907262496 ], [ -88.176127392433656, 14.682480457315593 ], [ -88.176295116225845, 14.682072324727972 ], [ -88.176450196388657, 14.681682862943243 ], [ -88.176634676936601, 14.681231229322872 ], [ -88.176760532100971, 14.680937017065993 ], [ -88.176831755539965, 14.680752655208103 ], [ -88.176894638685127, 14.680597279567014 ], [ -88.177005770744771, 14.680330018365121 ], [ -88.17713568445663, 14.680000639142444 ], [ -88.177215369105383, 14.679810032028035 ], [ -88.177351686634339, 14.679486822528453 ], [ -88.177445916296847, 14.67923618626469 ], [ -88.177571791533893, 14.678946108423393 ], [ -88.177651464420094, 14.678753433829213 ], [ -88.177786508940272, 14.678589422370361 ], [ -88.177946871976218, 14.678394271045676 ], [ -88.178074527300225, 14.678238566624781 ], [ -88.178159962570533, 14.678130627110527 ], [ -88.178213785438942, 14.678068331304143 ], [ -88.178274980423524, 14.677994627246084 ], [ -88.178358302854249, 14.67788876581446 ], [ -88.178451143193115, 14.677775620075069 ], [ -88.178551344489009, 14.677648998687086 ], [ -88.178607340666431, 14.677595995188632 ], [ -88.178610432138512, 14.677578406385328 ], [ -88.178667390500209, 14.677506791163879 ], [ -88.178734934180738, 14.677428919933428 ], [ -88.178830920953814, 14.677308522108026 ], [ -88.178891037061845, 14.677231722249894 ], [ -88.178968054228505, 14.677138297187753 ], [ -88.179023956046208, 14.677067720967765 ], [ -88.179125224094761, 14.67694212766737 ], [ -88.179256035642979, 14.676781238108791 ], [ -88.179380498040558, 14.676624515576327 ], [ -88.179512365533171, 14.676462586821021 ], [ -88.179597832672727, 14.676360848971298 ], [ -88.179730750623477, 14.676196847350967 ], [ -88.179824612634704, 14.676076459969101 ], [ -88.179981786548964, 14.675881323648989 ], [ -88.180059848020704, 14.675784791837073 ], [ -88.180122098080247, 14.675710048292727 ], [ -88.1802855815952, 14.675503508906434 ], [ -88.180360462807457, 14.675408026880593 ], [ -88.180474393905115, 14.675267896762151 ], [ -88.180521866539607, 14.675209767620021 ], [ -88.180542909429306, 14.675173480748693 ], [ -88.180565058506474, 14.675145457951778 ], [ -88.180626251918937, 14.675071753375132 ], [ -88.180700076542308, 14.674977310339107 ], [ -88.180805573450044, 14.674848593786379 ], [ -88.180919476260058, 14.674703295065852 ], [ -88.181024995095029, 14.674578713165616 ], [ -88.181085126359264, 14.674505013886224 ], [ -88.181170564306385, 14.674398107132273 ], [ -88.181228593977693, 14.674328553355574 ], [ -88.181389985071021, 14.67412822622331 ], [ -88.18164102744656, 14.673814768393674 ], [ -88.18176866649803, 14.673656994907189 ], [ -88.1818076936963, 14.6736082119114 ], [ -88.18188260137515, 14.673517897895463 ], [ -88.181968044115891, 14.673412024580445 ], [ -88.182062993349646, 14.673296799461532 ], [ -88.182112599926114, 14.673240726609437 ], [ -88.182120966956944, 14.673216908661633 ], [ -88.182147396286695, 14.673195066228745 ], [ -88.18219800914963, 14.673128651121866 ], [ -88.182362561810891, 14.672924172480943 ], [ -88.182578810856839, 14.672657407896418 ], [ -88.182669539891265, 14.672547372607291 ], [ -88.182817246781141, 14.672369855952006 ], [ -88.183088321098396, 14.672030452017928 ], [ -88.183324626490432, 14.671741876768397 ], [ -88.183598890316389, 14.6714034897965 ], [ -88.18366639153956, 14.671318381579031 ], [ -88.183667397798729, 14.671308039337266 ], [ -88.183753945136431, 14.671210429530221 ], [ -88.183840420152322, 14.671099381814376 ], [ -88.183947208684316, 14.67101407335149 ], [ -88.184320436973309, 14.670715496094774 ], [ -88.184522411004878, 14.670559409839498 ], [ -88.184917869195345, 14.670248313860951 ], [ -88.1852858413734, 14.669960099130114 ], [ -88.185426473408185, 14.669849808354607 ], [ -88.185552289941043, 14.669748896491937 ], [ -88.185784393154634, 14.669568363320309 ], [ -88.185920277125575, 14.669463781916441 ], [ -88.185965884617801, 14.669418554012269 ] ] ] ] } },
{ "type": "Feature", "properties": { "id": 15, "Prop_orig": "Ignacio Dominguez", "Comunidad": "La Tejera", "Infr_asoci": "Camino al addit", "Area (m2)": 910.92 }, "geometry": { "type": "MultiPolygon", "coordinates": [ [ [ [ -88.177275569515672, 14.683222012679568 ], [ -88.177239407841185, 14.68331066461181 ], [ -88.177220563074641, 14.683361067511472 ], [ -88.177189266962486, 14.683465975741132 ], [ -88.177153402514008, 14.683643267014046 ], [ -88.177127109751495, 14.683757108712179 ], [ -88.177093852009875, 14.68389234911529 ], [ -88.177055450708266, 14.683992469363382 ], [ -88.176961838539384, 14.683961932572156 ], [ -88.177000273062347, 14.683868014444224 ], [ -88.17701412556643, 14.683810745449689 ], [ -88.177104799033387, 14.683424366359175 ], [ -88.177114400258574, 14.683366429772329 ], [ -88.177143712737205, 14.683287718994926 ], [ -88.177185801922207, 14.683182239190593 ], [ -88.177210617503945, 14.683189263214125 ], [ -88.177275569515672, 14.683222012679568 ] ] ] ] } },
{ "type": "Feature", "properties": { "id": 5, "Prop_orig": "Francisco Madrid", "Comunidad": "El Barreal", "Infr_asoci": "Camino al addit", "Area (m2)": 6179.49 }, "geometry": { "type": "MultiPolygon", "coordinates": [ [ [ [ -88.176961838539384, 14.683961932572156 ], [ -88.177055450708266, 14.683992469363382 ], [ -88.177014435206814, 14.684100183419458 ], [ -88.176963044109414, 14.68422035462209 ], [ -88.176949532634097, 14.68427520988933 ], [ -88.176935125167361, 14.684361081077261 ], [ -88.176943830445566, 14.6844003180253 ], [ -88.176950478307759, 14.684451969954438 ], [ -88.176962419042184, 14.684500493911937 ], [ -88.176981804088044, 14.684551047552503 ], [ -88.177027852596211, 14.684623173972474 ], [ -88.177107964669858, 14.684710633356307 ], [ -88.177340812695363, 14.684962712163365 ], [ -88.177448761119138, 14.685092412444952 ], [ -88.177552473158784, 14.685224201579755 ], [ -88.1776840768526, 14.685408568490947 ], [ -88.177769631791037, 14.68552080908476 ], [ -88.177855231098917, 14.685641319112611 ], [ -88.177885429168896, 14.685727997714459 ], [ -88.177882702897492, 14.685813809660639 ], [ -88.177827921472613, 14.685895750883878 ], [ -88.177795212950898, 14.68593519790436 ], [ -88.177704321369319, 14.686016288601015 ], [ -88.177447320188691, 14.6862119302348 ], [ -88.177212623994279, 14.686408492209003 ], [ -88.177154573491677, 14.686474944189804 ], [ -88.17697172190087, 14.68663609681087 ], [ -88.176760359038738, 14.686827371506979 ], [ -88.176661015711446, 14.686916774387464 ], [ -88.176438917152495, 14.687086395281101 ], [ -88.176290869680201, 14.687202921386836 ], [ -88.176130117872319, 14.687326747769387 ], [ -88.176046603162121, 14.687397463384002 ], [ -88.175949372040989, 14.687484787866131 ], [ -88.175844956177571, 14.687618665781082 ], [ -88.175688777455164, 14.68780345777717 ], [ -88.175470310462529, 14.688056790186346 ], [ -88.175421744373168, 14.688109755491462 ], [ -88.175375278709652, 14.68806726400085 ], [ -88.175349912832104, 14.68804844104964 ], [ -88.17550293391335, 14.687868833809508 ], [ -88.175787128731258, 14.687528336569819 ], [ -88.175872944515561, 14.68742453057623 ], [ -88.175918702549396, 14.687376058839245 ], [ -88.175958155449166, 14.687340023590282 ], [ -88.17626267600825, 14.687093835294487 ], [ -88.176527086836671, 14.686893333295071 ], [ -88.176613797968855, 14.686824668751122 ], [ -88.176708908414199, 14.686738043916204 ], [ -88.176842774532972, 14.686617454623935 ], [ -88.176962562941455, 14.686512097758083 ], [ -88.177019592177174, 14.68645323155703 ], [ -88.177125937044309, 14.686349321065961 ], [ -88.177250688080207, 14.686245317186392 ], [ -88.177409290677659, 14.686117021595585 ], [ -88.177577789385793, 14.685985919140821 ], [ -88.177692717495745, 14.68589850427489 ], [ -88.177748312063073, 14.685836199487214 ], [ -88.17777919540363, 14.685786424611374 ], [ -88.177782668646017, 14.685774002442622 ], [ -88.1777824841555, 14.685739546304058 ], [ -88.177768096757305, 14.685696892526883 ], [ -88.17772957697413, 14.68564264577612 ], [ -88.177672529248326, 14.685565751341747 ], [ -88.177591972277966, 14.685461410484999 ], [ -88.177537701037792, 14.685374164802001 ], [ -88.177421474740555, 14.685219008323513 ], [ -88.177207008526409, 14.684962356995662 ], [ -88.177027592662512, 14.684773063613516 ], [ -88.176931436066837, 14.684663977577118 ], [ -88.176891419715759, 14.684594577124235 ], [ -88.17687062435931, 14.684545064337074 ], [ -88.176848870399724, 14.684448694766369 ], [ -88.176845861853394, 14.684283315991461 ], [ -88.176849866107929, 14.684237812335956 ], [ -88.176856119483347, 14.68421572809979 ], [ -88.176891069754092, 14.684132164774432 ], [ -88.176961838539384, 14.683961932572156 ] ] ] ] } },
{ "type": "Feature", "properties": { "id": 8, "Prop_orig": "Aquilino Madrid", "Comunidad": "El Barreal", "Infr_asoci": "Tunel de conducción", "Area (m2)": 2666.15 }, "geometry": { "type": "MultiPolygon", "coordinates": [ [ [ [ -88.175510182593726, 14.684224355943604 ], [ -88.175433870207158, 14.684417271396452 ], [ -88.175257719960527, 14.684838884446179 ], [ -88.175202212687665, 14.684983885283266 ], [ -88.175074246253729, 14.685281208727336 ], [ -88.174970498856425, 14.685540162148101 ], [ -88.174890843641649, 14.685736970809769 ], [ -88.17486565620996, 14.685792918797855 ], [ -88.174860449756125, 14.686011058627965 ], [ -88.174859516233823, 14.686482436547319 ], [ -88.174759971181473, 14.686484490918277 ], [ -88.174758112429316, 14.686385005433127 ], [ -88.174764215882675, 14.68578800517707 ], [ -88.174901513703361, 14.685448252398864 ], [ -88.175033595523303, 14.685126099084565 ], [ -88.175081840848492, 14.685013180146152 ], [ -88.175124807025981, 14.68490597334511 ], [ -88.175159393975704, 14.684820516930587 ], [ -88.175236462971299, 14.68463664270811 ], [ -88.175318238569034, 14.68443930636764 ], [ -88.175360742626538, 14.684345023287374 ], [ -88.175422974973117, 14.684199988374386 ], [ -88.175510182593726, 14.684224355943604 ] ] ] ] } }
]
}
