{
"type": "FeatureCollection",
"name": "imp_GOBIERNO",
"crs": { "type": "name", "properties": { "name": "urn:ogc:def:crs:OGC:1.3:CRS84" } },
"features": [
{ "type": "Feature", "properties": { "Latitud Origen": 14.59636111, "Longitud Origen": -87.8466944, "Usuario Origen": "PLUTARCO MEJIA CARDONA" }, "geometry": { "type": "Point", "coordinates": [ -87.8466944, 14.59636111 ] } },
{ "type": "Feature", "properties": { "Latitud Origen": 14.59703192, "Longitud Origen": -87.8355861, "Usuario Origen": "PLUTARCO MEJIA CARDONA" }, "geometry": { "type": "Point", "coordinates": [ -87.8355861, 14.59703192 ] } },
{ "type": "Feature", "properties": { "Latitud Origen": 14.60086111, "Longitud Origen": -87.8683611, "Usuario Origen": "PLUTARCO MEJIA CARDONA" }, "geometry": { "type": "Point", "coordinates": [ -87.8683611, 14.60086111 ] } },
{ "type": "Feature", "properties": { "Latitud Origen": 14.60202778, "Longitud Origen": -87.8311667, "Usuario Origen": "PLUTARCO MEJIA CARDONA" }, "geometry": { "type": "Point", "coordinates": [ -87.8311667, 14.60202778 ] } },
{ "type": "Feature", "properties": { "Latitud Origen": 14.64725, "Longitud Origen": -87.9065556, "Usuario Origen": "PLUTARCO MEJIA CARDONA" }, "geometry": { "type": "Point", "coordinates": [ -87.9065556, 14.64725 ] } },
{ "type": "Feature", "properties": { "Latitud Origen": 14.65544578, "Longitud Origen": -88.0039698, "Usuario Origen": "PLUTARCO MEJIA CARDONA" }, "geometry": { "type": "Point", "coordinates": [ -88.0039698, 14.65544578 ] } },
{ "type": "Feature", "properties": { "Latitud Origen": 14.70239735, "Longitud Origen": -87.9665036, "Usuario Origen": "PLUTARCO MEJIA CARDONA" }, "geometry": { "type": "Point", "coordinates": [ -87.9665036, 14.70239735 ] } },
{ "type": "Feature", "properties": { "Latitud Origen": 14.72777849, "Longitud Origen": -87.9008372, "Usuario Origen": "PLUTARCO MEJIA CARDONA" }, "geometry": { "type": "Point", "coordinates": [ -87.9008372, 14.72777849 ] } },
{ "type": "Feature", "properties": { "Latitud Origen": 14.74613709, "Longitud Origen": -88.1907743, "Usuario Origen": "PLUTARCO MEJIA CARDONA" }, "geometry": { "type": "Point", "coordinates": [ -88.1907743, 14.74613709 ] } },
{ "type": "Feature", "properties": { "Latitud Origen": 14.75311111, "Longitud Origen": -87.95725, "Usuario Origen": "PLUTARCO MEJIA CARDONA" }, "geometry": { "type": "Point", "coordinates": [ -87.95725, 14.75311111 ] } },
{ "type": "Feature", "properties": { "Latitud Origen": 14.75658411, "Longitud Origen": -88.1077262, "Usuario Origen": "PLUTARCO MEJIA CARDONA" }, "geometry": { "type": "Point", "coordinates": [ -88.1077262, 14.75658411 ] } },
{ "type": "Feature", "properties": { "Latitud Origen": 14.76572222, "Longitud Origen": -87.9607222, "Usuario Origen": "PLUTARCO MEJIA CARDONA" }, "geometry": { "type": "Point", "coordinates": [ -87.9607222, 14.76572222 ] } },
{ "type": "Feature", "properties": { "Latitud Origen": 14.80358605, "Longitud Origen": -88.0147208, "Usuario Origen": "PLUTARCO MEJIA CARDONA" }, "geometry": { "type": "Point", "coordinates": [ -88.0147208, 14.80358605 ] } },
{ "type": "Feature", "properties": { "Latitud Origen": 14.80408333, "Longitud Origen": -88.156, "Usuario Origen": "PLUTARCO MEJIA CARDONA" }, "geometry": { "type": "Point", "coordinates": [ -88.156, 14.80408333 ] } },
{ "type": "Feature", "properties": { "Latitud Origen": 14.80838536, "Longitud Origen": -88.2027746, "Usuario Origen": "PLUTARCO MEJIA CARDONA" }, "geometry": { "type": "Point", "coordinates": [ -88.2027746, 14.80838536 ] } },
{ "type": "Feature", "properties": { "Latitud Origen": 14.8310818, "Longitud Origen": -88.3559456, "Usuario Origen": "PLUTARCO MEJIA CARDONA" }, "geometry": { "type": "Point", "coordinates": [ -88.3559456, 14.8310818 ] } },
{ "type": "Feature", "properties": { "Latitud Origen": 14.83799722, "Longitud Origen": -87.9517667, "Usuario Origen": "PLUTARCO MEJIA CARDONA" }, "geometry": { "type": "Point", "coordinates": [ -87.9517667, 14.83799722 ] } },
{ "type": "Feature", "properties": { "Latitud Origen": 14.84682898, "Longitud Origen": -88.2946361, "Usuario Origen": "PLUTARCO MEJIA CARDONA" }, "geometry": { "type": "Point", "coordinates": [ -88.2946361, 14.84682898 ] } },
{ "type": "Feature", "properties": { "Latitud Origen": 14.91176239, "Longitud Origen": -88.2433478, "Usuario Origen": "PLUTARCO MEJIA CARDONA" }, "geometry": { "type": "Point", "coordinates": [ -88.2433478, 14.91176239 ] } },
{ "type": "Feature", "properties": { "Latitud Origen": 14.919182, "Longitud Origen": -88.23618, "Usuario Origen": "PLUTARCO MEJIA CARDONA" }, "geometry": { "type": "Point", "coordinates": [ -88.23618, 14.919182 ] } },
{ "type": "Feature", "properties": { "Latitud Origen": 14.92613889, "Longitud Origen": -88.2408333, "Usuario Origen": "PLUTARCO MEJIA CARDONA" }, "geometry": { "type": "Point", "coordinates": [ -88.2408333, 14.92613889 ] } },
{ "type": "Feature", "properties": { "Latitud Origen": 14.94336981, "Longitud Origen": -88.3188277, "Usuario Origen": "PLUTARCO MEJIA CARDONA" }, "geometry": { "type": "Point", "coordinates": [ -88.3188277, 14.94336981 ] } },
{ "type": "Feature", "properties": { "Latitud Origen": 14.95741667, "Longitud Origen": -88.2317222, "Usuario Origen": "PLUTARCO MEJIA CARDONA" }, "geometry": { "type": "Point", "coordinates": [ -88.2317222, 14.95741667 ] } },
{ "type": "Feature", "properties": { "Latitud Origen": 15.14305556, "Longitud Origen": -88.2290278, "Usuario Origen": "PLUTARCO MEJIA CARDONA" }, "geometry": { "type": "Point", "coordinates": [ -88.2290278, 15.14305556 ] } },
{ "type": "Feature", "properties": { "Latitud Origen": 15.27873056, "Longitud Origen": -87.9603401, "Usuario Origen": "PLUTARCO MEJIA CARDONA" }, "geometry": { "type": "Point", "coordinates": [ -87.9603401, 15.27873056 ] } },
{ "type": "Feature", "properties": { "Latitud Origen": 15.3510238, "Longitud Origen": -88.2008361, "Usuario Origen": "PLUTARCO MEJIA CARDONA" }, "geometry": { "type": "Point", "coordinates": [ -88.2008361, 15.3510238 ] } },
{ "type": "Feature", "properties": { "Latitud Origen": 15.40466667, "Longitud Origen": -88.0050556, "Usuario Origen": "PLUTARCO MEJIA CARDONA" }, "geometry": { "type": "Point", "coordinates": [ -88.0050556, 15.40466667 ] } },
{ "type": "Feature", "properties": { "Latitud Origen": 15.49193054, "Longitud Origen": -88.02429, "Usuario Origen": "PLUTARCO MEJIA CARDONA" }, "geometry": { "type": "Point", "coordinates": [ -88.02429, 15.49193054 ] } },
{ "type": "Feature", "properties": { "Latitud Origen": 15.49771862, "Longitud Origen": -88.0368655, "Usuario Origen": "PLUTARCO MEJIA CARDONA" }, "geometry": { "type": "Point", "coordinates": [ -88.0368655, 15.49771862 ] } },
{ "type": "Feature", "properties": { "Latitud Origen": 15.49787122, "Longitud Origen": -88.0239464, "Usuario Origen": "PLUTARCO MEJIA CARDONA" }, "geometry": { "type": "Point", "coordinates": [ -88.0239464, 15.49787122 ] } },
{ "type": "Feature", "properties": { "Latitud Origen": 15.50088889, "Longitud Origen": -88.0215556, "Usuario Origen": "PLUTARCO MEJIA CARDONA" }, "geometry": { "type": "Point", "coordinates": [ -88.0215556, 15.50088889 ] } },
{ "type": "Feature", "properties": { "Latitud Origen": 15.50483333, "Longitud Origen": -88.0146944, "Usuario Origen": "PLUTARCO MEJIA CARDONA" }, "geometry": { "type": "Point", "coordinates": [ -88.0146944, 15.50483333 ] } },
{ "type": "Feature", "properties": { "Latitud Origen": 15.78461111, "Longitud Origen": -86.7912778, "Usuario Origen": "PLUTARCO MEJIA CARDONA" }, "geometry": { "type": "Point", "coordinates": [ -86.7912778, 15.78461111 ] } }
]
}
