{
"type": "FeatureCollection",
"name": "imp_EJE_MDC",
"crs": { "type": "name", "properties": { "name": "urn:ogc:def:crs:OGC:1.3:CRS84" } },
"features": [
{ "type": "Feature", "properties": { "Latitud Origen": 13.30468, "Longitud Origen": -87.18299, "Usuario Origen": "Mariano Díaz Chávez/WENDY PATRICIA AMADOR ESCOTO" }, "geometry": { "type": "Point", "coordinates": [ -87.18299, 13.30468 ] } },
{ "type": "Feature", "properties": { "Latitud Origen": 13.31067, "Longitud Origen": -87.18363, "Usuario Origen": "Mariano Díaz Chávez/WENDY PATRICIA AMADOR ESCOTO" }, "geometry": { "type": "Point", "coordinates": [ -87.18363, 13.31067 ] } },
{ "type": "Feature", "properties": { "Latitud Origen": 13.317463, "Longitud Origen": -87.131946, "Usuario Origen": "Mariano Díaz Chávez/WENDY PATRICIA AMADOR ESCOTO" }, "geometry": { "type": "Point", "coordinates": [ -87.131946, 13.317463 ] } },
{ "type": "Feature", "properties": { "Latitud Origen": 13.323187, "Longitud Origen": -87.16374, "Usuario Origen": "Mariano Díaz Chávez/WENDY PATRICIA AMADOR ESCOTO" }, "geometry": { "type": "Point", "coordinates": [ -87.16374, 13.323187 ] } },
{ "type": "Feature", "properties": { "Latitud Origen": 13.331781, "Longitud Origen": -87.229178, "Usuario Origen": "Mariano Díaz Chávez/WENDY PATRICIA AMADOR ESCOTO" }, "geometry": { "type": "Point", "coordinates": [ -87.229178, 13.331781 ] } },
{ "type": "Feature", "properties": { "Latitud Origen": 13.34168, "Longitud Origen": -87.12359, "Usuario Origen": "Mariano Díaz Chávez/WENDY PATRICIA AMADOR ESCOTO" }, "geometry": { "type": "Point", "coordinates": [ -87.12359, 13.34168 ] } },
{ "type": "Feature", "properties": { "Latitud Origen": 13.349605, "Longitud Origen": -87.169659, "Usuario Origen": "Mariano Díaz Chávez/WENDY PATRICIA AMADOR ESCOTO" }, "geometry": { "type": "Point", "coordinates": [ -87.169659, 13.349605 ] } },
{ "type": "Feature", "properties": { "Latitud Origen": 13.35335833, "Longitud Origen": -87.1344444, "Usuario Origen": "Mariano Díaz Chávez/WENDY PATRICIA AMADOR ESCOTO" }, "geometry": { "type": "Point", "coordinates": [ -87.1344444, 13.35335833 ] } },
{ "type": "Feature", "properties": { "Latitud Origen": 13.428528, "Longitud Origen": -87.438638, "Usuario Origen": "Mariano Díaz Chávez/WENDY PATRICIA AMADOR ESCOTO" }, "geometry": { "type": "Point", "coordinates": [ -87.438638, 13.428528 ] } },
{ "type": "Feature", "properties": { "Latitud Origen": 13.46192, "Longitud Origen": -87.4569, "Usuario Origen": "Mariano Díaz Chávez/WENDY PATRICIA AMADOR ESCOTO" }, "geometry": { "type": "Point", "coordinates": [ -87.4569, 13.46192 ] } },
{ "type": "Feature", "properties": { "Latitud Origen": 13.530499, "Longitud Origen": -87.437188, "Usuario Origen": "Mariano Díaz Chávez/WENDY PATRICIA AMADOR ESCOTO" }, "geometry": { "type": "Point", "coordinates": [ -87.437188, 13.530499 ] } },
{ "type": "Feature", "properties": { "Latitud Origen": 13.5305, "Longitud Origen": -87.4371944, "Usuario Origen": "Mariano Díaz Chávez/WENDY PATRICIA AMADOR ESCOTO" }, "geometry": { "type": "Point", "coordinates": [ -87.4371944, 13.5305 ] } },
{ "type": "Feature", "properties": { "Latitud Origen": 13.53597222, "Longitud Origen": -87.6050833, "Usuario Origen": "Mariano Díaz Chávez/WENDY PATRICIA AMADOR ESCOTO" }, "geometry": { "type": "Point", "coordinates": [ -87.6050833, 13.53597222 ] } },
{ "type": "Feature", "properties": { "Latitud Origen": 13.5918, "Longitud Origen": -87.727599, "Usuario Origen": "Mariano Díaz Chávez/WENDY PATRICIA AMADOR ESCOTO" }, "geometry": { "type": "Point", "coordinates": [ -87.727599, 13.5918 ] } },
{ "type": "Feature", "properties": { "Latitud Origen": 13.78913, "Longitud Origen": -87.31036, "Usuario Origen": "Mariano Díaz Chávez/WENDY PATRICIA AMADOR ESCOTO" }, "geometry": { "type": "Point", "coordinates": [ -87.31036, 13.78913 ] } },
{ "type": "Feature", "properties": { "Latitud Origen": 13.86948, "Longitud Origen": -86.54561, "Usuario Origen": "Mariano Díaz Chávez/WENDY PATRICIA AMADOR ESCOTO" }, "geometry": { "type": "Point", "coordinates": [ -86.54561, 13.86948 ] } },
{ "type": "Feature", "properties": { "Latitud Origen": 14.0160833, "Longitud Origen": -86.57625, "Usuario Origen": "Mariano Díaz Chávez/WENDY PATRICIA AMADOR ESCOTO" }, "geometry": { "type": "Point", "coordinates": [ -86.57625, 14.0160833 ] } },
{ "type": "Feature", "properties": { "Latitud Origen": 14.022537, "Longitud Origen": -87.211548, "Usuario Origen": "Mariano Díaz Chávez/WENDY PATRICIA AMADOR ESCOTO" }, "geometry": { "type": "Point", "coordinates": [ -87.211548, 14.022537 ] } },
{ "type": "Feature", "properties": { "Latitud Origen": 14.0275, "Longitud Origen": -86.564399, "Usuario Origen": "Mariano Díaz Chávez/WENDY PATRICIA AMADOR ESCOTO" }, "geometry": { "type": "Point", "coordinates": [ -86.564399, 14.0275 ] } },
{ "type": "Feature", "properties": { "Latitud Origen": 14.027744, "Longitud Origen": -87.100687, "Usuario Origen": "Mariano Díaz Chávez/WENDY PATRICIA AMADOR ESCOTO" }, "geometry": { "type": "Point", "coordinates": [ -87.100687, 14.027744 ] } },
{ "type": "Feature", "properties": { "Latitud Origen": 14.027744, "Longitud Origen": -87.10069, "Usuario Origen": "Mariano Díaz Chávez/WENDY PATRICIA AMADOR ESCOTO" }, "geometry": { "type": "Point", "coordinates": [ -87.10069, 14.027744 ] } },
{ "type": "Feature", "properties": { "Latitud Origen": 14.027963, "Longitud Origen": -87.22011, "Usuario Origen": "Mariano Díaz Chávez/WENDY PATRICIA AMADOR ESCOTO" }, "geometry": { "type": "Point", "coordinates": [ -87.22011, 14.027963 ] } },
{ "type": "Feature", "properties": { "Latitud Origen": 14.034131, "Longitud Origen": -87.237842, "Usuario Origen": "Mariano Díaz Chávez/WENDY PATRICIA AMADOR ESCOTO" }, "geometry": { "type": "Point", "coordinates": [ -87.237842, 14.034131 ] } },
{ "type": "Feature", "properties": { "Latitud Origen": 14.035201, "Longitud Origen": -87.205298, "Usuario Origen": "Mariano Díaz Chávez/WENDY PATRICIA AMADOR ESCOTO" }, "geometry": { "type": "Point", "coordinates": [ -87.205298, 14.035201 ] } },
{ "type": "Feature", "properties": { "Latitud Origen": 14.0381, "Longitud Origen": -87.2389, "Usuario Origen": "Mariano Díaz Chávez/WENDY PATRICIA AMADOR ESCOTO" }, "geometry": { "type": "Point", "coordinates": [ -87.2389, 14.0381 ] } },
{ "type": "Feature", "properties": { "Latitud Origen": 14.039776, "Longitud Origen": -87.235606, "Usuario Origen": "Mariano Díaz Chávez/WENDY PATRICIA AMADOR ESCOTO" }, "geometry": { "type": "Point", "coordinates": [ -87.235606, 14.039776 ] } },
{ "type": "Feature", "properties": { "Latitud Origen": 14.040935, "Longitud Origen": -87.22441, "Usuario Origen": "Mariano Díaz Chávez/WENDY PATRICIA AMADOR ESCOTO" }, "geometry": { "type": "Point", "coordinates": [ -87.22441, 14.040935 ] } },
{ "type": "Feature", "properties": { "Latitud Origen": 14.041158, "Longitud Origen": -87.21701, "Usuario Origen": "Mariano Díaz Chávez/WENDY PATRICIA AMADOR ESCOTO" }, "geometry": { "type": "Point", "coordinates": [ -87.21701, 14.041158 ] } },
{ "type": "Feature", "properties": { "Latitud Origen": 14.04116, "Longitud Origen": -87.21701, "Usuario Origen": "Mariano Díaz Chávez/WENDY PATRICIA AMADOR ESCOTO" }, "geometry": { "type": "Point", "coordinates": [ -87.21701, 14.04116 ] } },
{ "type": "Feature", "properties": { "Latitud Origen": 14.042286, "Longitud Origen": -87.230117, "Usuario Origen": "Mariano Díaz Chávez/WENDY PATRICIA AMADOR ESCOTO" }, "geometry": { "type": "Point", "coordinates": [ -87.230117, 14.042286 ] } },
{ "type": "Feature", "properties": { "Latitud Origen": 14.0425554, "Longitud Origen": -87.2119456, "Usuario Origen": "Mariano Díaz Chávez/WENDY PATRICIA AMADOR ESCOTO" }, "geometry": { "type": "Point", "coordinates": [ -87.2119456, 14.0425554 ] } },
{ "type": "Feature", "properties": { "Latitud Origen": 14.04339, "Longitud Origen": -87.186236, "Usuario Origen": "Mariano Díaz Chávez/WENDY PATRICIA AMADOR ESCOTO" }, "geometry": { "type": "Point", "coordinates": [ -87.186236, 14.04339 ] } },
{ "type": "Feature", "properties": { "Latitud Origen": 14.043894, "Longitud Origen": -87.221505, "Usuario Origen": "Mariano Díaz Chávez/WENDY PATRICIA AMADOR ESCOTO" }, "geometry": { "type": "Point", "coordinates": [ -87.221505, 14.043894 ] } },
{ "type": "Feature", "properties": { "Latitud Origen": 14.04536, "Longitud Origen": -87.19763, "Usuario Origen": "Mariano Díaz Chávez/WENDY PATRICIA AMADOR ESCOTO" }, "geometry": { "type": "Point", "coordinates": [ -87.19763, 14.04536 ] } },
{ "type": "Feature", "properties": { "Latitud Origen": 14.045402, "Longitud Origen": -87.233797, "Usuario Origen": "Mariano Díaz Chávez/WENDY PATRICIA AMADOR ESCOTO" }, "geometry": { "type": "Point", "coordinates": [ -87.233797, 14.045402 ] } },
{ "type": "Feature", "properties": { "Latitud Origen": 14.045903, "Longitud Origen": -87.186437, "Usuario Origen": "Mariano Díaz Chávez/WENDY PATRICIA AMADOR ESCOTO" }, "geometry": { "type": "Point", "coordinates": [ -87.186437, 14.045903 ] } },
{ "type": "Feature", "properties": { "Latitud Origen": 14.046375, "Longitud Origen": -87.173216, "Usuario Origen": "Mariano Díaz Chávez/WENDY PATRICIA AMADOR ESCOTO" }, "geometry": { "type": "Point", "coordinates": [ -87.173216, 14.046375 ] } },
{ "type": "Feature", "properties": { "Latitud Origen": 14.047391, "Longitud Origen": -87.242588, "Usuario Origen": "Mariano Díaz Chávez/WENDY PATRICIA AMADOR ESCOTO" }, "geometry": { "type": "Point", "coordinates": [ -87.242588, 14.047391 ] } },
{ "type": "Feature", "properties": { "Latitud Origen": 14.047972, "Longitud Origen": -87.211765, "Usuario Origen": "Mariano Díaz Chávez/WENDY PATRICIA AMADOR ESCOTO" }, "geometry": { "type": "Point", "coordinates": [ -87.211765, 14.047972 ] } },
{ "type": "Feature", "properties": { "Latitud Origen": 14.04911111, "Longitud Origen": -87.2592778, "Usuario Origen": "Mariano Díaz Chávez/WENDY PATRICIA AMADOR ESCOTO" }, "geometry": { "type": "Point", "coordinates": [ -87.2592778, 14.04911111 ] } },
{ "type": "Feature", "properties": { "Latitud Origen": 14.049119, "Longitud Origen": -87.25928, "Usuario Origen": "Mariano Díaz Chávez/WENDY PATRICIA AMADOR ESCOTO" }, "geometry": { "type": "Point", "coordinates": [ -87.25928, 14.049119 ] } },
{ "type": "Feature", "properties": { "Latitud Origen": 14.049214, "Longitud Origen": -87.217981, "Usuario Origen": "Mariano Díaz Chávez/WENDY PATRICIA AMADOR ESCOTO" }, "geometry": { "type": "Point", "coordinates": [ -87.217981, 14.049214 ] } },
{ "type": "Feature", "properties": { "Latitud Origen": 14.049295, "Longitud Origen": -87.197401, "Usuario Origen": "Mariano Díaz Chávez/WENDY PATRICIA AMADOR ESCOTO" }, "geometry": { "type": "Point", "coordinates": [ -87.197401, 14.049295 ] } },
{ "type": "Feature", "properties": { "Latitud Origen": 14.04998, "Longitud Origen": -87.199458, "Usuario Origen": "Mariano Díaz Chávez/WENDY PATRICIA AMADOR ESCOTO" }, "geometry": { "type": "Point", "coordinates": [ -87.199458, 14.04998 ] } },
{ "type": "Feature", "properties": { "Latitud Origen": 14.05017, "Longitud Origen": -87.210489, "Usuario Origen": "Mariano Díaz Chávez/WENDY PATRICIA AMADOR ESCOTO" }, "geometry": { "type": "Point", "coordinates": [ -87.210489, 14.05017 ] } },
{ "type": "Feature", "properties": { "Latitud Origen": 14.05026, "Longitud Origen": -87.189298, "Usuario Origen": "Mariano Díaz Chávez/WENDY PATRICIA AMADOR ESCOTO" }, "geometry": { "type": "Point", "coordinates": [ -87.189298, 14.05026 ] } },
{ "type": "Feature", "properties": { "Latitud Origen": 14.051596, "Longitud Origen": -87.233136, "Usuario Origen": "Mariano Díaz Chávez/WENDY PATRICIA AMADOR ESCOTO" }, "geometry": { "type": "Point", "coordinates": [ -87.233136, 14.051596 ] } },
{ "type": "Feature", "properties": { "Latitud Origen": 14.05252, "Longitud Origen": -86.88505, "Usuario Origen": "Mariano Díaz Chávez/WENDY PATRICIA AMADOR ESCOTO" }, "geometry": { "type": "Point", "coordinates": [ -86.88505, 14.05252 ] } },
{ "type": "Feature", "properties": { "Latitud Origen": 14.052794, "Longitud Origen": -87.177874, "Usuario Origen": "Mariano Díaz Chávez/WENDY PATRICIA AMADOR ESCOTO" }, "geometry": { "type": "Point", "coordinates": [ -87.177874, 14.052794 ] } },
{ "type": "Feature", "properties": { "Latitud Origen": 14.0528, "Longitud Origen": -87.17788, "Usuario Origen": "Mariano Díaz Chávez/WENDY PATRICIA AMADOR ESCOTO" }, "geometry": { "type": "Point", "coordinates": [ -87.17788, 14.0528 ] } },
{ "type": "Feature", "properties": { "Latitud Origen": 14.054083, "Longitud Origen": -87.222395, "Usuario Origen": "Mariano Díaz Chávez/WENDY PATRICIA AMADOR ESCOTO" }, "geometry": { "type": "Point", "coordinates": [ -87.222395, 14.054083 ] } },
{ "type": "Feature", "properties": { "Latitud Origen": 14.05408333, "Longitud Origen": -87.2223889, "Usuario Origen": "Mariano Díaz Chávez/WENDY PATRICIA AMADOR ESCOTO" }, "geometry": { "type": "Point", "coordinates": [ -87.2223889, 14.05408333 ] } },
{ "type": "Feature", "properties": { "Latitud Origen": 14.05416667, "Longitud Origen": -87.2523361, "Usuario Origen": "Mariano Díaz Chávez/WENDY PATRICIA AMADOR ESCOTO" }, "geometry": { "type": "Point", "coordinates": [ -87.2523361, 14.05416667 ] } },
{ "type": "Feature", "properties": { "Latitud Origen": 14.054172, "Longitud Origen": -87.252339, "Usuario Origen": "Mariano Díaz Chávez/WENDY PATRICIA AMADOR ESCOTO" }, "geometry": { "type": "Point", "coordinates": [ -87.252339, 14.054172 ] } },
{ "type": "Feature", "properties": { "Latitud Origen": 14.054404, "Longitud Origen": -87.236798, "Usuario Origen": "Mariano Díaz Chávez/WENDY PATRICIA AMADOR ESCOTO" }, "geometry": { "type": "Point", "coordinates": [ -87.236798, 14.054404 ] } },
{ "type": "Feature", "properties": { "Latitud Origen": 14.055462, "Longitud Origen": -87.185282, "Usuario Origen": "Mariano Díaz Chávez/WENDY PATRICIA AMADOR ESCOTO" }, "geometry": { "type": "Point", "coordinates": [ -87.185282, 14.055462 ] } },
{ "type": "Feature", "properties": { "Latitud Origen": 14.0559, "Longitud Origen": -87.202705, "Usuario Origen": "Mariano Díaz Chávez/WENDY PATRICIA AMADOR ESCOTO" }, "geometry": { "type": "Point", "coordinates": [ -87.202705, 14.0559 ] } },
{ "type": "Feature", "properties": { "Latitud Origen": 14.056636, "Longitud Origen": -87.17209, "Usuario Origen": "Mariano Díaz Chávez/WENDY PATRICIA AMADOR ESCOTO" }, "geometry": { "type": "Point", "coordinates": [ -87.17209, 14.056636 ] } },
{ "type": "Feature", "properties": { "Latitud Origen": 14.056802, "Longitud Origen": -87.194397, "Usuario Origen": "Mariano Díaz Chávez/WENDY PATRICIA AMADOR ESCOTO" }, "geometry": { "type": "Point", "coordinates": [ -87.194397, 14.056802 ] } },
{ "type": "Feature", "properties": { "Latitud Origen": 14.057213, "Longitud Origen": -87.227672, "Usuario Origen": "Mariano Díaz Chávez/WENDY PATRICIA AMADOR ESCOTO" }, "geometry": { "type": "Point", "coordinates": [ -87.227672, 14.057213 ] } },
{ "type": "Feature", "properties": { "Latitud Origen": 14.057625, "Longitud Origen": -87.225779, "Usuario Origen": "Mariano Díaz Chávez/WENDY PATRICIA AMADOR ESCOTO" }, "geometry": { "type": "Point", "coordinates": [ -87.225779, 14.057625 ] } },
{ "type": "Feature", "properties": { "Latitud Origen": 14.0599, "Longitud Origen": -87.211399, "Usuario Origen": "Mariano Díaz Chávez/WENDY PATRICIA AMADOR ESCOTO" }, "geometry": { "type": "Point", "coordinates": [ -87.211399, 14.0599 ] } },
{ "type": "Feature", "properties": { "Latitud Origen": 14.060162, "Longitud Origen": -87.198967, "Usuario Origen": "Mariano Díaz Chávez/WENDY PATRICIA AMADOR ESCOTO" }, "geometry": { "type": "Point", "coordinates": [ -87.198967, 14.060162 ] } },
{ "type": "Feature", "properties": { "Latitud Origen": 14.060223, "Longitud Origen": -87.219151, "Usuario Origen": "Mariano Díaz Chávez/WENDY PATRICIA AMADOR ESCOTO" }, "geometry": { "type": "Point", "coordinates": [ -87.219151, 14.060223 ] } },
{ "type": "Feature", "properties": { "Latitud Origen": 14.060561, "Longitud Origen": -87.16025, "Usuario Origen": "Mariano Díaz Chávez/WENDY PATRICIA AMADOR ESCOTO" }, "geometry": { "type": "Point", "coordinates": [ -87.16025, 14.060561 ] } },
{ "type": "Feature", "properties": { "Latitud Origen": 14.0606, "Longitud Origen": -87.24182, "Usuario Origen": "Mariano Díaz Chávez/WENDY PATRICIA AMADOR ESCOTO" }, "geometry": { "type": "Point", "coordinates": [ -87.24182, 14.0606 ] } },
{ "type": "Feature", "properties": { "Latitud Origen": 14.060602, "Longitud Origen": -87.241815, "Usuario Origen": "Mariano Díaz Chávez/WENDY PATRICIA AMADOR ESCOTO" }, "geometry": { "type": "Point", "coordinates": [ -87.241815, 14.060602 ] } },
{ "type": "Feature", "properties": { "Latitud Origen": 14.060725, "Longitud Origen": -87.25381, "Usuario Origen": "Mariano Díaz Chávez/WENDY PATRICIA AMADOR ESCOTO" }, "geometry": { "type": "Point", "coordinates": [ -87.25381, 14.060725 ] } },
{ "type": "Feature", "properties": { "Latitud Origen": 14.06073, "Longitud Origen": -87.25381, "Usuario Origen": "Mariano Díaz Chávez/WENDY PATRICIA AMADOR ESCOTO" }, "geometry": { "type": "Point", "coordinates": [ -87.25381, 14.06073 ] } },
{ "type": "Feature", "properties": { "Latitud Origen": 14.06083333, "Longitud Origen": -87.18775, "Usuario Origen": "Mariano Díaz Chávez/WENDY PATRICIA AMADOR ESCOTO" }, "geometry": { "type": "Point", "coordinates": [ -87.18775, 14.06083333 ] } },
{ "type": "Feature", "properties": { "Latitud Origen": 14.061277, "Longitud Origen": -87.221978, "Usuario Origen": "Mariano Díaz Chávez/WENDY PATRICIA AMADOR ESCOTO" }, "geometry": { "type": "Point", "coordinates": [ -87.221978, 14.061277 ] } },
{ "type": "Feature", "properties": { "Latitud Origen": 14.061296, "Longitud Origen": -87.221991, "Usuario Origen": "Mariano Díaz Chávez/WENDY PATRICIA AMADOR ESCOTO" }, "geometry": { "type": "Point", "coordinates": [ -87.221991, 14.061296 ] } },
{ "type": "Feature", "properties": { "Latitud Origen": 14.061299, "Longitud Origen": -87.221994, "Usuario Origen": "Mariano Díaz Chávez/WENDY PATRICIA AMADOR ESCOTO" }, "geometry": { "type": "Point", "coordinates": [ -87.221994, 14.061299 ] } },
{ "type": "Feature", "properties": { "Latitud Origen": 14.061401, "Longitud Origen": -87.187001, "Usuario Origen": "Mariano Díaz Chávez/WENDY PATRICIA AMADOR ESCOTO" }, "geometry": { "type": "Point", "coordinates": [ -87.187001, 14.061401 ] } },
{ "type": "Feature", "properties": { "Latitud Origen": 14.062397, "Longitud Origen": -87.173876, "Usuario Origen": "Mariano Díaz Chávez/WENDY PATRICIA AMADOR ESCOTO" }, "geometry": { "type": "Point", "coordinates": [ -87.173876, 14.062397 ] } },
{ "type": "Feature", "properties": { "Latitud Origen": 14.06257, "Longitud Origen": -87.184445, "Usuario Origen": "Mariano Díaz Chávez/WENDY PATRICIA AMADOR ESCOTO" }, "geometry": { "type": "Point", "coordinates": [ -87.184445, 14.06257 ] } },
{ "type": "Feature", "properties": { "Latitud Origen": 14.062707, "Longitud Origen": -87.225506, "Usuario Origen": "Mariano Díaz Chávez/WENDY PATRICIA AMADOR ESCOTO" }, "geometry": { "type": "Point", "coordinates": [ -87.225506, 14.062707 ] } },
{ "type": "Feature", "properties": { "Latitud Origen": 14.063297, "Longitud Origen": -87.178601, "Usuario Origen": "Mariano Díaz Chávez/WENDY PATRICIA AMADOR ESCOTO" }, "geometry": { "type": "Point", "coordinates": [ -87.178601, 14.063297 ] } },
{ "type": "Feature", "properties": { "Latitud Origen": 14.064405, "Longitud Origen": -87.172498, "Usuario Origen": "Mariano Díaz Chávez/WENDY PATRICIA AMADOR ESCOTO" }, "geometry": { "type": "Point", "coordinates": [ -87.172498, 14.064405 ] } },
{ "type": "Feature", "properties": { "Latitud Origen": 14.06462, "Longitud Origen": -87.208668, "Usuario Origen": "Mariano Díaz Chávez/WENDY PATRICIA AMADOR ESCOTO" }, "geometry": { "type": "Point", "coordinates": [ -87.208668, 14.06462 ] } },
{ "type": "Feature", "properties": { "Latitud Origen": 14.064674, "Longitud Origen": -87.187587, "Usuario Origen": "Mariano Díaz Chávez/WENDY PATRICIA AMADOR ESCOTO" }, "geometry": { "type": "Point", "coordinates": [ -87.187587, 14.064674 ] } },
{ "type": "Feature", "properties": { "Latitud Origen": 14.06627, "Longitud Origen": -87.21933, "Usuario Origen": "Mariano Díaz Chávez/WENDY PATRICIA AMADOR ESCOTO" }, "geometry": { "type": "Point", "coordinates": [ -87.21933, 14.06627 ] } },
{ "type": "Feature", "properties": { "Latitud Origen": 14.066275, "Longitud Origen": -87.219331, "Usuario Origen": "Mariano Díaz Chávez/WENDY PATRICIA AMADOR ESCOTO" }, "geometry": { "type": "Point", "coordinates": [ -87.219331, 14.066275 ] } },
{ "type": "Feature", "properties": { "Latitud Origen": 14.069112, "Longitud Origen": -87.184686, "Usuario Origen": "Mariano Díaz Chávez/WENDY PATRICIA AMADOR ESCOTO" }, "geometry": { "type": "Point", "coordinates": [ -87.184686, 14.069112 ] } },
{ "type": "Feature", "properties": { "Latitud Origen": 14.0697, "Longitud Origen": -87.221099, "Usuario Origen": "Mariano Díaz Chávez/WENDY PATRICIA AMADOR ESCOTO" }, "geometry": { "type": "Point", "coordinates": [ -87.221099, 14.0697 ] } },
{ "type": "Feature", "properties": { "Latitud Origen": 14.0697, "Longitud Origen": -87.221104, "Usuario Origen": "Mariano Díaz Chávez/WENDY PATRICIA AMADOR ESCOTO" }, "geometry": { "type": "Point", "coordinates": [ -87.221104, 14.0697 ] } },
{ "type": "Feature", "properties": { "Latitud Origen": 14.069832, "Longitud Origen": -87.194029, "Usuario Origen": "Mariano Díaz Chávez/WENDY PATRICIA AMADOR ESCOTO" }, "geometry": { "type": "Point", "coordinates": [ -87.194029, 14.069832 ] } },
{ "type": "Feature", "properties": { "Latitud Origen": 14.070026, "Longitud Origen": -87.273244, "Usuario Origen": "Mariano Díaz Chávez/WENDY PATRICIA AMADOR ESCOTO" }, "geometry": { "type": "Point", "coordinates": [ -87.273244, 14.070026 ] } },
{ "type": "Feature", "properties": { "Latitud Origen": 14.070028, "Longitud Origen": -87.27325, "Usuario Origen": "Mariano Díaz Chávez/WENDY PATRICIA AMADOR ESCOTO" }, "geometry": { "type": "Point", "coordinates": [ -87.27325, 14.070028 ] } },
{ "type": "Feature", "properties": { "Latitud Origen": 14.07003, "Longitud Origen": -87.2343, "Usuario Origen": "Mariano Díaz Chávez/WENDY PATRICIA AMADOR ESCOTO" }, "geometry": { "type": "Point", "coordinates": [ -87.2343, 14.07003 ] } },
{ "type": "Feature", "properties": { "Latitud Origen": 14.070031, "Longitud Origen": -87.234294, "Usuario Origen": "Mariano Díaz Chávez/WENDY PATRICIA AMADOR ESCOTO" }, "geometry": { "type": "Point", "coordinates": [ -87.234294, 14.070031 ] } },
{ "type": "Feature", "properties": { "Latitud Origen": 14.071835, "Longitud Origen": -87.209722, "Usuario Origen": "Mariano Díaz Chávez/WENDY PATRICIA AMADOR ESCOTO" }, "geometry": { "type": "Point", "coordinates": [ -87.209722, 14.071835 ] } },
{ "type": "Feature", "properties": { "Latitud Origen": 14.07184, "Longitud Origen": -87.20972, "Usuario Origen": "Mariano Díaz Chávez/WENDY PATRICIA AMADOR ESCOTO" }, "geometry": { "type": "Point", "coordinates": [ -87.20972, 14.07184 ] } },
{ "type": "Feature", "properties": { "Latitud Origen": 14.071977, "Longitud Origen": -87.166112, "Usuario Origen": "Mariano Díaz Chávez/WENDY PATRICIA AMADOR ESCOTO" }, "geometry": { "type": "Point", "coordinates": [ -87.166112, 14.071977 ] } },
{ "type": "Feature", "properties": { "Latitud Origen": 14.07214, "Longitud Origen": -87.16611, "Usuario Origen": "Mariano Díaz Chávez/WENDY PATRICIA AMADOR ESCOTO" }, "geometry": { "type": "Point", "coordinates": [ -87.16611, 14.07214 ] } },
{ "type": "Feature", "properties": { "Latitud Origen": 14.07361111, "Longitud Origen": -87.3122222, "Usuario Origen": "Mariano Díaz Chávez/WENDY PATRICIA AMADOR ESCOTO" }, "geometry": { "type": "Point", "coordinates": [ -87.3122222, 14.07361111 ] } },
{ "type": "Feature", "properties": { "Latitud Origen": 14.073614, "Longitud Origen": -87.312218, "Usuario Origen": "Mariano Díaz Chávez/WENDY PATRICIA AMADOR ESCOTO" }, "geometry": { "type": "Point", "coordinates": [ -87.312218, 14.073614 ] } },
{ "type": "Feature", "properties": { "Latitud Origen": 14.07396, "Longitud Origen": -86.74387, "Usuario Origen": "Mariano Díaz Chávez/WENDY PATRICIA AMADOR ESCOTO" }, "geometry": { "type": "Point", "coordinates": [ -86.74387, 14.07396 ] } },
{ "type": "Feature", "properties": { "Latitud Origen": 14.07431, "Longitud Origen": -87.212447, "Usuario Origen": "Mariano Díaz Chávez/WENDY PATRICIA AMADOR ESCOTO" }, "geometry": { "type": "Point", "coordinates": [ -87.212447, 14.07431 ] } },
{ "type": "Feature", "properties": { "Latitud Origen": 14.07431667, "Longitud Origen": -87.2124417, "Usuario Origen": "Mariano Díaz Chávez/WENDY PATRICIA AMADOR ESCOTO" }, "geometry": { "type": "Point", "coordinates": [ -87.2124417, 14.07431667 ] } },
{ "type": "Feature", "properties": { "Latitud Origen": 14.074345, "Longitud Origen": -87.203314, "Usuario Origen": "Mariano Díaz Chávez/WENDY PATRICIA AMADOR ESCOTO" }, "geometry": { "type": "Point", "coordinates": [ -87.203314, 14.074345 ] } },
{ "type": "Feature", "properties": { "Latitud Origen": 14.07435, "Longitud Origen": -87.20332, "Usuario Origen": "Mariano Díaz Chávez/WENDY PATRICIA AMADOR ESCOTO" }, "geometry": { "type": "Point", "coordinates": [ -87.20332, 14.07435 ] } },
{ "type": "Feature", "properties": { "Latitud Origen": 14.074695, "Longitud Origen": -87.172098, "Usuario Origen": "Mariano Díaz Chávez/WENDY PATRICIA AMADOR ESCOTO" }, "geometry": { "type": "Point", "coordinates": [ -87.172098, 14.074695 ] } },
{ "type": "Feature", "properties": { "Latitud Origen": 14.074816, "Longitud Origen": -87.180166, "Usuario Origen": "Mariano Díaz Chávez/WENDY PATRICIA AMADOR ESCOTO" }, "geometry": { "type": "Point", "coordinates": [ -87.180166, 14.074816 ] } },
{ "type": "Feature", "properties": { "Latitud Origen": 14.074839, "Longitud Origen": -87.172904, "Usuario Origen": "Mariano Díaz Chávez/WENDY PATRICIA AMADOR ESCOTO" }, "geometry": { "type": "Point", "coordinates": [ -87.172904, 14.074839 ] } },
{ "type": "Feature", "properties": { "Latitud Origen": 14.075255, "Longitud Origen": -87.245758, "Usuario Origen": "Mariano Díaz Chávez/WENDY PATRICIA AMADOR ESCOTO" }, "geometry": { "type": "Point", "coordinates": [ -87.245758, 14.075255 ] } },
{ "type": "Feature", "properties": { "Latitud Origen": 14.075593, "Longitud Origen": -87.167513, "Usuario Origen": "Mariano Díaz Chávez/WENDY PATRICIA AMADOR ESCOTO" }, "geometry": { "type": "Point", "coordinates": [ -87.167513, 14.075593 ] } },
{ "type": "Feature", "properties": { "Latitud Origen": 14.0757, "Longitud Origen": -87.207599, "Usuario Origen": "Mariano Díaz Chávez/WENDY PATRICIA AMADOR ESCOTO" }, "geometry": { "type": "Point", "coordinates": [ -87.207599, 14.0757 ] } },
{ "type": "Feature", "properties": { "Latitud Origen": 14.075707, "Longitud Origen": -87.207604, "Usuario Origen": "Mariano Díaz Chávez/WENDY PATRICIA AMADOR ESCOTO" }, "geometry": { "type": "Point", "coordinates": [ -87.207604, 14.075707 ] } },
{ "type": "Feature", "properties": { "Latitud Origen": 14.076231, "Longitud Origen": -87.20109, "Usuario Origen": "Mariano Díaz Chávez/WENDY PATRICIA AMADOR ESCOTO" }, "geometry": { "type": "Point", "coordinates": [ -87.20109, 14.076231 ] } },
{ "type": "Feature", "properties": { "Latitud Origen": 14.076237, "Longitud Origen": -87.201083, "Usuario Origen": "Mariano Díaz Chávez/WENDY PATRICIA AMADOR ESCOTO" }, "geometry": { "type": "Point", "coordinates": [ -87.201083, 14.076237 ] } },
{ "type": "Feature", "properties": { "Latitud Origen": 14.076536, "Longitud Origen": -87.199696, "Usuario Origen": "Mariano Díaz Chávez/WENDY PATRICIA AMADOR ESCOTO" }, "geometry": { "type": "Point", "coordinates": [ -87.199696, 14.076536 ] } },
{ "type": "Feature", "properties": { "Latitud Origen": 14.076894, "Longitud Origen": -87.156695, "Usuario Origen": "Mariano Díaz Chávez/WENDY PATRICIA AMADOR ESCOTO" }, "geometry": { "type": "Point", "coordinates": [ -87.156695, 14.076894 ] } },
{ "type": "Feature", "properties": { "Latitud Origen": 14.076912, "Longitud Origen": -87.185635, "Usuario Origen": "Mariano Díaz Chávez/WENDY PATRICIA AMADOR ESCOTO" }, "geometry": { "type": "Point", "coordinates": [ -87.185635, 14.076912 ] } },
{ "type": "Feature", "properties": { "Latitud Origen": 14.076944, "Longitud Origen": -87.162299, "Usuario Origen": "Mariano Díaz Chávez/WENDY PATRICIA AMADOR ESCOTO" }, "geometry": { "type": "Point", "coordinates": [ -87.162299, 14.076944 ] } },
{ "type": "Feature", "properties": { "Latitud Origen": 14.077197, "Longitud Origen": -87.187004, "Usuario Origen": "Mariano Díaz Chávez/WENDY PATRICIA AMADOR ESCOTO" }, "geometry": { "type": "Point", "coordinates": [ -87.187004, 14.077197 ] } },
{ "type": "Feature", "properties": { "Latitud Origen": 14.0772, "Longitud Origen": -87.187, "Usuario Origen": "Mariano Díaz Chávez/WENDY PATRICIA AMADOR ESCOTO" }, "geometry": { "type": "Point", "coordinates": [ -87.187, 14.0772 ] } },
{ "type": "Feature", "properties": { "Latitud Origen": 14.077398, "Longitud Origen": -87.236201, "Usuario Origen": "Mariano Díaz Chávez/WENDY PATRICIA AMADOR ESCOTO" }, "geometry": { "type": "Point", "coordinates": [ -87.236201, 14.077398 ] } },
{ "type": "Feature", "properties": { "Latitud Origen": 14.078965, "Longitud Origen": -87.213841, "Usuario Origen": "Mariano Díaz Chávez/WENDY PATRICIA AMADOR ESCOTO" }, "geometry": { "type": "Point", "coordinates": [ -87.213841, 14.078965 ] } },
{ "type": "Feature", "properties": { "Latitud Origen": 14.079589, "Longitud Origen": -87.21461, "Usuario Origen": "Mariano Díaz Chávez/WENDY PATRICIA AMADOR ESCOTO" }, "geometry": { "type": "Point", "coordinates": [ -87.21461, 14.079589 ] } },
{ "type": "Feature", "properties": { "Latitud Origen": 14.079748, "Longitud Origen": -87.197168, "Usuario Origen": "Mariano Díaz Chávez/WENDY PATRICIA AMADOR ESCOTO" }, "geometry": { "type": "Point", "coordinates": [ -87.197168, 14.079748 ] } },
{ "type": "Feature", "properties": { "Latitud Origen": 14.079955, "Longitud Origen": -87.209238, "Usuario Origen": "Mariano Díaz Chávez/WENDY PATRICIA AMADOR ESCOTO" }, "geometry": { "type": "Point", "coordinates": [ -87.209238, 14.079955 ] } },
{ "type": "Feature", "properties": { "Latitud Origen": 14.080195, "Longitud Origen": -87.155262, "Usuario Origen": "Mariano Díaz Chávez/WENDY PATRICIA AMADOR ESCOTO" }, "geometry": { "type": "Point", "coordinates": [ -87.155262, 14.080195 ] } },
{ "type": "Feature", "properties": { "Latitud Origen": 14.080265, "Longitud Origen": -87.253415, "Usuario Origen": "Mariano Díaz Chávez/WENDY PATRICIA AMADOR ESCOTO" }, "geometry": { "type": "Point", "coordinates": [ -87.253415, 14.080265 ] } },
{ "type": "Feature", "properties": { "Latitud Origen": 14.08027, "Longitud Origen": -87.25341, "Usuario Origen": "Mariano Díaz Chávez/WENDY PATRICIA AMADOR ESCOTO" }, "geometry": { "type": "Point", "coordinates": [ -87.25341, 14.08027 ] } },
{ "type": "Feature", "properties": { "Latitud Origen": 14.080654, "Longitud Origen": -87.183126, "Usuario Origen": "Mariano Díaz Chávez/WENDY PATRICIA AMADOR ESCOTO" }, "geometry": { "type": "Point", "coordinates": [ -87.183126, 14.080654 ] } },
{ "type": "Feature", "properties": { "Latitud Origen": 14.08085, "Longitud Origen": -87.23216, "Usuario Origen": "Mariano Díaz Chávez/WENDY PATRICIA AMADOR ESCOTO" }, "geometry": { "type": "Point", "coordinates": [ -87.23216, 14.08085 ] } },
{ "type": "Feature", "properties": { "Latitud Origen": 14.080856, "Longitud Origen": -87.232165, "Usuario Origen": "Mariano Díaz Chávez/WENDY PATRICIA AMADOR ESCOTO" }, "geometry": { "type": "Point", "coordinates": [ -87.232165, 14.080856 ] } },
{ "type": "Feature", "properties": { "Latitud Origen": 14.081529, "Longitud Origen": -87.186072, "Usuario Origen": "Mariano Díaz Chávez/WENDY PATRICIA AMADOR ESCOTO" }, "geometry": { "type": "Point", "coordinates": [ -87.186072, 14.081529 ] } },
{ "type": "Feature", "properties": { "Latitud Origen": 14.081798, "Longitud Origen": -87.1641, "Usuario Origen": "Mariano Díaz Chávez/WENDY PATRICIA AMADOR ESCOTO" }, "geometry": { "type": "Point", "coordinates": [ -87.1641, 14.081798 ] } },
{ "type": "Feature", "properties": { "Latitud Origen": 14.081921, "Longitud Origen": -87.169306, "Usuario Origen": "Mariano Díaz Chávez/WENDY PATRICIA AMADOR ESCOTO" }, "geometry": { "type": "Point", "coordinates": [ -87.169306, 14.081921 ] } },
{ "type": "Feature", "properties": { "Latitud Origen": 14.08289, "Longitud Origen": -86.8225, "Usuario Origen": "Mariano Díaz Chávez/WENDY PATRICIA AMADOR ESCOTO" }, "geometry": { "type": "Point", "coordinates": [ -86.8225, 14.08289 ] } },
{ "type": "Feature", "properties": { "Latitud Origen": 14.082967, "Longitud Origen": -87.16009, "Usuario Origen": "Mariano Díaz Chávez/WENDY PATRICIA AMADOR ESCOTO" }, "geometry": { "type": "Point", "coordinates": [ -87.16009, 14.082967 ] } },
{ "type": "Feature", "properties": { "Latitud Origen": 14.083099, "Longitud Origen": -87.178505, "Usuario Origen": "Mariano Díaz Chávez/WENDY PATRICIA AMADOR ESCOTO" }, "geometry": { "type": "Point", "coordinates": [ -87.178505, 14.083099 ] } },
{ "type": "Feature", "properties": { "Latitud Origen": 14.083935, "Longitud Origen": -87.184638, "Usuario Origen": "Mariano Díaz Chávez/WENDY PATRICIA AMADOR ESCOTO" }, "geometry": { "type": "Point", "coordinates": [ -87.184638, 14.083935 ] } },
{ "type": "Feature", "properties": { "Latitud Origen": 14.0845, "Longitud Origen": -87.1909, "Usuario Origen": "Mariano Díaz Chávez/WENDY PATRICIA AMADOR ESCOTO" }, "geometry": { "type": "Point", "coordinates": [ -87.1909, 14.0845 ] } },
{ "type": "Feature", "properties": { "Latitud Origen": 14.084692, "Longitud Origen": -87.210308, "Usuario Origen": "Mariano Díaz Chávez/WENDY PATRICIA AMADOR ESCOTO" }, "geometry": { "type": "Point", "coordinates": [ -87.210308, 14.084692 ] } },
{ "type": "Feature", "properties": { "Latitud Origen": 14.084807, "Longitud Origen": -87.203129, "Usuario Origen": "Mariano Díaz Chávez/WENDY PATRICIA AMADOR ESCOTO" }, "geometry": { "type": "Point", "coordinates": [ -87.203129, 14.084807 ] } },
{ "type": "Feature", "properties": { "Latitud Origen": 14.085058, "Longitud Origen": -87.164435, "Usuario Origen": "Mariano Díaz Chávez/WENDY PATRICIA AMADOR ESCOTO" }, "geometry": { "type": "Point", "coordinates": [ -87.164435, 14.085058 ] } },
{ "type": "Feature", "properties": { "Latitud Origen": 14.0852, "Longitud Origen": -87.173801, "Usuario Origen": "Mariano Díaz Chávez/WENDY PATRICIA AMADOR ESCOTO" }, "geometry": { "type": "Point", "coordinates": [ -87.173801, 14.0852 ] } },
{ "type": "Feature", "properties": { "Latitud Origen": 14.085439, "Longitud Origen": -87.162857, "Usuario Origen": "Mariano Díaz Chávez/WENDY PATRICIA AMADOR ESCOTO" }, "geometry": { "type": "Point", "coordinates": [ -87.162857, 14.085439 ] } },
{ "type": "Feature", "properties": { "Latitud Origen": 14.085706, "Longitud Origen": -87.198053, "Usuario Origen": "Mariano Díaz Chávez/WENDY PATRICIA AMADOR ESCOTO" }, "geometry": { "type": "Point", "coordinates": [ -87.198053, 14.085706 ] } },
{ "type": "Feature", "properties": { "Latitud Origen": 14.08587, "Longitud Origen": -87.185075, "Usuario Origen": "Mariano Díaz Chávez/WENDY PATRICIA AMADOR ESCOTO" }, "geometry": { "type": "Point", "coordinates": [ -87.185075, 14.08587 ] } },
{ "type": "Feature", "properties": { "Latitud Origen": 14.086007, "Longitud Origen": -87.186255, "Usuario Origen": "Mariano Díaz Chávez/WENDY PATRICIA AMADOR ESCOTO" }, "geometry": { "type": "Point", "coordinates": [ -87.186255, 14.086007 ] } },
{ "type": "Feature", "properties": { "Latitud Origen": 14.086306, "Longitud Origen": -87.194256, "Usuario Origen": "Mariano Díaz Chávez/WENDY PATRICIA AMADOR ESCOTO" }, "geometry": { "type": "Point", "coordinates": [ -87.194256, 14.086306 ] } },
{ "type": "Feature", "properties": { "Latitud Origen": 14.086766, "Longitud Origen": -87.163574, "Usuario Origen": "Mariano Díaz Chávez/WENDY PATRICIA AMADOR ESCOTO" }, "geometry": { "type": "Point", "coordinates": [ -87.163574, 14.086766 ] } },
{ "type": "Feature", "properties": { "Latitud Origen": 14.088005, "Longitud Origen": -87.182967, "Usuario Origen": "Mariano Díaz Chávez/WENDY PATRICIA AMADOR ESCOTO" }, "geometry": { "type": "Point", "coordinates": [ -87.182967, 14.088005 ] } },
{ "type": "Feature", "properties": { "Latitud Origen": 14.088377, "Longitud Origen": -87.183711, "Usuario Origen": "Mariano Díaz Chávez/WENDY PATRICIA AMADOR ESCOTO" }, "geometry": { "type": "Point", "coordinates": [ -87.183711, 14.088377 ] } },
{ "type": "Feature", "properties": { "Latitud Origen": 14.088387, "Longitud Origen": -87.214193, "Usuario Origen": "Mariano Díaz Chávez/WENDY PATRICIA AMADOR ESCOTO" }, "geometry": { "type": "Point", "coordinates": [ -87.214193, 14.088387 ] } },
{ "type": "Feature", "properties": { "Latitud Origen": 14.088659, "Longitud Origen": -87.202215, "Usuario Origen": "Mariano Díaz Chávez/WENDY PATRICIA AMADOR ESCOTO" }, "geometry": { "type": "Point", "coordinates": [ -87.202215, 14.088659 ] } },
{ "type": "Feature", "properties": { "Latitud Origen": 14.088801, "Longitud Origen": -87.182799, "Usuario Origen": "Mariano Díaz Chávez/WENDY PATRICIA AMADOR ESCOTO" }, "geometry": { "type": "Point", "coordinates": [ -87.182799, 14.088801 ] } },
{ "type": "Feature", "properties": { "Latitud Origen": 14.0896, "Longitud Origen": -87.2078, "Usuario Origen": "Mariano Díaz Chávez/WENDY PATRICIA AMADOR ESCOTO" }, "geometry": { "type": "Point", "coordinates": [ -87.2078, 14.0896 ] } },
{ "type": "Feature", "properties": { "Latitud Origen": 14.090092, "Longitud Origen": -87.234217, "Usuario Origen": "Mariano Díaz Chávez/WENDY PATRICIA AMADOR ESCOTO" }, "geometry": { "type": "Point", "coordinates": [ -87.234217, 14.090092 ] } },
{ "type": "Feature", "properties": { "Latitud Origen": 14.090095, "Longitud Origen": -87.234213, "Usuario Origen": "Mariano Díaz Chávez/WENDY PATRICIA AMADOR ESCOTO" }, "geometry": { "type": "Point", "coordinates": [ -87.234213, 14.090095 ] } },
{ "type": "Feature", "properties": { "Latitud Origen": 14.090673, "Longitud Origen": -87.194018, "Usuario Origen": "Mariano Díaz Chávez/WENDY PATRICIA AMADOR ESCOTO" }, "geometry": { "type": "Point", "coordinates": [ -87.194018, 14.090673 ] } },
{ "type": "Feature", "properties": { "Latitud Origen": 14.0908, "Longitud Origen": -87.237699, "Usuario Origen": "Mariano Díaz Chávez/WENDY PATRICIA AMADOR ESCOTO" }, "geometry": { "type": "Point", "coordinates": [ -87.237699, 14.0908 ] } },
{ "type": "Feature", "properties": { "Latitud Origen": 14.090806, "Longitud Origen": -87.237706, "Usuario Origen": "Mariano Díaz Chávez/WENDY PATRICIA AMADOR ESCOTO" }, "geometry": { "type": "Point", "coordinates": [ -87.237706, 14.090806 ] } },
{ "type": "Feature", "properties": { "Latitud Origen": 14.09094444, "Longitud Origen": -87.2095833, "Usuario Origen": "Mariano Díaz Chávez/WENDY PATRICIA AMADOR ESCOTO" }, "geometry": { "type": "Point", "coordinates": [ -87.2095833, 14.09094444 ] } },
{ "type": "Feature", "properties": { "Latitud Origen": 14.09095, "Longitud Origen": -87.209582, "Usuario Origen": "Mariano Díaz Chávez/WENDY PATRICIA AMADOR ESCOTO" }, "geometry": { "type": "Point", "coordinates": [ -87.209582, 14.09095 ] } },
{ "type": "Feature", "properties": { "Latitud Origen": 14.091511, "Longitud Origen": -87.187108, "Usuario Origen": "Mariano Díaz Chávez/WENDY PATRICIA AMADOR ESCOTO" }, "geometry": { "type": "Point", "coordinates": [ -87.187108, 14.091511 ] } },
{ "type": "Feature", "properties": { "Latitud Origen": 14.091665, "Longitud Origen": -87.218494, "Usuario Origen": "Mariano Díaz Chávez/WENDY PATRICIA AMADOR ESCOTO" }, "geometry": { "type": "Point", "coordinates": [ -87.218494, 14.091665 ] } },
{ "type": "Feature", "properties": { "Latitud Origen": 14.091692, "Longitud Origen": -87.1835, "Usuario Origen": "Mariano Díaz Chávez/WENDY PATRICIA AMADOR ESCOTO" }, "geometry": { "type": "Point", "coordinates": [ -87.1835, 14.091692 ] } },
{ "type": "Feature", "properties": { "Latitud Origen": 14.092038, "Longitud Origen": -87.244572, "Usuario Origen": "Mariano Díaz Chávez/WENDY PATRICIA AMADOR ESCOTO" }, "geometry": { "type": "Point", "coordinates": [ -87.244572, 14.092038 ] } },
{ "type": "Feature", "properties": { "Latitud Origen": 14.092266, "Longitud Origen": -87.223543, "Usuario Origen": "Mariano Díaz Chávez/WENDY PATRICIA AMADOR ESCOTO" }, "geometry": { "type": "Point", "coordinates": [ -87.223543, 14.092266 ] } },
{ "type": "Feature", "properties": { "Latitud Origen": 14.092506, "Longitud Origen": -87.198105, "Usuario Origen": "Mariano Díaz Chávez/WENDY PATRICIA AMADOR ESCOTO" }, "geometry": { "type": "Point", "coordinates": [ -87.198105, 14.092506 ] } },
{ "type": "Feature", "properties": { "Latitud Origen": 14.092556, "Longitud Origen": -87.2129, "Usuario Origen": "Mariano Díaz Chávez/WENDY PATRICIA AMADOR ESCOTO" }, "geometry": { "type": "Point", "coordinates": [ -87.2129, 14.092556 ] } },
{ "type": "Feature", "properties": { "Latitud Origen": 14.0932, "Longitud Origen": -87.2136, "Usuario Origen": "Mariano Díaz Chávez/WENDY PATRICIA AMADOR ESCOTO" }, "geometry": { "type": "Point", "coordinates": [ -87.2136, 14.0932 ] } },
{ "type": "Feature", "properties": { "Latitud Origen": 14.09368, "Longitud Origen": -87.19096, "Usuario Origen": "Mariano Díaz Chávez/WENDY PATRICIA AMADOR ESCOTO" }, "geometry": { "type": "Point", "coordinates": [ -87.19096, 14.09368 ] } },
{ "type": "Feature", "properties": { "Latitud Origen": 14.094126, "Longitud Origen": -87.17176, "Usuario Origen": "Mariano Díaz Chávez/WENDY PATRICIA AMADOR ESCOTO" }, "geometry": { "type": "Point", "coordinates": [ -87.17176, 14.094126 ] } },
{ "type": "Feature", "properties": { "Latitud Origen": 14.0942, "Longitud Origen": -87.2041, "Usuario Origen": "Mariano Díaz Chávez/WENDY PATRICIA AMADOR ESCOTO" }, "geometry": { "type": "Point", "coordinates": [ -87.2041, 14.0942 ] } },
{ "type": "Feature", "properties": { "Latitud Origen": 14.094535, "Longitud Origen": -87.181979, "Usuario Origen": "Mariano Díaz Chávez/WENDY PATRICIA AMADOR ESCOTO" }, "geometry": { "type": "Point", "coordinates": [ -87.181979, 14.094535 ] } },
{ "type": "Feature", "properties": { "Latitud Origen": 14.095106, "Longitud Origen": -87.259091, "Usuario Origen": "Mariano Díaz Chávez/WENDY PATRICIA AMADOR ESCOTO" }, "geometry": { "type": "Point", "coordinates": [ -87.259091, 14.095106 ] } },
{ "type": "Feature", "properties": { "Latitud Origen": 14.095595, "Longitud Origen": -87.212198, "Usuario Origen": "Mariano Díaz Chávez/WENDY PATRICIA AMADOR ESCOTO" }, "geometry": { "type": "Point", "coordinates": [ -87.212198, 14.095595 ] } },
{ "type": "Feature", "properties": { "Latitud Origen": 14.09613, "Longitud Origen": -87.18296, "Usuario Origen": "Mariano Díaz Chávez/WENDY PATRICIA AMADOR ESCOTO" }, "geometry": { "type": "Point", "coordinates": [ -87.18296, 14.09613 ] } },
{ "type": "Feature", "properties": { "Latitud Origen": 14.0965, "Longitud Origen": -87.164444, "Usuario Origen": "Mariano Díaz Chávez/WENDY PATRICIA AMADOR ESCOTO" }, "geometry": { "type": "Point", "coordinates": [ -87.164444, 14.0965 ] } },
{ "type": "Feature", "properties": { "Latitud Origen": 14.096594, "Longitud Origen": -87.173198, "Usuario Origen": "Mariano Díaz Chávez/WENDY PATRICIA AMADOR ESCOTO" }, "geometry": { "type": "Point", "coordinates": [ -87.173198, 14.096594 ] } },
{ "type": "Feature", "properties": { "Latitud Origen": 14.096899, "Longitud Origen": -87.220111, "Usuario Origen": "Mariano Díaz Chávez/WENDY PATRICIA AMADOR ESCOTO" }, "geometry": { "type": "Point", "coordinates": [ -87.220111, 14.096899 ] } },
{ "type": "Feature", "properties": { "Latitud Origen": 14.0969, "Longitud Origen": -87.22011, "Usuario Origen": "Mariano Díaz Chávez/WENDY PATRICIA AMADOR ESCOTO" }, "geometry": { "type": "Point", "coordinates": [ -87.22011, 14.0969 ] } },
{ "type": "Feature", "properties": { "Latitud Origen": 14.098599, "Longitud Origen": -87.229904, "Usuario Origen": "Mariano Díaz Chávez/WENDY PATRICIA AMADOR ESCOTO" }, "geometry": { "type": "Point", "coordinates": [ -87.229904, 14.098599 ] } },
{ "type": "Feature", "properties": { "Latitud Origen": 14.0986, "Longitud Origen": -87.229899, "Usuario Origen": "Mariano Díaz Chávez/WENDY PATRICIA AMADOR ESCOTO" }, "geometry": { "type": "Point", "coordinates": [ -87.229899, 14.0986 ] } },
{ "type": "Feature", "properties": { "Latitud Origen": 14.098659, "Longitud Origen": -87.203234, "Usuario Origen": "Mariano Díaz Chávez/WENDY PATRICIA AMADOR ESCOTO" }, "geometry": { "type": "Point", "coordinates": [ -87.203234, 14.098659 ] } },
{ "type": "Feature", "properties": { "Latitud Origen": 14.09904, "Longitud Origen": -87.190125, "Usuario Origen": "Mariano Díaz Chávez/WENDY PATRICIA AMADOR ESCOTO" }, "geometry": { "type": "Point", "coordinates": [ -87.190125, 14.09904 ] } },
{ "type": "Feature", "properties": { "Latitud Origen": 14.099342, "Longitud Origen": -87.20756, "Usuario Origen": "Mariano Díaz Chávez/WENDY PATRICIA AMADOR ESCOTO" }, "geometry": { "type": "Point", "coordinates": [ -87.20756, 14.099342 ] } },
{ "type": "Feature", "properties": { "Latitud Origen": 14.099343, "Longitud Origen": -87.207556, "Usuario Origen": "Mariano Díaz Chávez/WENDY PATRICIA AMADOR ESCOTO" }, "geometry": { "type": "Point", "coordinates": [ -87.207556, 14.099343 ] } },
{ "type": "Feature", "properties": { "Latitud Origen": 14.0995, "Longitud Origen": -87.250499, "Usuario Origen": "Mariano Díaz Chávez/WENDY PATRICIA AMADOR ESCOTO" }, "geometry": { "type": "Point", "coordinates": [ -87.250499, 14.0995 ] } },
{ "type": "Feature", "properties": { "Latitud Origen": 14.099526, "Longitud Origen": -87.193322, "Usuario Origen": "Mariano Díaz Chávez/WENDY PATRICIA AMADOR ESCOTO" }, "geometry": { "type": "Point", "coordinates": [ -87.193322, 14.099526 ] } },
{ "type": "Feature", "properties": { "Latitud Origen": 14.099719, "Longitud Origen": -87.200159, "Usuario Origen": "Mariano Díaz Chávez/WENDY PATRICIA AMADOR ESCOTO" }, "geometry": { "type": "Point", "coordinates": [ -87.200159, 14.099719 ] } },
{ "type": "Feature", "properties": { "Latitud Origen": 14.099899, "Longitud Origen": -87.165993, "Usuario Origen": "Mariano Díaz Chávez/WENDY PATRICIA AMADOR ESCOTO" }, "geometry": { "type": "Point", "coordinates": [ -87.165993, 14.099899 ] } },
{ "type": "Feature", "properties": { "Latitud Origen": 14.100003, "Longitud Origen": -87.206431, "Usuario Origen": "Mariano Díaz Chávez/WENDY PATRICIA AMADOR ESCOTO" }, "geometry": { "type": "Point", "coordinates": [ -87.206431, 14.100003 ] } },
{ "type": "Feature", "properties": { "Latitud Origen": 14.1003, "Longitud Origen": -87.197204, "Usuario Origen": "Mariano Díaz Chávez/WENDY PATRICIA AMADOR ESCOTO" }, "geometry": { "type": "Point", "coordinates": [ -87.197204, 14.1003 ] } },
{ "type": "Feature", "properties": { "Latitud Origen": 14.100418, "Longitud Origen": -87.185754, "Usuario Origen": "Mariano Díaz Chávez/WENDY PATRICIA AMADOR ESCOTO" }, "geometry": { "type": "Point", "coordinates": [ -87.185754, 14.100418 ] } },
{ "type": "Feature", "properties": { "Latitud Origen": 14.101194, "Longitud Origen": -87.238801, "Usuario Origen": "Mariano Díaz Chávez/WENDY PATRICIA AMADOR ESCOTO" }, "geometry": { "type": "Point", "coordinates": [ -87.238801, 14.101194 ] } },
{ "type": "Feature", "properties": { "Latitud Origen": 14.101598, "Longitud Origen": -87.180002, "Usuario Origen": "Mariano Díaz Chávez/WENDY PATRICIA AMADOR ESCOTO" }, "geometry": { "type": "Point", "coordinates": [ -87.180002, 14.101598 ] } },
{ "type": "Feature", "properties": { "Latitud Origen": 14.10169, "Longitud Origen": -87.18655, "Usuario Origen": "Mariano Díaz Chávez/WENDY PATRICIA AMADOR ESCOTO" }, "geometry": { "type": "Point", "coordinates": [ -87.18655, 14.10169 ] } },
{ "type": "Feature", "properties": { "Latitud Origen": 14.1028, "Longitud Origen": -87.2042, "Usuario Origen": "Mariano Díaz Chávez/WENDY PATRICIA AMADOR ESCOTO" }, "geometry": { "type": "Point", "coordinates": [ -87.2042, 14.1028 ] } },
{ "type": "Feature", "properties": { "Latitud Origen": 14.10335, "Longitud Origen": -87.23425, "Usuario Origen": "Mariano Díaz Chávez/WENDY PATRICIA AMADOR ESCOTO" }, "geometry": { "type": "Point", "coordinates": [ -87.23425, 14.10335 ] } },
{ "type": "Feature", "properties": { "Latitud Origen": 14.1034, "Longitud Origen": -87.218899, "Usuario Origen": "Mariano Díaz Chávez/WENDY PATRICIA AMADOR ESCOTO" }, "geometry": { "type": "Point", "coordinates": [ -87.218899, 14.1034 ] } },
{ "type": "Feature", "properties": { "Latitud Origen": 14.103459, "Longitud Origen": -87.234125, "Usuario Origen": "Mariano Díaz Chávez/WENDY PATRICIA AMADOR ESCOTO" }, "geometry": { "type": "Point", "coordinates": [ -87.234125, 14.103459 ] } },
{ "type": "Feature", "properties": { "Latitud Origen": 14.103463, "Longitud Origen": -87.234124, "Usuario Origen": "Mariano Díaz Chávez/WENDY PATRICIA AMADOR ESCOTO" }, "geometry": { "type": "Point", "coordinates": [ -87.234124, 14.103463 ] } },
{ "type": "Feature", "properties": { "Latitud Origen": 14.104906, "Longitud Origen": -87.204499, "Usuario Origen": "Mariano Díaz Chávez/WENDY PATRICIA AMADOR ESCOTO" }, "geometry": { "type": "Point", "coordinates": [ -87.204499, 14.104906 ] } },
{ "type": "Feature", "properties": { "Latitud Origen": 14.1054, "Longitud Origen": -87.2284, "Usuario Origen": "Mariano Díaz Chávez/WENDY PATRICIA AMADOR ESCOTO" }, "geometry": { "type": "Point", "coordinates": [ -87.2284, 14.1054 ] } },
{ "type": "Feature", "properties": { "Latitud Origen": 14.1054, "Longitud Origen": -87.228401, "Usuario Origen": "Mariano Díaz Chávez/WENDY PATRICIA AMADOR ESCOTO" }, "geometry": { "type": "Point", "coordinates": [ -87.228401, 14.1054 ] } },
{ "type": "Feature", "properties": { "Latitud Origen": 14.105773, "Longitud Origen": -87.205111, "Usuario Origen": "Mariano Díaz Chávez/WENDY PATRICIA AMADOR ESCOTO" }, "geometry": { "type": "Point", "coordinates": [ -87.205111, 14.105773 ] } },
{ "type": "Feature", "properties": { "Latitud Origen": 14.105899, "Longitud Origen": -87.244401, "Usuario Origen": "Mariano Díaz Chávez/WENDY PATRICIA AMADOR ESCOTO" }, "geometry": { "type": "Point", "coordinates": [ -87.244401, 14.105899 ] } },
{ "type": "Feature", "properties": { "Latitud Origen": 14.10635, "Longitud Origen": -87.204594, "Usuario Origen": "Mariano Díaz Chávez/WENDY PATRICIA AMADOR ESCOTO" }, "geometry": { "type": "Point", "coordinates": [ -87.204594, 14.10635 ] } },
{ "type": "Feature", "properties": { "Latitud Origen": 14.106386, "Longitud Origen": -87.207622, "Usuario Origen": "Mariano Díaz Chávez/WENDY PATRICIA AMADOR ESCOTO" }, "geometry": { "type": "Point", "coordinates": [ -87.207622, 14.106386 ] } },
{ "type": "Feature", "properties": { "Latitud Origen": 14.111398, "Longitud Origen": -87.1819, "Usuario Origen": "Mariano Díaz Chávez/WENDY PATRICIA AMADOR ESCOTO" }, "geometry": { "type": "Point", "coordinates": [ -87.1819, 14.111398 ] } },
{ "type": "Feature", "properties": { "Latitud Origen": 14.111442, "Longitud Origen": -87.2052, "Usuario Origen": "Mariano Díaz Chávez/WENDY PATRICIA AMADOR ESCOTO" }, "geometry": { "type": "Point", "coordinates": [ -87.2052, 14.111442 ] } },
{ "type": "Feature", "properties": { "Latitud Origen": 14.116071, "Longitud Origen": -87.2263, "Usuario Origen": "Mariano Díaz Chávez/WENDY PATRICIA AMADOR ESCOTO" }, "geometry": { "type": "Point", "coordinates": [ -87.2263, 14.116071 ] } },
{ "type": "Feature", "properties": { "Latitud Origen": 14.116179, "Longitud Origen": -87.253677, "Usuario Origen": "Mariano Díaz Chávez/WENDY PATRICIA AMADOR ESCOTO" }, "geometry": { "type": "Point", "coordinates": [ -87.253677, 14.116179 ] } },
{ "type": "Feature", "properties": { "Latitud Origen": 14.127405, "Longitud Origen": -87.249316, "Usuario Origen": "Mariano Díaz Chávez/WENDY PATRICIA AMADOR ESCOTO" }, "geometry": { "type": "Point", "coordinates": [ -87.249316, 14.127405 ] } },
{ "type": "Feature", "properties": { "Latitud Origen": 14.13532, "Longitud Origen": -87.27638, "Usuario Origen": "Mariano Díaz Chávez/WENDY PATRICIA AMADOR ESCOTO" }, "geometry": { "type": "Point", "coordinates": [ -87.27638, 14.13532 ] } },
{ "type": "Feature", "properties": { "Latitud Origen": 14.137399, "Longitud Origen": -87.218, "Usuario Origen": "Mariano Díaz Chávez/WENDY PATRICIA AMADOR ESCOTO" }, "geometry": { "type": "Point", "coordinates": [ -87.218, 14.137399 ] } },
{ "type": "Feature", "properties": { "Latitud Origen": 14.140964, "Longitud Origen": -87.234997, "Usuario Origen": "Mariano Díaz Chávez/WENDY PATRICIA AMADOR ESCOTO" }, "geometry": { "type": "Point", "coordinates": [ -87.234997, 14.140964 ] } },
{ "type": "Feature", "properties": { "Latitud Origen": 14.1439, "Longitud Origen": -87.2621, "Usuario Origen": "Mariano Díaz Chávez/WENDY PATRICIA AMADOR ESCOTO" }, "geometry": { "type": "Point", "coordinates": [ -87.2621, 14.1439 ] } },
{ "type": "Feature", "properties": { "Latitud Origen": 14.15888, "Longitud Origen": -87.28469, "Usuario Origen": "Mariano Díaz Chávez/WENDY PATRICIA AMADOR ESCOTO" }, "geometry": { "type": "Point", "coordinates": [ -87.28469, 14.15888 ] } },
{ "type": "Feature", "properties": { "Latitud Origen": 14.16880556, "Longitud Origen": -87.3089444, "Usuario Origen": "Mariano Díaz Chávez/WENDY PATRICIA AMADOR ESCOTO" }, "geometry": { "type": "Point", "coordinates": [ -87.3089444, 14.16880556 ] } },
{ "type": "Feature", "properties": { "Latitud Origen": 14.1698, "Longitud Origen": -87.1828, "Usuario Origen": "Mariano Díaz Chávez/WENDY PATRICIA AMADOR ESCOTO" }, "geometry": { "type": "Point", "coordinates": [ -87.1828, 14.1698 ] } },
{ "type": "Feature", "properties": { "Latitud Origen": 14.18806, "Longitud Origen": -87.20218, "Usuario Origen": "Mariano Díaz Chávez/WENDY PATRICIA AMADOR ESCOTO" }, "geometry": { "type": "Point", "coordinates": [ -87.20218, 14.18806 ] } },
{ "type": "Feature", "properties": { "Latitud Origen": 14.19025278, "Longitud Origen": -87.3378889, "Usuario Origen": "Mariano Díaz Chávez/WENDY PATRICIA AMADOR ESCOTO" }, "geometry": { "type": "Point", "coordinates": [ -87.3378889, 14.19025278 ] } },
{ "type": "Feature", "properties": { "Latitud Origen": 14.2098, "Longitud Origen": -87.373099, "Usuario Origen": "Mariano Díaz Chávez/WENDY PATRICIA AMADOR ESCOTO" }, "geometry": { "type": "Point", "coordinates": [ -87.373099, 14.2098 ] } },
{ "type": "Feature", "properties": { "Latitud Origen": 14.22111111, "Longitud Origen": -87.2286111, "Usuario Origen": "Mariano Díaz Chávez/WENDY PATRICIA AMADOR ESCOTO" }, "geometry": { "type": "Point", "coordinates": [ -87.2286111, 14.22111111 ] } },
{ "type": "Feature", "properties": { "Latitud Origen": 14.24146, "Longitud Origen": -87.37198, "Usuario Origen": "Mariano Díaz Chávez/WENDY PATRICIA AMADOR ESCOTO" }, "geometry": { "type": "Point", "coordinates": [ -87.37198, 14.24146 ] } },
{ "type": "Feature", "properties": { "Latitud Origen": 14.267472, "Longitud Origen": -87.406256, "Usuario Origen": "Mariano Díaz Chávez/WENDY PATRICIA AMADOR ESCOTO" }, "geometry": { "type": "Point", "coordinates": [ -87.406256, 14.267472 ] } },
{ "type": "Feature", "properties": { "Latitud Origen": 14.27527778, "Longitud Origen": -87.2583333, "Usuario Origen": "Mariano Díaz Chávez/WENDY PATRICIA AMADOR ESCOTO" }, "geometry": { "type": "Point", "coordinates": [ -87.2583333, 14.27527778 ] } },
{ "type": "Feature", "properties": { "Latitud Origen": 14.27599, "Longitud Origen": -87.51647, "Usuario Origen": "Mariano Díaz Chávez/WENDY PATRICIA AMADOR ESCOTO" }, "geometry": { "type": "Point", "coordinates": [ -87.51647, 14.27599 ] } },
{ "type": "Feature", "properties": { "Latitud Origen": 14.27722, "Longitud Origen": -87.4915, "Usuario Origen": "Mariano Díaz Chávez/WENDY PATRICIA AMADOR ESCOTO" }, "geometry": { "type": "Point", "coordinates": [ -87.4915, 14.27722 ] } },
{ "type": "Feature", "properties": { "Latitud Origen": 14.279961, "Longitud Origen": -87.449314, "Usuario Origen": "Mariano Díaz Chávez/WENDY PATRICIA AMADOR ESCOTO" }, "geometry": { "type": "Point", "coordinates": [ -87.449314, 14.279961 ] } },
{ "type": "Feature", "properties": { "Latitud Origen": 14.28495, "Longitud Origen": -87.46938, "Usuario Origen": "Mariano Díaz Chávez/WENDY PATRICIA AMADOR ESCOTO" }, "geometry": { "type": "Point", "coordinates": [ -87.46938, 14.28495 ] } },
{ "type": "Feature", "properties": { "Latitud Origen": 14.28994, "Longitud Origen": -87.57069, "Usuario Origen": "Mariano Díaz Chávez/WENDY PATRICIA AMADOR ESCOTO" }, "geometry": { "type": "Point", "coordinates": [ -87.57069, 14.28994 ] } },
{ "type": "Feature", "properties": { "Latitud Origen": 14.292972, "Longitud Origen": -87.531582, "Usuario Origen": "Mariano Díaz Chávez/WENDY PATRICIA AMADOR ESCOTO" }, "geometry": { "type": "Point", "coordinates": [ -87.531582, 14.292972 ] } },
{ "type": "Feature", "properties": { "Latitud Origen": 14.30099, "Longitud Origen": -87.572785, "Usuario Origen": "Mariano Díaz Chávez/WENDY PATRICIA AMADOR ESCOTO" }, "geometry": { "type": "Point", "coordinates": [ -87.572785, 14.30099 ] } },
{ "type": "Feature", "properties": { "Latitud Origen": 14.3068, "Longitud Origen": -88.2177, "Usuario Origen": "Mariano Díaz Chávez/WENDY PATRICIA AMADOR ESCOTO" }, "geometry": { "type": "Point", "coordinates": [ -88.2177, 14.3068 ] } },
{ "type": "Feature", "properties": { "Latitud Origen": 14.308898, "Longitud Origen": -88.164935, "Usuario Origen": "Mariano Díaz Chávez/WENDY PATRICIA AMADOR ESCOTO" }, "geometry": { "type": "Point", "coordinates": [ -88.164935, 14.308898 ] } },
{ "type": "Feature", "properties": { "Latitud Origen": 14.30899722, "Longitud Origen": -87.2005278, "Usuario Origen": "Mariano Díaz Chávez/WENDY PATRICIA AMADOR ESCOTO" }, "geometry": { "type": "Point", "coordinates": [ -87.2005278, 14.30899722 ] } },
{ "type": "Feature", "properties": { "Latitud Origen": 14.30947222, "Longitud Origen": -88.168275, "Usuario Origen": "Mariano Díaz Chávez/WENDY PATRICIA AMADOR ESCOTO" }, "geometry": { "type": "Point", "coordinates": [ -88.168275, 14.30947222 ] } },
{ "type": "Feature", "properties": { "Latitud Origen": 14.31805, "Longitud Origen": -87.584168, "Usuario Origen": "Mariano Díaz Chávez/WENDY PATRICIA AMADOR ESCOTO" }, "geometry": { "type": "Point", "coordinates": [ -87.584168, 14.31805 ] } },
{ "type": "Feature", "properties": { "Latitud Origen": 14.318052, "Longitud Origen": -87.584162, "Usuario Origen": "Mariano Díaz Chávez/WENDY PATRICIA AMADOR ESCOTO" }, "geometry": { "type": "Point", "coordinates": [ -87.584162, 14.318052 ] } },
{ "type": "Feature", "properties": { "Latitud Origen": 14.32211111, "Longitud Origen": -88.1924722, "Usuario Origen": "Mariano Díaz Chávez/WENDY PATRICIA AMADOR ESCOTO" }, "geometry": { "type": "Point", "coordinates": [ -88.1924722, 14.32211111 ] } },
{ "type": "Feature", "properties": { "Latitud Origen": 14.332124, "Longitud Origen": -87.686931, "Usuario Origen": "Mariano Díaz Chávez/WENDY PATRICIA AMADOR ESCOTO" }, "geometry": { "type": "Point", "coordinates": [ -87.686931, 14.332124 ] } },
{ "type": "Feature", "properties": { "Latitud Origen": 14.344, "Longitud Origen": -87.1726389, "Usuario Origen": "Mariano Díaz Chávez/WENDY PATRICIA AMADOR ESCOTO" }, "geometry": { "type": "Point", "coordinates": [ -87.1726389, 14.344 ] } },
{ "type": "Feature", "properties": { "Latitud Origen": 14.35672, "Longitud Origen": -87.24793, "Usuario Origen": "Mariano Díaz Chávez/WENDY PATRICIA AMADOR ESCOTO" }, "geometry": { "type": "Point", "coordinates": [ -87.24793, 14.35672 ] } },
{ "type": "Feature", "properties": { "Latitud Origen": 14.387535, "Longitud Origen": -87.081173, "Usuario Origen": "Mariano Díaz Chávez/WENDY PATRICIA AMADOR ESCOTO" }, "geometry": { "type": "Point", "coordinates": [ -87.081173, 14.387535 ] } },
{ "type": "Feature", "properties": { "Latitud Origen": 14.38753515, "Longitud Origen": -87.0811725, "Usuario Origen": "Mariano Díaz Chávez/WENDY PATRICIA AMADOR ESCOTO" }, "geometry": { "type": "Point", "coordinates": [ -87.0811725, 14.38753515 ] } },
{ "type": "Feature", "properties": { "Latitud Origen": 14.3878, "Longitud Origen": -87.5957, "Usuario Origen": "Mariano Díaz Chávez/WENDY PATRICIA AMADOR ESCOTO" }, "geometry": { "type": "Point", "coordinates": [ -87.5957, 14.3878 ] } },
{ "type": "Feature", "properties": { "Latitud Origen": 14.39476, "Longitud Origen": -87.61518, "Usuario Origen": "Mariano Díaz Chávez/WENDY PATRICIA AMADOR ESCOTO" }, "geometry": { "type": "Point", "coordinates": [ -87.61518, 14.39476 ] } },
{ "type": "Feature", "properties": { "Latitud Origen": 14.39544, "Longitud Origen": -87.12089, "Usuario Origen": "Mariano Díaz Chávez/WENDY PATRICIA AMADOR ESCOTO" }, "geometry": { "type": "Point", "coordinates": [ -87.12089, 14.39544 ] } },
{ "type": "Feature", "properties": { "Latitud Origen": 14.4075, "Longitud Origen": -87.078425, "Usuario Origen": "Mariano Díaz Chávez/WENDY PATRICIA AMADOR ESCOTO" }, "geometry": { "type": "Point", "coordinates": [ -87.078425, 14.4075 ] } },
{ "type": "Feature", "properties": { "Latitud Origen": 14.417645, "Longitud Origen": -87.102057, "Usuario Origen": "Mariano Díaz Chávez/WENDY PATRICIA AMADOR ESCOTO" }, "geometry": { "type": "Point", "coordinates": [ -87.102057, 14.417645 ] } },
{ "type": "Feature", "properties": { "Latitud Origen": 14.432888, "Longitud Origen": -87.634079, "Usuario Origen": "Mariano Díaz Chávez/WENDY PATRICIA AMADOR ESCOTO" }, "geometry": { "type": "Point", "coordinates": [ -87.634079, 14.432888 ] } },
{ "type": "Feature", "properties": { "Latitud Origen": 14.43477778, "Longitud Origen": -87.0226944, "Usuario Origen": "Mariano Díaz Chávez/WENDY PATRICIA AMADOR ESCOTO" }, "geometry": { "type": "Point", "coordinates": [ -87.0226944, 14.43477778 ] } },
{ "type": "Feature", "properties": { "Latitud Origen": 14.449545, "Longitud Origen": -87.643972, "Usuario Origen": "Mariano Díaz Chávez/WENDY PATRICIA AMADOR ESCOTO" }, "geometry": { "type": "Point", "coordinates": [ -87.643972, 14.449545 ] } },
{ "type": "Feature", "properties": { "Latitud Origen": 14.4511, "Longitud Origen": -87.637399, "Usuario Origen": "Mariano Díaz Chávez/WENDY PATRICIA AMADOR ESCOTO" }, "geometry": { "type": "Point", "coordinates": [ -87.637399, 14.4511 ] } },
{ "type": "Feature", "properties": { "Latitud Origen": 14.4536889, "Longitud Origen": -87.6328306, "Usuario Origen": "Mariano Díaz Chávez/WENDY PATRICIA AMADOR ESCOTO" }, "geometry": { "type": "Point", "coordinates": [ -87.6328306, 14.4536889 ] } },
{ "type": "Feature", "properties": { "Latitud Origen": 14.45607, "Longitud Origen": -87.64219, "Usuario Origen": "Mariano Díaz Chávez/WENDY PATRICIA AMADOR ESCOTO" }, "geometry": { "type": "Point", "coordinates": [ -87.64219, 14.45607 ] } },
{ "type": "Feature", "properties": { "Latitud Origen": 14.456995, "Longitud Origen": -87.637285, "Usuario Origen": "Mariano Díaz Chávez/WENDY PATRICIA AMADOR ESCOTO" }, "geometry": { "type": "Point", "coordinates": [ -87.637285, 14.456995 ] } },
{ "type": "Feature", "properties": { "Latitud Origen": 14.461194, "Longitud Origen": -87.645601, "Usuario Origen": "Mariano Díaz Chávez/WENDY PATRICIA AMADOR ESCOTO" }, "geometry": { "type": "Point", "coordinates": [ -87.645601, 14.461194 ] } },
{ "type": "Feature", "properties": { "Latitud Origen": 14.464306, "Longitud Origen": -87.635089, "Usuario Origen": "Mariano Díaz Chávez/WENDY PATRICIA AMADOR ESCOTO" }, "geometry": { "type": "Point", "coordinates": [ -87.635089, 14.464306 ] } },
{ "type": "Feature", "properties": { "Latitud Origen": 14.4681667, "Longitud Origen": -87.0700556, "Usuario Origen": "Mariano Díaz Chávez/WENDY PATRICIA AMADOR ESCOTO" }, "geometry": { "type": "Point", "coordinates": [ -87.0700556, 14.4681667 ] } },
{ "type": "Feature", "properties": { "Latitud Origen": 14.49055556, "Longitud Origen": -87.6593056, "Usuario Origen": "Mariano Díaz Chávez/WENDY PATRICIA AMADOR ESCOTO" }, "geometry": { "type": "Point", "coordinates": [ -87.6593056, 14.49055556 ] } },
{ "type": "Feature", "properties": { "Latitud Origen": 14.51711, "Longitud Origen": -87.97633, "Usuario Origen": "Mariano Díaz Chávez/WENDY PATRICIA AMADOR ESCOTO" }, "geometry": { "type": "Point", "coordinates": [ -87.97633, 14.51711 ] } },
{ "type": "Feature", "properties": { "Latitud Origen": 14.51919, "Longitud Origen": -87.7637, "Usuario Origen": "Mariano Díaz Chávez/WENDY PATRICIA AMADOR ESCOTO" }, "geometry": { "type": "Point", "coordinates": [ -87.7637, 14.51919 ] } },
{ "type": "Feature", "properties": { "Latitud Origen": 14.54544444, "Longitud Origen": -87.6511667, "Usuario Origen": "Mariano Díaz Chávez/WENDY PATRICIA AMADOR ESCOTO" }, "geometry": { "type": "Point", "coordinates": [ -87.6511667, 14.54544444 ] } },
{ "type": "Feature", "properties": { "Latitud Origen": 14.54611, "Longitud Origen": -87.07944, "Usuario Origen": "Mariano Díaz Chávez/WENDY PATRICIA AMADOR ESCOTO" }, "geometry": { "type": "Point", "coordinates": [ -87.07944, 14.54611 ] } },
{ "type": "Feature", "properties": { "Latitud Origen": 14.56502778, "Longitud Origen": -87.9497778, "Usuario Origen": "Mariano Díaz Chávez/WENDY PATRICIA AMADOR ESCOTO" }, "geometry": { "type": "Point", "coordinates": [ -87.9497778, 14.56502778 ] } },
{ "type": "Feature", "properties": { "Latitud Origen": 14.578494, "Longitud Origen": -87.841498, "Usuario Origen": "Mariano Díaz Chávez/WENDY PATRICIA AMADOR ESCOTO" }, "geometry": { "type": "Point", "coordinates": [ -87.841498, 14.578494 ] } },
{ "type": "Feature", "properties": { "Latitud Origen": 14.5785, "Longitud Origen": -87.8415, "Usuario Origen": "Mariano Díaz Chávez/WENDY PATRICIA AMADOR ESCOTO" }, "geometry": { "type": "Point", "coordinates": [ -87.8415, 14.5785 ] } },
{ "type": "Feature", "properties": { "Latitud Origen": 14.593972, "Longitud Origen": -87.112361, "Usuario Origen": "Mariano Díaz Chávez/WENDY PATRICIA AMADOR ESCOTO" }, "geometry": { "type": "Point", "coordinates": [ -87.112361, 14.593972 ] } },
{ "type": "Feature", "properties": { "Latitud Origen": 14.593979, "Longitud Origen": -87.11236, "Usuario Origen": "Mariano Díaz Chávez/WENDY PATRICIA AMADOR ESCOTO" }, "geometry": { "type": "Point", "coordinates": [ -87.11236, 14.593979 ] } },
{ "type": "Feature", "properties": { "Latitud Origen": 14.595499, "Longitud Origen": -87.859183, "Usuario Origen": "Mariano Díaz Chávez/WENDY PATRICIA AMADOR ESCOTO" }, "geometry": { "type": "Point", "coordinates": [ -87.859183, 14.595499 ] } },
{ "type": "Feature", "properties": { "Latitud Origen": 14.68594444, "Longitud Origen": -87.5151944, "Usuario Origen": "Mariano Díaz Chávez/WENDY PATRICIA AMADOR ESCOTO" }, "geometry": { "type": "Point", "coordinates": [ -87.5151944, 14.68594444 ] } },
{ "type": "Feature", "properties": { "Latitud Origen": 14.69831, "Longitud Origen": -87.30837, "Usuario Origen": "Mariano Díaz Chávez/WENDY PATRICIA AMADOR ESCOTO" }, "geometry": { "type": "Point", "coordinates": [ -87.30837, 14.69831 ] } },
{ "type": "Feature", "properties": { "Latitud Origen": 14.7005, "Longitud Origen": -87.1142222, "Usuario Origen": "Mariano Díaz Chávez/WENDY PATRICIA AMADOR ESCOTO" }, "geometry": { "type": "Point", "coordinates": [ -87.1142222, 14.7005 ] } },
{ "type": "Feature", "properties": { "Latitud Origen": 14.737, "Longitud Origen": -87.3936111, "Usuario Origen": "Mariano Díaz Chávez/WENDY PATRICIA AMADOR ESCOTO" }, "geometry": { "type": "Point", "coordinates": [ -87.3936111, 14.737 ] } },
{ "type": "Feature", "properties": { "Latitud Origen": 14.754389, "Longitud Origen": -87.180444, "Usuario Origen": "Mariano Díaz Chávez/WENDY PATRICIA AMADOR ESCOTO" }, "geometry": { "type": "Point", "coordinates": [ -87.180444, 14.754389 ] } },
{ "type": "Feature", "properties": { "Latitud Origen": 14.754394, "Longitud Origen": -87.180443, "Usuario Origen": "Mariano Díaz Chávez/WENDY PATRICIA AMADOR ESCOTO" }, "geometry": { "type": "Point", "coordinates": [ -87.180443, 14.754394 ] } },
{ "type": "Feature", "properties": { "Latitud Origen": 14.755139, "Longitud Origen": -87.604667, "Usuario Origen": "Mariano Díaz Chávez/WENDY PATRICIA AMADOR ESCOTO" }, "geometry": { "type": "Point", "coordinates": [ -87.604667, 14.755139 ] } },
{ "type": "Feature", "properties": { "Latitud Origen": 14.80618, "Longitud Origen": -87.33913, "Usuario Origen": "Mariano Díaz Chávez/WENDY PATRICIA AMADOR ESCOTO" }, "geometry": { "type": "Point", "coordinates": [ -87.33913, 14.80618 ] } },
{ "type": "Feature", "properties": { "Latitud Origen": 14.81591667, "Longitud Origen": -87.5124167, "Usuario Origen": "Mariano Díaz Chávez/WENDY PATRICIA AMADOR ESCOTO" }, "geometry": { "type": "Point", "coordinates": [ -87.5124167, 14.81591667 ] } },
{ "type": "Feature", "properties": { "Latitud Origen": 14.89788889, "Longitud Origen": -87.5821944, "Usuario Origen": "Mariano Díaz Chávez/WENDY PATRICIA AMADOR ESCOTO" }, "geometry": { "type": "Point", "coordinates": [ -87.5821944, 14.89788889 ] } },
{ "type": "Feature", "properties": { "Latitud Origen": 14.92413889, "Longitud Origen": -87.3650833, "Usuario Origen": "Mariano Díaz Chávez/WENDY PATRICIA AMADOR ESCOTO" }, "geometry": { "type": "Point", "coordinates": [ -87.3650833, 14.92413889 ] } },
{ "type": "Feature", "properties": { "Latitud Origen": 14.99789, "Longitud Origen": -87.4386, "Usuario Origen": "Mariano Díaz Chávez/WENDY PATRICIA AMADOR ESCOTO" }, "geometry": { "type": "Point", "coordinates": [ -87.4386, 14.99789 ] } },
{ "type": "Feature", "properties": { "Latitud Origen": 15.47405556, "Longitud Origen": -86.3113056, "Usuario Origen": "Mariano Díaz Chávez/WENDY PATRICIA AMADOR ESCOTO" }, "geometry": { "type": "Point", "coordinates": [ -86.3113056, 15.47405556 ] } },
{ "type": "Feature", "properties": { "Latitud Origen": 15.519227, "Longitud Origen": -86.228944, "Usuario Origen": "Mariano Díaz Chávez/WENDY PATRICIA AMADOR ESCOTO" }, "geometry": { "type": "Point", "coordinates": [ -86.228944, 15.519227 ] } },
{ "type": "Feature", "properties": { "Latitud Origen": 15.570725, "Longitud Origen": -86.3248333, "Usuario Origen": "Mariano Díaz Chávez/WENDY PATRICIA AMADOR ESCOTO" }, "geometry": { "type": "Point", "coordinates": [ -86.3248333, 15.570725 ] } },
{ "type": "Feature", "properties": { "Latitud Origen": 15.621395, "Longitud Origen": -87.090278, "Usuario Origen": "Mariano Díaz Chávez/WENDY PATRICIA AMADOR ESCOTO" }, "geometry": { "type": "Point", "coordinates": [ -87.090278, 15.621395 ] } },
{ "type": "Feature", "properties": { "Latitud Origen": 15.66689167, "Longitud Origen": -86.4805861, "Usuario Origen": "Mariano Díaz Chávez/WENDY PATRICIA AMADOR ESCOTO" }, "geometry": { "type": "Point", "coordinates": [ -86.4805861, 15.66689167 ] } },
{ "type": "Feature", "properties": { "Latitud Origen": 15.68886, "Longitud Origen": -86.50499, "Usuario Origen": "Mariano Díaz Chávez/WENDY PATRICIA AMADOR ESCOTO" }, "geometry": { "type": "Point", "coordinates": [ -86.50499, 15.68886 ] } },
{ "type": "Feature", "properties": { "Latitud Origen": 15.711243, "Longitud Origen": -86.914582, "Usuario Origen": "Mariano Díaz Chávez/WENDY PATRICIA AMADOR ESCOTO" }, "geometry": { "type": "Point", "coordinates": [ -86.914582, 15.711243 ] } },
{ "type": "Feature", "properties": { "Latitud Origen": 15.71125, "Longitud Origen": -86.914583, "Usuario Origen": "Mariano Díaz Chávez/WENDY PATRICIA AMADOR ESCOTO" }, "geometry": { "type": "Point", "coordinates": [ -86.914583, 15.71125 ] } },
{ "type": "Feature", "properties": { "Latitud Origen": 15.749988, "Longitud Origen": -86.843023, "Usuario Origen": "Mariano Díaz Chávez/WENDY PATRICIA AMADOR ESCOTO" }, "geometry": { "type": "Point", "coordinates": [ -86.843023, 15.749988 ] } },
{ "type": "Feature", "properties": { "Latitud Origen": 15.760855, "Longitud Origen": -86.809771, "Usuario Origen": "Mariano Díaz Chávez/WENDY PATRICIA AMADOR ESCOTO" }, "geometry": { "type": "Point", "coordinates": [ -86.809771, 15.760855 ] } },
{ "type": "Feature", "properties": { "Latitud Origen": 15.76717, "Longitud Origen": -86.76979, "Usuario Origen": "Mariano Díaz Chávez/WENDY PATRICIA AMADOR ESCOTO" }, "geometry": { "type": "Point", "coordinates": [ -86.76979, 15.76717 ] } },
{ "type": "Feature", "properties": { "Latitud Origen": 15.767172, "Longitud Origen": -86.769789, "Usuario Origen": "Mariano Díaz Chávez/WENDY PATRICIA AMADOR ESCOTO" }, "geometry": { "type": "Point", "coordinates": [ -86.769789, 15.767172 ] } },
{ "type": "Feature", "properties": { "Latitud Origen": 15.768899, "Longitud Origen": -86.7973, "Usuario Origen": "Mariano Díaz Chávez/WENDY PATRICIA AMADOR ESCOTO" }, "geometry": { "type": "Point", "coordinates": [ -86.7973, 15.768899 ] } },
{ "type": "Feature", "properties": { "Latitud Origen": 15.769816, "Longitud Origen": -86.789865, "Usuario Origen": "Mariano Díaz Chávez/WENDY PATRICIA AMADOR ESCOTO" }, "geometry": { "type": "Point", "coordinates": [ -86.789865, 15.769816 ] } },
{ "type": "Feature", "properties": { "Latitud Origen": 15.771551, "Longitud Origen": -86.79142, "Usuario Origen": "Mariano Díaz Chávez/WENDY PATRICIA AMADOR ESCOTO" }, "geometry": { "type": "Point", "coordinates": [ -86.79142, 15.771551 ] } },
{ "type": "Feature", "properties": { "Latitud Origen": 15.776244, "Longitud Origen": -87.469383, "Usuario Origen": "Mariano Díaz Chávez/WENDY PATRICIA AMADOR ESCOTO" }, "geometry": { "type": "Point", "coordinates": [ -87.469383, 15.776244 ] } }
]
}
