{
"type": "FeatureCollection",
"name": "predios_Presa Agua Zarca _2011",
"crs": { "type": "name", "properties": { "name": "urn:ogc:def:crs:EPSG::32616" } },
"features": [
{ "type": "Feature", "properties": { "id": 1, "Prop_orig": "Ricardo Pineda", "Comunidad": "El Barreal", "Infr_asoci": "Casa de Máquinas", "Area (m2)": 22332.7 }, "geometry": { "type": "MultiPolygon", "coordinates": [ [ [ [ 373453.043242608662695, 1624514.506760426564142 ], [ 373448.299783934140578, 1624546.220169850625098 ], [ 373446.808982636430301, 1624552.183375041233376 ], [ 373446.808982636430301, 1624558.011052841320634 ], [ 373444.776071775937453, 1624560.450545873958617 ], [ 373444.369489603792317, 1624567.904552362393588 ], [ 373428.377257501182612, 1624580.508599697612226 ], [ 373425.260127515066415, 1624581.186236651148647 ], [ 373422.549579701153561, 1624583.49020229279995 ], [ 373407.23498455202207, 1624609.375933916540816 ], [ 373378.774232504831161, 1624669.143513215240091 ], [ 373387.312458118947688, 1624674.971191015327349 ], [ 373389.616423760890029, 1624676.597519703675061 ], [ 373393.817772872571368, 1624677.275156657211483 ], [ 373395.986211123759858, 1624677.275156657211483 ], [ 373398.019121984252706, 1624678.088321001501754 ], [ 373400.052032844803762, 1624680.392286643385887 ], [ 373402.08494370529661, 1624682.42519750399515 ], [ 373402.220471095992252, 1624684.458108364371583 ], [ 373404.117854565789457, 1624686.491019224980846 ], [ 373405.744183254195377, 1624689.60814921092242 ], [ 373409.538950193789788, 1624693.131861369125545 ], [ 373414.282408868311904, 1624698.552956997184083 ], [ 373418.890340152080171, 1624704.787216969300061 ], [ 373426.344346640631557, 1624712.376750848488882 ], [ 373427.564093156950548, 1624712.512278239242733 ], [ 373429.461476626747753, 1624714.680716490373015 ], [ 373435.018099645443726, 1624718.475483430083841 ], [ 373439.6260309292702, 1624721.592613416258246 ], [ 373443.556325259560253, 1624725.658435137243941 ], [ 373444.776071775879245, 1624726.471599481301382 ], [ 373451.552441310836002, 1624733.112441625678912 ], [ 373454.127461734169628, 1624733.925605969969183 ], [ 373461.581468222662807, 1624741.108557676896453 ], [ 373464.834125599474646, 1624737.449318128172308 ], [ 373465.105180380865932, 1624736.365099002607167 ], [ 373466.460454287880566, 1624733.925605969969183 ], [ 373468.899947320460342, 1624730.672948593040928 ], [ 373471.881549915880896, 1624726.336072090780362 ], [ 373475.947371636866592, 1624720.643921681214124 ], [ 373478.657919450895861, 1624717.66231908579357 ], [ 373479.064501622982789, 1624712.512278239242733 ], [ 373480.148720748606138, 1624710.75042216014117 ], [ 373481.639522046316415, 1624706.955655220430344 ], [ 373485.027706813823897, 1624704.10958001576364 ], [ 373487.738254627794959, 1624703.2964156717062 ], [ 373489.771165488287807, 1624702.483251327415928 ], [ 373492.888295474404003, 1624701.127977420343086 ], [ 373496.818589804694057, 1624698.688484387937933 ], [ 373500.071247181505896, 1624697.333210480865091 ], [ 373500.88441152573796, 1624694.080553103936836 ], [ 373502.781794995535165, 1624691.776587462052703 ], [ 373504.001541511795949, 1624687.304183569038287 ], [ 373504.814705856028013, 1624683.915998801356182 ], [ 373505.898924981651362, 1624680.934396205935627 ], [ 373506.847616716520861, 1624677.410684047732502 ], [ 373507.660781060752925, 1624673.886971889529377 ], [ 373508.880527577013709, 1624669.14351321500726 ], [ 373510.371328874723986, 1624665.755328447557986 ], [ 373512.404239735216834, 1624662.773725852137432 ], [ 373515.114787549246103, 1624658.978958912659436 ], [ 373517.283225800434593, 1624658.978958912659436 ], [ 373522.433266647043638, 1624658.436849349644035 ], [ 373524.737232288927771, 1624658.165794568369165 ], [ 373527.041197930870112, 1624658.165794568369165 ], [ 373528.938581400667317, 1624658.301321959123015 ], [ 373529.887273135536816, 1624658.978958912659436 ], [ 373532.3267661681748, 1624659.656595865963027 ], [ 373534.49520441936329, 1624660.198705428745598 ], [ 373536.663642670551781, 1624661.68950672657229 ], [ 373539.645245265972335, 1624661.82503411732614 ], [ 373541.271573954378255, 1624661.68950672657229 ], [ 373542.491320470639039, 1624661.418451945064589 ], [ 373545.201868284668308, 1624661.418451945064589 ], [ 373548.725580442871433, 1624659.250013694167137 ], [ 373550.351909131277353, 1624657.488157615065575 ], [ 373551.707183038291987, 1624654.642082410398871 ], [ 373553.062456945248414, 1624650.847315470688045 ], [ 373554.282203461567406, 1624647.73018548451364 ], [ 373556.721696494205389, 1624645.697274624137208 ], [ 373558.212497791857459, 1624644.206473326310515 ], [ 373559.703299089567736, 1624642.173562465934083 ], [ 373560.651990824495442, 1624639.463014651788399 ], [ 373562.549374294292647, 1624637.023521619383246 ], [ 373564.446757764089853, 1624634.448501195991412 ], [ 373566.073086452495772, 1624632.8221725076437 ], [ 373567.021778187365271, 1624630.789261647034436 ], [ 373569.054689047916327, 1624627.943186442367733 ], [ 373570.138908173481468, 1624624.419474284164608 ], [ 373570.545490345568396, 1624620.489179953932762 ], [ 373570.545490345568396, 1624612.899646074743941 ], [ 373570.952072517655324, 1624609.104879135033116 ], [ 373572.578401206061244, 1624607.478550446685404 ], [ 373572.442873815365601, 1624605.987749148858711 ], [ 373566.886250796669628, 1624600.837708302307874 ], [ 373562.684901684930082, 1624595.823194846510887 ], [ 373560.109881261654664, 1624591.486318344017491 ], [ 373556.721696494147182, 1624586.065222715958953 ], [ 373553.46903911739355, 1624581.592818822944537 ], [ 373550.21638174058171, 1624575.765141022857279 ], [ 373545.472923066059593, 1624568.040079752914608 ], [ 373541.407101345073897, 1624562.75451151560992 ], [ 373537.883389186870772, 1624558.146580231841654 ], [ 373536.663642670551781, 1624554.893922854913399 ], [ 373533.953094856580719, 1624551.641265478217974 ], [ 373528.803054009971675, 1624544.864895943319425 ], [ 373524.330650116899051, 1624540.799074222333729 ], [ 373520.129301005159505, 1624536.191142938565463 ], [ 373515.521369721391238, 1624532.938485561637208 ], [ 373513.352931470202748, 1624531.176629482535645 ], [ 373511.18449321895605, 1624528.330554277868941 ], [ 373509.55816453055013, 1624525.348951682448387 ], [ 373508.338418014289346, 1624521.689712133491412 ], [ 373506.576561935187783, 1624519.385746491607279 ], [ 373506.305507153796498, 1624515.455452161375433 ], [ 373506.847616716579068, 1624512.202794784447178 ], [ 373507.796308451506775, 1624493.093432695837691 ], [ 373453.043242608662695, 1624514.506760426564142 ] ] ] ] } },
{ "type": "Feature", "properties": { "id": 9, "Prop_orig": "José Santos Vasquez", "Comunidad": "La Tejera", "Infr_asoci": "Tubería forzada", "Area (m2)": 20364.12 }, "geometry": { "type": "MultiPolygon", "coordinates": [ [ [ [ 373372.675499923701864, 1624353.364692884264514 ], [ 373453.043242608662695, 1624514.506760426564142 ], [ 373507.796308451506775, 1624493.093432695837691 ], [ 373540.729464391770307, 1624479.134111454244703 ], [ 373536.663642670726404, 1624465.310317602939904 ], [ 373529.616218354320154, 1624441.186442058300599 ], [ 373516.063479284348432, 1624395.920293564209715 ], [ 373500.071247181738727, 1624370.170089331222698 ], [ 373488.41589158156421, 1624346.046213786583394 ], [ 373482.723741172114387, 1624340.896172940032557 ], [ 373474.863152511534281, 1624331.951365153770894 ], [ 373470.797330790548585, 1624327.614488651277497 ], [ 373469.442056883533951, 1624324.090776493074372 ], [ 373445.944995522557292, 1624282.475397089263424 ], [ 373376.741321644687559, 1624350.38309028884396 ], [ 373372.675499923701864, 1624353.364692884264514 ] ] ] ] } },
{ "type": "Feature", "properties": { "id": 2, "Prop_orig": "Irene Gonzalez", "Comunidad": "El Barreal", "Infr_asoci": "Tubería forzada", "Area (m2)": 6848.07 }, "geometry": { "type": "MultiPolygon", "coordinates": [ [ [ [ 373516.063479284348432, 1624395.920293564209715 ], [ 373517.706748896627687, 1624397.029924074187875 ], [ 373531.93712492013583, 1624400.89245470915921 ], [ 373537.425984245026484, 1624396.521696362644434 ], [ 373544.947754428896587, 1624389.660622208379209 ], [ 373551.605537497031037, 1624383.25695299776271 ], [ 373559.737180937547237, 1624374.871195695130154 ], [ 373568.173761008598376, 1624368.772463113768026 ], [ 373572.646164903184399, 1624366.104267612798139 ], [ 373577.11856879631523, 1624364.757464167661965 ], [ 373582.658250891196076, 1624363.893477051984519 ], [ 373581.489327144925483, 1624362.673730532173067 ], [ 373576.508695538155735, 1624357.794744470156729 ], [ 373572.646164901729207, 1624355.050314805237576 ], [ 373568.98692535283044, 1624353.525631659897044 ], [ 373558.009206706134137, 1624348.748291137628257 ], [ 373553.435157269996125, 1624346.817025820259005 ], [ 373551.071898396185134, 1624345.419399606762454 ], [ 373548.657816747727338, 1624342.751204099273309 ], [ 373548.047943489567842, 1624339.091964550316334 ], [ 373542.762375252263155, 1624328.215891446685418 ], [ 373539.713008961582091, 1624322.015513322083279 ], [ 373538.391616902255919, 1624315.40855302545242 ], [ 373536.765288213849999, 1624308.090073927538469 ], [ 373535.240605068509467, 1624301.17817700188607 ], [ 373532.699466492864303, 1624296.197545393602923 ], [ 373529.955036831204779, 1624292.131723672617227 ], [ 373526.295797282189596, 1624286.947800978785381 ], [ 373522.839848819305189, 1624280.849068397190422 ], [ 373519.180609270406421, 1624281.357296112226322 ], [ 373514.911496463348158, 1624280.645777311176062 ], [ 373507.186435193463694, 1624280.340840682154521 ], [ 373499.867956095666159, 1624282.170460456516594 ], [ 373497.631754149100743, 1624283.593498058849946 ], [ 373495.802134374622256, 1624286.33792772050947 ], [ 373493.2609957990353, 1624288.167547494871542 ], [ 373490.10998396523064, 1624288.675775210140273 ], [ 373487.568845389643684, 1624291.115268242778257 ], [ 373485.230997900012881, 1624295.079444420756772 ], [ 373483.274321198521648, 1624296.350013712188229 ], [ 373480.834828165941872, 1624295.76555183972232 ], [ 373477.505936630186625, 1624293.55476127541624 ], [ 373474.558215882454533, 1624293.55476127541624 ], [ 373469.984166446316522, 1624297.823874082649127 ], [ 373465.918344725330826, 1624300.771594830323011 ], [ 373457.583410197228659, 1624303.617670034989715 ], [ 373469.442056883533951, 1624324.090776493074372 ], [ 373470.797330790548585, 1624327.614488651277497 ], [ 373482.723741172114387, 1624340.896172940032557 ], [ 373488.41589158156421, 1624346.046213786583394 ], [ 373500.071247181738727, 1624370.170089331222698 ], [ 373516.063479284348432, 1624395.920293564209715 ] ] ] ] } },
{ "type": "Feature", "properties": { "id": 3, "Prop_orig": "Juan Madrid", "Comunidad": "El Barreal", "Infr_asoci": "Casa de Máquinas", "Area (m2)": 22332.7 }, "geometry": { "type": "MultiPolygon", "coordinates": [ [ [ [ 373497.631754149100743, 1624283.593498058849946 ], [ 373499.867956095666159, 1624282.170460456516594 ], [ 373507.186435193463694, 1624280.340840682154521 ], [ 373514.911496463348158, 1624280.645777311176062 ], [ 373519.180609270406421, 1624281.357296112226322 ], [ 373522.839848819305189, 1624280.849068397190422 ], [ 373533.334751138405409, 1624280.264606529613957 ], [ 373539.63677480595652, 1624278.99403724190779 ], [ 373544.922343043203, 1624276.961126381298527 ], [ 373544.210824242036324, 1624274.013405633624643 ], [ 373543.804242069949396, 1624266.389989906689152 ], [ 373543.09272326878272, 1624257.5468276636675 ], [ 373542.076267838536296, 1624247.992146619595587 ], [ 373540.856521322217304, 1624239.453921005362645 ], [ 373540.653230236144736, 1624233.253542880993336 ], [ 373539.433483719883952, 1624218.413293599383906 ], [ 373536.689054058108013, 1624191.782161326613277 ], [ 373535.164370912825689, 1624177.958367475308478 ], [ 373536.384117429086473, 1624176.230393243953586 ], [ 373540.449939150130376, 1624170.843179463641718 ], [ 373547.463481618848164, 1624162.711536021437496 ], [ 373550.207911280507687, 1624159.052296472713351 ], [ 373554.375378544442356, 1624154.376601492986083 ], [ 373553.155632028123364, 1624152.445336175384 ], [ 373547.565127161738928, 1624151.022298573050648 ], [ 373535.062725369643886, 1624147.159767938079312 ], [ 373529.065638331172522, 1624145.635084792971611 ], [ 373524.999816610186826, 1624144.92356599168852 ], [ 373521.238931518222671, 1624140.552807641681284 ], [ 373516.359945453004912, 1624132.522809742717072 ], [ 373513.107288076309487, 1624127.135595962172374 ], [ 373505.077290177345276, 1624115.243067428236827 ], [ 373499.588430853968021, 1624106.399905185215175 ], [ 373495.319318046909757, 1624098.573198372265324 ], [ 373491.151850782916881, 1624095.218895452329889 ], [ 373487.492611233959906, 1624094.913958823308349 ], [ 373478.547803447756451, 1624106.908132900251076 ], [ 373476.108310415118467, 1624110.770663535222411 ], [ 373472.855653038364835, 1624119.512180235469714 ], [ 373469.196413489466067, 1624129.066861279774457 ], [ 373469.196413489466067, 1624130.89648105413653 ], [ 373466.960211542900652, 1624133.335974086774513 ], [ 373455.779201810131781, 1624149.395969884702936 ], [ 373449.273887056508102, 1624154.478247035993263 ], [ 373441.548825786623638, 1624161.796726133907214 ], [ 373437.483004065637942, 1624164.846092424588278 ], [ 373432.502372457529418, 1624170.843179462710395 ], [ 373428.334905193478335, 1624176.535329872043803 ], [ 373426.708576505072415, 1624180.39786050724797 ], [ 373422.236172611941583, 1624189.545959379523993 ], [ 373418.678578606108204, 1624196.356210762402043 ], [ 373415.730857858376112, 1624203.064816602040082 ], [ 373410.241998534998856, 1624214.449117420706898 ], [ 373407.700859959353693, 1624220.446204459294677 ], [ 373406.786050072114449, 1624222.555349476868287 ], [ 373405.871240184875205, 1624223.825918764574453 ], [ 373405.922062956378795, 1624224.613671723054722 ], [ 373406.836872843618039, 1624225.376013295724988 ], [ 373413.952060855401214, 1624228.831961758434772 ], [ 373424.624842873017769, 1624233.81259336671792 ], [ 373434.07787837437354, 1624238.488288345979527 ], [ 373445.055597021069843, 1624243.672211040277034 ], [ 373446.783571252482943, 1624243.672211040277034 ], [ 373448.409899940888863, 1624244.383729841327295 ], [ 373452.374076118867379, 1624247.128159502986819 ], [ 373455.525087952672038, 1624249.211893134983256 ], [ 373461.013947276049294, 1624253.481005941750482 ], [ 373470.924387720995583, 1624262.629104814026505 ], [ 373475.701728243147954, 1624267.508090879069641 ], [ 373479.76754996413365, 1624272.183785858564079 ], [ 373484.748181572416797, 1624276.656189751578495 ], [ 373489.779635952145327, 1624280.620365929557011 ], [ 373494.04874875920359, 1624282.958213419187814 ], [ 373497.631754149100743, 1624283.593498058849946 ] ] ] ] } },
{ "type": "Feature", "properties": { "id": 4, "Prop_orig": "Aquilino Madrid", "Comunidad": "El Barreal", "Infr_asoci": "Tanque de Oscilación", "Area (m2)": 7947.98 }, "geometry": { "type": "MultiPolygon", "coordinates": [ [ [ [ 373553.155632028123364, 1624152.445336175384 ], [ 373552.482230305904523, 1624139.180592811433598 ], [ 373548.924636300012935, 1624136.537808692781255 ], [ 373548.314763041853439, 1624134.911480004433542 ], [ 373546.383497724425979, 1624084.190354035934433 ], [ 373545.163751208106987, 1624044.345301169902086 ], [ 373544.757169036020059, 1624032.961000351235271 ], [ 373544.147295777860563, 1624026.252394511597231 ], [ 373545.163751208106987, 1624013.648347176378593 ], [ 373546.180206638353411, 1623996.978478120174259 ], [ 373546.790079896512907, 1623984.577721871202812 ], [ 373546.993370982527267, 1623979.698735805926844 ], [ 373494.747561867639888, 1623978.682280375855044 ], [ 373494.747561867639888, 1623995.962022690102458 ], [ 373495.154144039726816, 1624012.835182832088321 ], [ 373494.747561867639888, 1624021.983281704364344 ], [ 373493.934397523466032, 1624034.993911211611703 ], [ 373494.137688609480392, 1624041.499225965235382 ], [ 373493.121233179233968, 1624053.493400042178109 ], [ 373492.104777748987544, 1624057.559221762930974 ], [ 373491.698195576900616, 1624066.504029549192637 ], [ 373490.681740146654192, 1624073.415926474845037 ], [ 373490.681740146654192, 1624075.4488373354543 ], [ 373487.683196627418511, 1624091.915415305644274 ], [ 373487.174968912266195, 1624094.901253132149577 ], [ 373491.151850782916881, 1624095.218895452329889 ], [ 373495.319318046909757, 1624098.573198372265324 ], [ 373499.588430853968021, 1624106.399905185215175 ], [ 373505.077290177345276, 1624115.243067428236827 ], [ 373513.107288076309487, 1624127.135595962172374 ], [ 373521.238931518222671, 1624140.552807641681284 ], [ 373524.999816610186826, 1624144.92356599168852 ], [ 373535.062725369643886, 1624147.159767938079312 ], [ 373547.565127161738928, 1624151.022298573050648 ], [ 373553.155632028123364, 1624152.445336175384 ] ] ] ] } },
{ "type": "Feature", "properties": { "id": 7, "Prop_orig": "Virgilio Pineda", "Comunidad": "El Barreal", "Infr_asoci": "Campamento", "Area (m2)": 34700.0 }, "geometry": { "type": "MultiPolygon", "coordinates": [ [ [ [ 373588.070876057376154, 1622206.136478333268315 ], [ 373633.557256561121903, 1622180.521801491267979 ], [ 373671.166107480356004, 1622159.582819628063589 ], [ 373687.226103278342634, 1622150.231429669773206 ], [ 373694.34129129012581, 1622146.775481206830591 ], [ 373700.033441699517425, 1622146.572190120816231 ], [ 373709.994704915967304, 1622142.506368399830535 ], [ 373713.349007835786324, 1622130.918776494683698 ], [ 373715.788500868424308, 1622121.770677622407675 ], [ 373718.227993901004083, 1622117.501564815407619 ], [ 373717.821411728917155, 1622106.727137254783884 ], [ 373718.227993901004083, 1622103.67777096410282 ], [ 373723.513562138308771, 1622093.106634489493445 ], [ 373725.343181912787259, 1622087.617775166174397 ], [ 373723.106979966221843, 1622080.502587154041976 ], [ 373724.123435396468267, 1622076.64005651907064 ], [ 373717.618120642844588, 1622052.041835106909275 ], [ 373708.266730684554204, 1622057.733985516242683 ], [ 373692.81660814472707, 1622070.134741765446961 ], [ 373690.377115112147294, 1622072.777525884099305 ], [ 373688.344204251654446, 1622071.151197195518762 ], [ 373652.361682020768058, 1621980.686663903528824 ], [ 373649.515606816043146, 1621974.181349149905145 ], [ 373642.400418804259971, 1621981.296537161571905 ], [ 373625.527258662099484, 1621981.703119333600625 ], [ 373612.923211326997261, 1621989.428180603543296 ], [ 373600.725746163981967, 1621995.120331013109535 ], [ 373603.36853028263431, 1621998.576279475819319 ], [ 373607.231060917605646, 1622004.675012057414278 ], [ 373590.56119186145952, 1622007.317796175833791 ], [ 373584.665750366053544, 1622008.537542692152783 ], [ 373572.468285203038249, 1622013.41652875742875 ], [ 373562.913604158675298, 1622018.498805908719078 ], [ 373554.172087458486203, 1622026.020576092414558 ], [ 373540.754875779210124, 1622027.850195867009461 ], [ 373537.502218402398285, 1622027.443613694980741 ], [ 373531.403485820919741, 1622033.135764104314148 ], [ 373512.903996990353335, 1622037.811459083575755 ], [ 373516.156654367106967, 1622058.953732032794505 ], [ 373517.376400883425958, 1622068.914995249127969 ], [ 373515.953363281034399, 1622078.063094121171162 ], [ 373513.107288076367695, 1622088.837521681794897 ], [ 373503.146024859917816, 1622101.238277930766344 ], [ 373497.65716553654056, 1622107.743592684390023 ], [ 373492.778179471322801, 1622111.60612331959419 ], [ 373487.289320147945546, 1622116.281818298855796 ], [ 373481.59716973855393, 1622123.397006310522556 ], [ 373478.141221275669523, 1622126.24308151518926 ], [ 373474.075399554683827, 1622134.984598215436563 ], [ 373471.839197608118411, 1622143.319532743422315 ], [ 373469.806286747567356, 1622152.061049443436787 ], [ 373466.350338284741156, 1622161.41243940172717 ], [ 373464.317427424248308, 1622166.698007639031857 ], [ 373461.471352219523396, 1622179.302054974250495 ], [ 373460.8614789613639, 1622183.571167781250551 ], [ 373458.828568100871053, 1622189.060027104569599 ], [ 373457.812112670624629, 1622192.515975567512214 ], [ 373457.812112670624629, 1622196.58179728849791 ], [ 373457.405530498537701, 1622202.070656611816958 ], [ 373458.625277014856692, 1622205.323313988745213 ], [ 373459.438441359030548, 1622206.543060504831374 ], [ 373464.876477910787798, 1622205.831541703781113 ], [ 373472.449070866161492, 1622199.529518036171794 ], [ 373477.073943073803093, 1622193.786544855218381 ], [ 373483.680903370433953, 1622187.281230101594701 ], [ 373490.18621812411584, 1622183.621990552870557 ], [ 373498.267038794583641, 1622180.216864861547947 ], [ 373500.299949655134697, 1622180.470978718949482 ], [ 373502.739442687714472, 1622181.894016321282834 ], [ 373506.652796094189398, 1622183.571167781250551 ], [ 373509.448048527352512, 1622183.113762837601826 ], [ 373519.307666200795211, 1622177.319966885726899 ], [ 373522.45867803459987, 1622173.152499621734023 ], [ 373524.593234438099898, 1622169.696551158791408 ], [ 373528.862347245158162, 1622166.240602696081623 ], [ 373536.384117429028265, 1622161.869844345841557 ], [ 373537.298927316209301, 1622161.564907716820017 ], [ 373588.070876057376154, 1622206.136478333268315 ] ] ] ] } },
{ "type": "Feature", "properties": { "id": 14, "Prop_orig": "Benigno Domínguez", "Comunidad": "La Tejera", "Infr_asoci": "Embalse lado derecho", "Area (m2)": 4281.19 }, "geometry": { "type": "MultiPolygon", "coordinates": [ [ [ [ 372050.732860574382357, 1621591.333411346422508 ], [ 372051.647670461679809, 1621593.569613293046132 ], [ 372052.867416977940593, 1621595.195941981626675 ], [ 372057.136529784998856, 1621599.05847261659801 ], [ 372062.727034651383292, 1621605.258850740967318 ], [ 372068.317539517767727, 1621611.052646693540737 ], [ 372068.215893974760547, 1621612.374038752866909 ], [ 372069.537286034086719, 1621615.016822871519253 ], [ 372073.806398841144983, 1621619.794163393555209 ], [ 372075.127790900412947, 1621620.60732773784548 ], [ 372081.633105654036626, 1621629.755426610121503 ], [ 372159.087009439128451, 1621626.502769233193249 ], [ 372127.373600015300326, 1621583.811641162727028 ], [ 372109.280693356879056, 1621559.213419750565663 ], [ 372050.732860574382357, 1621591.333411346422508 ] ] ] ] } },
{ "type": "Feature", "properties": { "id": 13, "Prop_orig": "Santos Dominguez", "Comunidad": "La Tejera", "Infr_asoci": "Embalse lado derecho", "Area (m2)": 28694.92 }, "geometry": { "type": "MultiPolygon", "coordinates": [ [ [ [ 372081.633105654036626, 1621629.755426610121503 ], [ 372085.851395689707715, 1621637.480487880762666 ], [ 372089.561458010110073, 1621643.477574919117615 ], [ 372097.235696508490946, 1621655.725862853694707 ], [ 372102.724555831809994, 1621666.144531013909727 ], [ 372104.859112235426437, 1621670.871048764558509 ], [ 372108.111769612238277, 1621678.240350633859634 ], [ 372113.346515078039374, 1621689.42136036651209 ], [ 372118.276323914760724, 1621700.195787927135825 ], [ 372118.428792229271494, 1621701.364711672067642 ], [ 372138.910369148710743, 1621740.091663564788178 ], [ 372151.311125397798605, 1621764.588239433942363 ], [ 372155.376947118784301, 1621779.225197629537433 ], [ 372159.849351011915132, 1621794.878611255437136 ], [ 372167.371121195785236, 1621823.542654388584197 ], [ 372167.167830109712668, 1621826.592020679265261 ], [ 372171.843525088916067, 1621864.404162684688345 ], [ 372172.250107261002995, 1621870.502895266050473 ], [ 372169.404032056336291, 1621896.32086319453083 ], [ 372165.948083593451884, 1621909.941365959821269 ], [ 372159.849351011915132, 1621932.709967597387731 ], [ 372137.28404046036303, 1621948.973254481330514 ], [ 372141.553153267421294, 1621950.396292083896697 ], [ 372170.115550857386552, 1621949.989709911402315 ], [ 372172.961626062053256, 1621957.968885038746521 ], [ 372208.893325521436054, 1621972.605843234574422 ], [ 372210.824590838921722, 1621979.416094617219642 ], [ 372224.750030233408324, 1621958.680403840262443 ], [ 372270.083942422585096, 1621832.030057230498642 ], [ 372260.122679206135217, 1621810.277911023236811 ], [ 372250.974580333859194, 1621791.168548934394494 ], [ 372241.216608203481883, 1621770.229567071190104 ], [ 372232.271800417278428, 1621750.713622810319066 ], [ 372225.563194577582181, 1621737.296411131042987 ], [ 372219.667753082117997, 1621724.489072709809989 ], [ 372203.607757284189574, 1621696.43490283517167 ], [ 372182.872066507057752, 1621660.655671690357849 ], [ 372174.943714151100721, 1621649.068079785211012 ], [ 372159.087009439128451, 1621626.502769233193249 ], [ 372081.633105654036626, 1621629.755426610121503 ] ] ] ] } },
{ "type": "Feature", "properties": { "id": 12, "Prop_orig": "Benigno Dominguez", "Comunidad": "La Tejera", "Infr_asoci": "Sitio de Presa lado derecho", "Area (m2)": 24262.56 }, "geometry": { "type": "MultiPolygon", "coordinates": [ [ [ [ 372265.865652387379669, 1622295.482910654740408 ], [ 372322.482219852332491, 1622259.297097337432206 ], [ 372315.417854612169322, 1622246.388113373424858 ], [ 372314.248930867412128, 1622244.558493598597124 ], [ 372312.063551692350302, 1622242.678051052615047 ], [ 372310.894627947593108, 1622241.864886708557606 ], [ 372310.894627947593108, 1622241.051722364267334 ], [ 372304.846718137559947, 1622235.308749183313921 ], [ 372298.036466754914727, 1622228.905079972930253 ], [ 372288.278494624537416, 1622218.384766269708052 ], [ 372282.5863442151458, 1622212.794261403614655 ], [ 372282.5863442151458, 1622212.133565373951569 ], [ 372285.635710505826864, 1622200.291859611170366 ], [ 372289.854000541381538, 1622181.741548009449616 ], [ 372291.683620315918233, 1622171.983575879596174 ], [ 372295.139568778744433, 1622157.854845399037004 ], [ 372297.579061811324209, 1622148.147696040105075 ], [ 372298.849631099146791, 1622140.575103084789589 ], [ 372298.036466754972935, 1622097.477392842294648 ], [ 372286.753811479196884, 1622091.277014717692509 ], [ 372276.589257176674437, 1622085.889800937380642 ], [ 372274.556346316181589, 1622081.519042587373406 ], [ 372272.218498826550785, 1622076.589233750710264 ], [ 372268.457613734644838, 1622069.321577424416319 ], [ 372266.42470287415199, 1622064.849173531169072 ], [ 372263.07039995433297, 1622058.902909264201298 ], [ 372259.258692090865225, 1622049.958101478172466 ], [ 372257.327426773437764, 1622047.213671816512942 ], [ 372256.565085200709291, 1622044.977469869889319 ], [ 372250.517175390734337, 1622033.948928451631218 ], [ 372249.754833818005864, 1622030.645448303315789 ], [ 372243.656101236469112, 1622020.430071229347959 ], [ 372241.165785432385746, 1622014.534629734000191 ], [ 372240.657557717233431, 1622013.264060446061194 ], [ 372238.421355770726223, 1622010.82456741342321 ], [ 372225.76648566412041, 1622001.676468541147187 ], [ 372218.854588738409802, 1621996.746659704484046 ], [ 372213.772311587177683, 1621992.934951841132715 ], [ 372210.824590838921722, 1621979.416094617219642 ], [ 372208.893325521436054, 1621972.605843234574422 ], [ 372172.961626062053256, 1621957.968885038746521 ], [ 372170.115550857386552, 1621949.989709911402315 ], [ 372141.553153267421294, 1621950.396292083896697 ], [ 372109.89056661556242, 1621950.904519800562412 ], [ 372108.874111185315996, 1621952.225911859888583 ], [ 372107.196959725406487, 1621954.055531634483486 ], [ 372105.214871636417229, 1621956.69831575313583 ], [ 372105.164048864913639, 1621958.477112755877897 ], [ 372108.11176961264573, 1621966.608756198082119 ], [ 372109.179047814453952, 1621970.471286833053455 ], [ 372111.821831933106296, 1621978.552107503404841 ], [ 372114.362970508751459, 1621986.073877687333152 ], [ 372123.053664437378757, 1621992.731660755351186 ], [ 372160.205110412964132, 1622024.597538494272158 ], [ 372162.034730187442619, 1622027.697727556107566 ], [ 372163.000362846127246, 1622033.44070073729381 ], [ 372167.879348911345005, 1622037.709813544293866 ], [ 372174.740423065552022, 1622043.351141182240099 ], [ 372181.70314276276622, 1622049.144937134347856 ], [ 372187.090356543078087, 1622053.820632113376632 ], [ 372187.725641186989378, 1622053.871454885229468 ], [ 372189.097856017877348, 1622056.59047316107899 ], [ 372191.359469350194559, 1622061.596516154939309 ], [ 372192.655450023768935, 1622063.781895329942927 ], [ 372193.443202982249204, 1622065.331989861093462 ], [ 372193.544848525256384, 1622065.992685890756547 ], [ 372194.510481183999218, 1622067.466546264709905 ], [ 372195.628582157252822, 1622069.143697725143284 ], [ 372196.467157887236681, 1622070.82084918487817 ], [ 372197.788549946562853, 1622072.574234802043065 ], [ 372198.373011818970554, 1622073.41281053214334 ], [ 372199.770638035552111, 1622077.046638695290312 ], [ 372201.320732566644438, 1622080.146827757358551 ], [ 372202.108485525124706, 1622081.442808431107551 ], [ 372203.963516685296781, 1622084.085592549294233 ], [ 372205.107029044360388, 1622085.915212323889136 ], [ 372205.920193388534244, 1622087.338249926222488 ], [ 372207.114528519159649, 1622089.752331572817639 ], [ 372209.122027993900701, 1622093.004988949513063 ], [ 372210.519654210482258, 1622095.724007225595415 ], [ 372211.764812112494837, 1622097.731506700627506 ], [ 372212.450919527909718, 1622099.332424003165215 ], [ 372214.814178403292317, 1622103.245777409523726 ], [ 372216.237216005625669, 1622105.990207071183249 ], [ 372217.761899151024409, 1622108.531345646828413 ], [ 372218.143069937359542, 1622109.217453062301502 ], [ 372218.880000124278013, 1622109.751092163147405 ], [ 372236.058096895460039, 1622115.494065344333649 ], [ 372235.75316026667133, 1622126.827543391380459 ], [ 372234.736704836424906, 1622148.6813351418823 ], [ 372234.025186035200022, 1622163.115002251463011 ], [ 372232.398857346794102, 1622178.260188162326813 ], [ 372230.365946486301254, 1622198.995878939516842 ], [ 372227.621516824699938, 1622224.305619152495638 ], [ 372226.401770308380947, 1622239.044222891330719 ], [ 372226.173067836614791, 1622240.213146636029705 ], [ 372225.969776750542223, 1622241.432893152348697 ], [ 372226.249301993870176, 1622242.703462440287694 ], [ 372265.865652387379669, 1622295.482910654740408 ] ] ] ] } },
{ "type": "Feature", "properties": { "id": 19, "Prop_orig": "Ramon Argueta", "Comunidad": "San Ramon, SFdO", "Infr_asoci": "Embalse lado izquierdo", "Area (m2)": 69880.0 }, "geometry": { "type": "MultiPolygon", "coordinates": [ [ [ [ 372005.271891457436141, 1621598.550244905054569 ], [ 371998.728459625097457, 1621600.595861458219588 ], [ 371954.512648409116082, 1621628.954967963276431 ], [ 371930.727591341361403, 1621656.932903680950403 ], [ 371904.274338769086171, 1621690.857103665126488 ], [ 371934.04377718293108, 1622107.591124376049265 ], [ 371949.138140322116669, 1622095.317425056127831 ], [ 371951.653867512010038, 1622095.317425056127831 ], [ 371978.183354240900371, 1622085.426043148385361 ], [ 372035.740142979018856, 1622061.869688551407307 ], [ 372067.034264538087882, 1622042.601505303056911 ], [ 372091.886599807650782, 1622050.529857658548281 ], [ 372150.663135061913636, 1622071.113080121111125 ], [ 372153.331330566317774, 1622070.808143492089584 ], [ 372149.214686073828489, 1622065.166815854143351 ], [ 372148.642929894209374, 1622061.488517765654251 ], [ 372146.584607647964731, 1622059.201493047643453 ], [ 372140.828928774222732, 1622048.090364626143128 ], [ 372118.809963016596157, 1622041.064116464927793 ], [ 372116.268824440950993, 1622030.899562161881477 ], [ 372113.829331408371218, 1622027.443613698938861 ], [ 372111.389838375733234, 1622025.512348381569609 ], [ 372105.799333509407006, 1622017.482350482605398 ], [ 372101.123638530203607, 1622013.823110933648422 ], [ 372096.752880180138163, 1622012.196782245533541 ], [ 372088.113009023014456, 1622007.622732809511945 ], [ 372086.588325877615716, 1622005.996404121164232 ], [ 372085.571870447369292, 1622003.455265545519069 ], [ 372081.506048726383597, 1621995.221976560307667 ], [ 372077.033644833252765, 1621982.109701510053128 ], [ 372075.610607230919413, 1621980.381727278698236 ], [ 372071.544785509933718, 1621977.738943160045892 ], [ 372062.193395551585127, 1621973.571475895354524 ], [ 372060.567066863179207, 1621971.589387806598097 ], [ 372059.753902518947143, 1621966.30381956929341 ], [ 372059.347320346860215, 1621958.578758299583569 ], [ 372092.788704002159648, 1621888.03675144049339 ], [ 372096.143006921978667, 1621881.22650005784817 ], [ 372099.192373212717939, 1621866.081314146984369 ], [ 372101.530220702290535, 1621854.595367785077542 ], [ 372104.782878079102375, 1621840.161700675496832 ], [ 372107.628953283769079, 1621829.1331592570059 ], [ 372108.594585942511912, 1621824.609932592371479 ], [ 372108.238826541928574, 1621822.678667275235057 ], [ 372096.041361378855072, 1621777.548046172130853 ], [ 372095.939715835847892, 1621775.108553139492869 ], [ 372091.060729770630132, 1621757.727165282238275 ], [ 372088.621236738050357, 1621754.37286236253567 ], [ 372086.791616963571869, 1621751.120204985607415 ], [ 372082.420858613506425, 1621744.005016973940656 ], [ 372071.64643105288269, 1621726.01375585841015 ], [ 372059.245674803853035, 1621704.8714829091914 ], [ 372047.963019527960569, 1621686.168702992610633 ], [ 372043.795552263909485, 1621678.646932808682323 ], [ 372037.391883053351194, 1621668.279087420087308 ], [ 372031.801378186966758, 1621658.317824203753844 ], [ 372031.699732643959578, 1621657.301368773449212 ], [ 372027.328974293894134, 1621650.592762933811173 ], [ 372018.994039765850175, 1621636.260741367237642 ], [ 372011.370624038914684, 1621622.233656429918483 ], [ 372005.373537000443321, 1621604.852268572663888 ], [ 372005.271891457436141, 1621598.550244905054569 ] ] ] ] } },
{ "type": "Feature", "properties": { "id": 20, "Prop_orig": "Prisiliano Argueta", "Comunidad": "San Ramon, SFdO", "Infr_asoci": "Sitio Presa lado izquierdo", "Area (m2)": 34940.0 }, "geometry": { "type": "MultiPolygon", "coordinates": [ [ [ [ 372067.034264538087882, 1622042.601505303056911 ], [ 372035.740142979018856, 1622061.869688551407307 ], [ 371978.183354240900371, 1622085.426043148385361 ], [ 371960.773378574638627, 1622091.920240418752655 ], [ 371960.878200540901162, 1622093.8499175242614 ], [ 371964.918610876076855, 1622104.903870328329504 ], [ 371965.071079190587625, 1622107.038426731713116 ], [ 371938.160421674721874, 1622121.789736163336784 ], [ 372009.210656249255408, 1622241.477363075362518 ], [ 372193.278028974949848, 1622237.970591841265559 ], [ 372191.448409200529568, 1622230.957049372605979 ], [ 372187.484233022551052, 1622227.907683081692085 ], [ 372185.120974147226661, 1622223.25739948824048 ], [ 372184.129930102732033, 1622220.360501512186602 ], [ 372181.461734598327894, 1622214.109300615964457 ], [ 372179.250944037514273, 1622209.306548708118498 ], [ 372179.403412351966836, 1622208.086802192032337 ], [ 372179.403412351966836, 1622203.741455227602273 ], [ 372180.699393025541212, 1622200.615854779724032 ], [ 372178.107431678392459, 1622194.822058827150613 ], [ 372175.972875274834223, 1622190.400477705523372 ], [ 372178.412368307472207, 1622182.319657034939155 ], [ 372177.421324262977578, 1622170.427128501003608 ], [ 372173.228445613232907, 1622157.61979008000344 ], [ 372161.717087865632493, 1622120.341287175193429 ], [ 372156.990570114983711, 1622103.874709205934778 ], [ 372154.017437981499825, 1622093.201927188318223 ], [ 372151.959115735313389, 1622082.986550114350393 ], [ 372153.331330566317774, 1622070.808143492089584 ], [ 372150.663135061913636, 1622071.113080121111125 ], [ 372067.034264538087882, 1622042.601505303056911 ] ] ] ] } },
{ "type": "Feature", "properties": { "id": 11, "Prop_orig": "Santiago Gomez", "Comunidad": "La Tejera", "Infr_asoci": "Sitio de Presa lado derecho", "Area (m2)": 11521.45 }, "geometry": { "type": "MultiPolygon", "coordinates": [ [ [ [ 372265.865652387379669, 1622295.482910654740408 ], [ 372291.053100306307897, 1622333.044115224154666 ], [ 372316.667777148657478, 1622369.407808241667226 ], [ 372318.726099394960329, 1622372.438115993281826 ], [ 372323.185797595186159, 1622378.898960821796209 ], [ 372324.843890515796375, 1622381.814917337382212 ], [ 372325.815876020991709, 1622385.474156886339188 ], [ 372329.93252051359741, 1622400.682871261611581 ], [ 372330.5614523110562, 1622403.999057102715597 ], [ 372334.163516241998877, 1622416.749219905817881 ], [ 372337.879931408911943, 1622432.129461135016754 ], [ 372353.088645783893298, 1622491.306225714506581 ], [ 372402.259677222289611, 1622480.900263247545809 ], [ 372401.00181362737203, 1622473.238730442011729 ], [ 372395.398603068199009, 1622451.969400563975796 ], [ 372394.483793180959765, 1622448.195809779223055 ], [ 372384.649586893210653, 1622411.37471181852743 ], [ 372378.360268918506335, 1622387.017898570746183 ], [ 372365.552930497389752, 1622360.259709369391203 ], [ 372354.575211850693449, 1622336.589003537548706 ], [ 372345.541464214329608, 1622321.837694106157869 ], [ 372344.512303091119975, 1622318.63585950084962 ], [ 372341.653522193490062, 1622313.490053885150701 ], [ 372337.079472757410258, 1622304.456306248903275 ], [ 372334.220691859780345, 1622295.879963556071743 ], [ 372327.588320177397691, 1622287.417972099268809 ], [ 372322.44251456175698, 1622279.985141765559092 ], [ 372315.467089171695989, 1622272.437960196053609 ], [ 372309.83529080345761, 1622267.349330198252574 ], [ 372265.865652387379669, 1622295.482910654740408 ] ] ] ] } },
{ "type": "Feature", "properties": { "id": 10, "Prop_orig": "José Santos Vasquez", "Comunidad": "La Tejera", "Infr_asoci": "Assit", "Area (m2)": 4380.2 }, "geometry": { "type": "MultiPolygon", "coordinates": [ [ [ [ 373277.132395308814012, 1623604.687034086091444 ], [ 373292.97004148142878, 1623598.74076981912367 ], [ 373299.773940017621499, 1623595.767637685639784 ], [ 373309.608146305312403, 1623588.906563531374559 ], [ 373326.989534162625205, 1623576.327927581965923 ], [ 373331.563583598705009, 1623571.753878145944327 ], [ 373337.738550337497145, 1623564.664101519854739 ], [ 373343.684814604464918, 1623555.287300175754353 ], [ 373338.424657752912026, 1623548.654928493313491 ], [ 373336.13763303484302, 1623544.995688944589347 ], [ 373333.393203373183496, 1623537.448507374851033 ], [ 373332.478393485944252, 1623535.390185128664598 ], [ 373320.814567423833068, 1623525.555978840915486 ], [ 373263.181544528575614, 1623546.825308718951419 ], [ 373254.71955307177268, 1623550.713250739732757 ], [ 373252.432528353703674, 1623566.036316350800917 ], [ 373246.257561614911538, 1623568.094638596987352 ], [ 373252.432528353703674, 1623578.843654771801084 ], [ 373258.836197564261965, 1623585.018621510593221 ], [ 373277.132395308814012, 1623604.687034086091444 ] ] ] ] } },
{ "type": "Feature", "properties": { "id": 6, "Prop_orig": "Lucio Madrid", "Comunidad": "El Barreal", "Infr_asoci": "Camino al addit", "Area (m2)": 1309.55 }, "geometry": { "type": "MultiPolygon", "coordinates": [ [ [ [ 373277.132395308814012, 1623604.687034086091444 ], [ 373258.836197564261965, 1623585.018621510593221 ], [ 373252.432528353703674, 1623578.843654771801084 ], [ 373246.257561614911538, 1623568.094638596987352 ], [ 373252.432528353703674, 1623566.036316350800917 ], [ 373254.71955307177268, 1623550.713250739732757 ], [ 373263.181544528575614, 1623546.825308718951419 ], [ 373320.814567423833068, 1623525.555978840915486 ], [ 373316.640747313562315, 1623521.782388056861237 ], [ 373209.836692979908548, 1623562.948832981521264 ], [ 373215.668606011022348, 1623578.614952300675213 ], [ 373221.043114098429214, 1623587.763051172951236 ], [ 373225.845866006391589, 1623593.594964203890413 ], [ 373227.675485780811869, 1623596.911150045227259 ], [ 373234.765262406843249, 1623609.489785994635895 ], [ 373241.855039032816421, 1623619.552694753976539 ], [ 373248.83046442293562, 1623615.893455205019563 ], [ 373260.379939249134623, 1623612.462918128119782 ], [ 373263.924827562179416, 1623610.862000825349241 ], [ 373277.132395308814012, 1623604.687034086091444 ] ] ] ] } },
{ "type": "Feature", "properties": { "id": 16, "Prop_orig": "Municipalidad de Intibúca", "Comunidad": "Initbuca, Intibuca", "Infr_asoci": "Tunel de conducción", "Area (m2)": 20079.43 }, "geometry": { "type": "MultiPolygon", "coordinates": [ [ [ [ 372298.036466754972935, 1622097.477392842294648 ], [ 372298.400167213228997, 1622115.94829386100173 ], [ 372306.519104962353595, 1622122.18043621792458 ], [ 372315.209798890980892, 1622129.155861608218402 ], [ 372335.106913938187063, 1622145.050683398963884 ], [ 372342.654095507808961, 1622151.22565013775602 ], [ 372350.086925841518678, 1622156.828860697103664 ], [ 372383.934891668846831, 1622184.387508549494669 ], [ 372397.657039977260865, 1622194.793471016688272 ], [ 372416.753696373081766, 1622206.685999550623819 ], [ 372426.58790266077267, 1622214.461883591953665 ], [ 372447.742881302838214, 1622231.957622685469687 ], [ 372460.149990398320369, 1622241.963355826912448 ], [ 372465.009917924238835, 1622245.508244140073657 ], [ 372476.959622076130472, 1622255.228099191561341 ], [ 372485.936194094538223, 1622262.317875817650929 ], [ 372499.88704487477662, 1622273.695823790039867 ], [ 372509.263846218818799, 1622281.243005359778181 ], [ 372519.726984303910285, 1622289.990874906303361 ], [ 372521.842482168111019, 1622292.449426478240639 ], [ 372524.586911829770543, 1622296.22301726299338 ], [ 372531.162107894313522, 1622303.427145124878734 ], [ 372532.82020081486553, 1622306.057223550742492 ], [ 372538.023182048462331, 1622312.63241961505264 ], [ 372543.797919461503625, 1622319.779371859272942 ], [ 372546.313646651338786, 1622323.267084554303437 ], [ 372548.371968897641636, 1622326.240216687787324 ], [ 372553.11754518764792, 1622331.214495449559763 ], [ 372556.033501703175716, 1622335.61701803188771 ], [ 372563.580683272797614, 1622344.993819376220927 ], [ 372577.131304727343377, 1622362.032153525622562 ], [ 372590.681926181889139, 1622379.013312057591975 ], [ 372596.113609887252096, 1622385.416981268208474 ], [ 372604.632776962069329, 1622396.165997442789376 ], [ 372608.692245836660732, 1622401.311803058488294 ], [ 372611.665377970144618, 1622405.142569461138919 ], [ 372615.839198080589995, 1622410.116848222911358 ], [ 372622.700272234797012, 1622418.17861035419628 ], [ 372634.364098296908196, 1622433.444500347366557 ], [ 372645.456168179516681, 1622447.395351127488539 ], [ 372659.40701895969687, 1622464.833914602641016 ], [ 372669.469927719270345, 1622477.469726169947535 ], [ 372678.217797265795525, 1622488.275917962891981 ], [ 372685.307573891768698, 1622497.252489981241524 ], [ 372695.198955797415692, 1622509.030667279381305 ], [ 372700.630639502778649, 1622516.806551320711151 ], [ 372705.261864556872752, 1622522.181059408234432 ], [ 372708.40652354422491, 1622526.24052828270942 ], [ 372712.294465564889833, 1622530.814577718731016 ], [ 372715.381948934285901, 1622534.645344121614471 ], [ 372720.413403314014431, 1622540.991837714333087 ], [ 372733.563795442867558, 1622557.286888830596581 ], [ 372739.109830384200905, 1622564.433841074351221 ], [ 372744.42716285365168, 1622570.83751028473489 ], [ 372744.884567797242198, 1622572.26690073357895 ], [ 372750.487778356531635, 1622578.727745562093332 ], [ 372756.777096331177745, 1622586.846683311276138 ], [ 372762.20878003659891, 1622593.879284319235012 ], [ 372769.641610370308626, 1622603.256085663102567 ], [ 372779.018411714409012, 1622614.805560489417985 ], [ 372789.881779125193134, 1622628.642060033977032 ], [ 372796.228272717853542, 1622636.589470929233357 ], [ 372806.634235185047146, 1622649.396809350466356 ], [ 372814.638821698259562, 1622659.516893727704883 ], [ 372820.127681021753233, 1622666.435143499867991 ], [ 372827.103106411756016, 1622675.5260667540133 ], [ 372831.162575286347419, 1622680.214467426063493 ], [ 372836.708610227622557, 1622687.132717198459432 ], [ 372840.76807910221396, 1622693.021805847529322 ], [ 372852.603432018135209, 1622706.686778537929058 ], [ 372856.54854965681443, 1622712.004111007321626 ], [ 372865.124892349587753, 1622722.524424710310996 ], [ 372870.899629762687255, 1622730.014430662151426 ], [ 372875.244976727059111, 1622737.332909760065377 ], [ 372885.13635863258969, 1622749.282613912364468 ], [ 372894.62751121254405, 1622761.060791210504249 ], [ 372903.832785702776164, 1622772.953319744439796 ], [ 372906.17698603880126, 1622776.383856821572408 ], [ 372913.266762664774433, 1622784.216916480567306 ], [ 372916.983177831629291, 1622789.362722096266225 ], [ 372919.956309965113178, 1622793.365015352843329 ], [ 372924.701886255177669, 1622799.539982091635466 ], [ 372930.533799286233261, 1622806.686934335622936 ], [ 372936.994644114747643, 1622814.634345230879262 ], [ 372943.16961085353978, 1622822.124351182719693 ], [ 372951.68877792841522, 1622832.415962413651869 ], [ 372957.006110397807788, 1622839.905968365492299 ], [ 372965.353750618814956, 1622850.540633304044604 ], [ 372973.987268929486163, 1622860.832244535442442 ], [ 372984.736285104416311, 1622874.668744079768658 ], [ 372993.598505886970088, 1622885.646462726406753 ], [ 373001.431565546314232, 1622895.823722721775994 ], [ 373012.637986664834898, 1622909.774573501897976 ], [ 373032.878155419777613, 1622935.103372254408896 ], [ 373041.282971258682664, 1622945.966739665251225 ], [ 373050.602596984768752, 1622957.230336402077228 ], [ 373059.407642149308231, 1622968.208055048715323 ], [ 373073.815897873195354, 1622986.618604028830305 ], [ 373087.538046181551181, 1623003.542586942436174 ], [ 373094.513471571612172, 1623012.690685814712197 ], [ 373109.036078531411476, 1623029.957722436171025 ], [ 373117.955474931863137, 1623041.735899734310806 ], [ 373136.937780091713648, 1623065.406605566386133 ], [ 373154.776572892616969, 1623087.247691623866558 ], [ 373168.270018729148433, 1623104.171674537472427 ], [ 373187.137972653144971, 1623127.499326661694795 ], [ 373190.91156343795592, 1623132.873834748985246 ], [ 373196.514773997245356, 1623147.853846652433276 ], [ 373206.234629049024079, 1623170.952796304831281 ], [ 373217.212347695720382, 1623197.939687978010625 ], [ 373221.786397131858394, 1623208.803055388852954 ], [ 373224.530826793517917, 1623217.265046845655888 ], [ 373231.391900947783142, 1623233.502922344021499 ], [ 373233.564574429939967, 1623240.363996498053893 ], [ 373235.279842968506273, 1623244.023236047010869 ], [ 373245.571454199787695, 1623267.350888171466067 ], [ 373265.011164303286932, 1623316.864973317598924 ], [ 373275.760180478158873, 1623343.851864990778267 ], [ 373294.399431930331048, 1623389.821061823982745 ], [ 373317.727084054611623, 1623447.797138427384198 ], [ 373338.653360224852804, 1623498.797789640258998 ], [ 373346.086190558504313, 1623518.80925592337735 ], [ 373358.664826507912949, 1623549.112333437427878 ], [ 373371.929569872678258, 1623580.901977018453181 ], [ 373384.27950335026253, 1623612.348566891625524 ], [ 373398.687759074033238, 1623648.369206201285124 ], [ 373414.468229628633708, 1623685.876411577453837 ], [ 373417.89876670576632, 1623694.681456742109731 ], [ 373422.93022108549485, 1623707.603146399138495 ], [ 373432.535724901419599, 1623729.44423245661892 ], [ 373441.912526245461777, 1623726.699802794959396 ], [ 373430.477402655174956, 1623698.111993819009513 ], [ 373410.35158513620263, 1623648.483557437313721 ], [ 373395.257221996958833, 1623611.662459476385266 ], [ 373365.068495718529448, 1623536.876751195406541 ], [ 373346.77229797403561, 1623491.822364249732345 ], [ 373329.848315060255118, 1623448.826299550011754 ], [ 373309.722497541340999, 1623398.969160696491599 ], [ 373296.000349232985172, 1623366.493409699993208 ], [ 373288.224465191538911, 1623346.138889709254727 ], [ 373281.363391037331894, 1623328.986204323591664 ], [ 373269.242160031571984, 1623299.48358546057716 ], [ 373255.062606779567432, 1623263.119892443297431 ], [ 373246.371912850940134, 1623242.079265037085861 ], [ 373231.506252183520701, 1623206.40167943527922 ], [ 373221.214640952239279, 1623178.728680346859619 ], [ 373207.492492643825244, 1623146.710334293777123 ], [ 373198.801798715197947, 1623125.441004415974021 ], [ 373184.164840519602876, 1623107.373509143246338 ], [ 373166.783452662290074, 1623085.875476793386042 ], [ 373152.946953118080273, 1623068.72279140795581 ], [ 373143.684503009950276, 1623056.830262874020264 ], [ 373137.852589978894684, 1623049.969188719755039 ], [ 373131.22021829651203, 1623041.850250970572233 ], [ 373122.186470660148188, 1623030.186424908461049 ], [ 373112.123561900632922, 1623017.72214019508101 ], [ 373101.2601944898488, 1623003.771289414959028 ], [ 373095.199578986968845, 1622997.939376384019852 ], [ 373094.856525279232301, 1622995.995405373629183 ], [ 373088.681558540498372, 1622988.10517009627074 ], [ 373081.363079442700837, 1622979.528827403439209 ], [ 373070.957116975507233, 1622966.264084038790315 ], [ 373064.43909652903676, 1622957.802092581987381 ], [ 373056.0914563080878, 1622947.510481350589544 ], [ 373050.030840805207845, 1622939.734597309259698 ], [ 373039.053122158511542, 1622925.898097764933482 ], [ 373024.873568906448781, 1622908.173656200058758 ], [ 373011.38012306985911, 1622890.90661957859993 ], [ 372997.086218581942376, 1622873.067826777696609 ], [ 372987.823768473812379, 1622861.861405659001321 ], [ 372973.415512749983463, 1622843.793910386506468 ], [ 372963.238252754614223, 1622830.529167021624744 ], [ 372946.199918604979757, 1622809.031134671764448 ], [ 372937.737927148176823, 1622798.396469732746482 ], [ 372930.991204229881987, 1622790.16318074776791 ], [ 372913.26676266483264, 1622767.407284802990034 ], [ 372905.147824915708043, 1622756.886971099767834 ], [ 372892.797891438181978, 1622741.449554252903908 ], [ 372887.652085822541267, 1622735.045885042287409 ], [ 372885.365061104472261, 1622731.043591785710305 ], [ 372882.963685150491074, 1622727.956108416197821 ], [ 372876.331313468108419, 1622719.837170667015016 ], [ 372868.326726954896003, 1622709.431208199821413 ], [ 372856.891603364609182, 1622695.251654947875068 ], [ 372844.541669887083117, 1622679.24248192133382 ], [ 372833.106546296738088, 1622665.5203336130362 ], [ 372826.588525850267615, 1622657.401395863853395 ], [ 372817.326075742137618, 1622645.623218565946445 ], [ 372811.036757767433301, 1622637.961685760412365 ], [ 372793.541018674208317, 1622615.891897230874747 ], [ 372766.325424529204611, 1622581.357823988189921 ], [ 372752.488924984878395, 1622563.976436130935326 ], [ 372748.257929256476928, 1622558.601928043412045 ], [ 372740.13899150735233, 1622548.653370519867167 ], [ 372730.876541399164125, 1622536.989544457290322 ], [ 372720.584930167882703, 1622524.29655727208592 ], [ 372715.210422080475837, 1622518.121590533293784 ], [ 372714.295612193236593, 1622515.491512107430026 ], [ 372711.436831295664888, 1622513.090136153623462 ], [ 372705.947971972287633, 1622505.771657055709511 ], [ 372688.109179171384312, 1622483.244463582988828 ], [ 372664.667175811249763, 1622453.856195956002921 ], [ 372654.832969523558859, 1622441.734964950243011 ], [ 372638.823796497075818, 1622422.180903610773385 ], [ 372609.435528869973496, 1622384.788049470633268 ], [ 372583.820852027682122, 1622352.998405889375135 ], [ 372554.089530692843255, 1622315.719902984797955 ], [ 372546.771051595045719, 1622306.343101640697569 ], [ 372546.656700359133538, 1622305.199589281808585 ], [ 372537.27989901509136, 1622294.450573106762022 ], [ 372527.903097670990974, 1622282.214990865206346 ], [ 372516.353622844791971, 1622272.838189521571621 ], [ 372475.987636570993345, 1622240.019384817220271 ], [ 372454.146550513396505, 1622222.866699431790039 ], [ 372411.3791882856749, 1622188.675679896492511 ], [ 372371.584958191320766, 1622157.000387551495805 ], [ 372356.376243816222996, 1622144.879156545735896 ], [ 372342.768446743721142, 1622133.787086663069203 ], [ 372317.66835046291817, 1622113.9471472336445 ], [ 372302.974216649308801, 1622102.454848025459796 ], [ 372298.036466754972935, 1622097.477392842294648 ] ] ] ] } },
{ "type": "Feature", "properties": { "id": 15, "Prop_orig": "Ignacio Dominguez", "Comunidad": "La Tejera", "Infr_asoci": "Camino al addit", "Area (m2)": 910.92 }, "geometry": { "type": "MultiPolygon", "coordinates": [ [ [ [ 373241.855039032816421, 1623619.552694753976539 ], [ 373245.800156671204604, 1623629.339254691964015 ], [ 373247.858478917507455, 1623634.90434817248024 ], [ 373251.289015994523652, 1623646.491940077394247 ], [ 373255.253192172502168, 1623666.084118495462462 ], [ 373258.150090148730669, 1623678.662754444638267 ], [ 373261.809329697629437, 1623693.604649269254878 ], [ 373266.002208347432315, 1623704.658602073322982 ], [ 373276.065117106889375, 1623701.228064996190369 ], [ 373271.872238457144704, 1623690.860219607595354 ], [ 373270.347555311745964, 1623684.532784554408863 ], [ 373260.360880709427875, 1623641.841656483709812 ], [ 373259.293602507677861, 1623635.437987273093313 ], [ 373256.091767902369611, 1623626.747293344466016 ], [ 373251.49865992704872, 1623615.102525822119787 ], [ 373248.83046442293562, 1623615.893455205019563 ], [ 373241.855039032816421, 1623619.552694753976539 ] ] ] ] } },
{ "type": "Feature", "properties": { "id": 5, "Prop_orig": "Francisco Madrid", "Comunidad": "El Barreal", "Infr_asoci": "Camino al addit", "Area (m2)": 6179.49 }, "geometry": { "type": "MultiPolygon", "coordinates": [ [ [ [ 373276.065117106889375, 1623701.228064996190369 ], [ 373266.002208347432315, 1623704.658602073322982 ], [ 373270.480965086258948, 1623716.551130608655512 ], [ 373276.084175645548385, 1623729.815873973304406 ], [ 373277.57074171223212, 1623735.876489476300776 ], [ 373279.171659014828037, 1623745.367642056196928 ], [ 373278.256849127647001, 1623749.712989020626992 ], [ 373277.57074171223212, 1623755.430550815770403 ], [ 373276.312878117256332, 1623760.805058903060853 ], [ 373274.254555871011689, 1623766.408269462641329 ], [ 373269.337452727137133, 1623774.412855976028368 ], [ 373260.761110034422018, 1623784.132711027748883 ], [ 373235.832540607545525, 1623812.148763823788613 ], [ 373224.283065781288315, 1623826.557019547559321 ], [ 373213.19099589867983, 1623841.193977743154392 ], [ 373199.125793882587459, 1623861.662848969688639 ], [ 373189.977695010311436, 1623874.127133683068678 ], [ 373180.829596138035413, 1623887.506228283746168 ], [ 373177.627761532843579, 1623897.111732099670917 ], [ 373177.970815240580123, 1623906.602884679567069 ], [ 373183.917079507547896, 1623915.636632315814495 ], [ 373187.461967820534483, 1623919.981979280011728 ], [ 373197.296174108225387, 1623928.901375680463389 ], [ 373225.083524432731792, 1623950.399408030323684 ], [ 373250.469498803198803, 1623972.011791616212577 ], [ 373256.758816777903121, 1623979.330270714126527 ], [ 373276.541580589080695, 1623997.05471227876842 ], [ 373299.411827769770753, 1624018.09533968497999 ], [ 373310.1608439447009, 1624027.929545972729102 ], [ 373334.174603484279942, 1624046.568797424901277 ], [ 373350.183776510762982, 1624059.376135846134275 ], [ 373367.565164368133992, 1624072.983932918403298 ], [ 373376.598912004497834, 1624080.759816959965974 ], [ 373387.119225707603619, 1624090.365320775657892 ], [ 373398.439998061978258, 1624105.116630207747221 ], [ 373415.363980975642335, 1624125.471150198485702 ], [ 373439.034686808008701, 1624153.372851758729666 ], [ 373444.294843659561593, 1624159.204764789901674 ], [ 373449.273887056508102, 1624154.478247035993263 ], [ 373451.994493543577846, 1624152.381807714235038 ], [ 373435.413564337708522, 1624132.599043903173879 ], [ 373404.61496480111964, 1624095.091838527005166 ], [ 373395.314397614332847, 1624083.656714936718345 ], [ 373390.359177391859703, 1624078.320323928026482 ], [ 373386.090064584801439, 1624074.356147750047967 ], [ 373353.156908644654322, 1624047.293021919205785 ], [ 373324.569099668820854, 1624025.261350468499586 ], [ 373315.192298324778676, 1624017.714168898994103 ], [ 373304.900687093497254, 1624008.184899240499362 ], [ 373290.416197212412953, 1623994.920155875617638 ], [ 373277.456390476727393, 1623983.332563970936462 ], [ 373271.281423738051672, 1623976.852660602889955 ], [ 373259.770065990451258, 1623965.417537012603134 ], [ 373246.276620153803378, 1623953.982413422083482 ], [ 373229.123934768314939, 1623939.879094327334315 ], [ 373210.903971181076486, 1623925.470838603330776 ], [ 373198.477803546295036, 1623915.865334787871689 ], [ 373192.455305122071877, 1623909.004260633606464 ], [ 373189.10100220219465, 1623903.515401310287416 ], [ 373188.719831415859517, 1623902.143186479341239 ], [ 373188.719831415859517, 1623898.331478615989909 ], [ 373190.244514561258256, 1623893.604960865108296 ], [ 373194.361159053747542, 1623887.582462440943345 ], [ 373200.459891635284293, 1623879.044236826943234 ], [ 373209.074351406772621, 1623867.456644922262058 ], [ 373214.868147359171417, 1623857.774906948907301 ], [ 373227.294314993894659, 1623840.545987406047061 ], [ 373250.240796331840102, 1623812.034412587294355 ], [ 373269.451803963631392, 1623790.993785181082785 ], [ 373279.743415194912814, 1623778.872554175322875 ], [ 373284.01252800191287, 1623771.172904291190207 ], [ 373286.22331856272649, 1623765.684044967871159 ], [ 373288.510343280795496, 1623755.011262950254604 ], [ 373288.739045752561651, 1623736.715065205935389 ], [ 373288.281640808971133, 1623731.683610826032236 ], [ 373287.595533393498044, 1623729.244117793394253 ], [ 373283.783825530088507, 1623720.019784763921052 ], [ 373276.065117106889375, 1623701.228064996190369 ] ] ] ] } },
{ "type": "Feature", "properties": { "id": 8, "Prop_orig": "Aquilino Madrid", "Comunidad": "El Barreal", "Infr_asoci": "Tunel de conducción", "Area (m2)": 2666.15 }, "geometry": { "type": "MultiPolygon", "coordinates": [ [ [ [ 373432.535724901419599, 1623729.44423245661892 ], [ 373440.864306581963319, 1623750.74215014372021 ], [ 373460.075314213579986, 1623797.283103156369179 ], [ 373466.135929716459941, 1623813.292276182677597 ], [ 373480.086780496640131, 1623846.111080887028947 ], [ 373491.407552851014771, 1623874.698889862746 ], [ 373500.098246779700276, 1623896.425624684430659 ], [ 373502.842676441418007, 1623902.600591423222795 ], [ 373503.528783856832888, 1623926.728702198714018 ], [ 373503.900425373518374, 1623978.872865770710632 ], [ 373514.620853739441372, 1623979.044392624404281 ], [ 373514.763792784302495, 1623968.038086168700829 ], [ 373513.763219470158219, 1623902.000247434014454 ], [ 373498.783207566826604, 1623864.493042057845742 ], [ 373484.374951842997689, 1623828.929807692067698 ], [ 373479.114794991444796, 1623816.465522978454828 ], [ 373474.426394319452811, 1623804.630170062417164 ], [ 373470.652803534641862, 1623795.196193100418895 ], [ 373462.247987695736811, 1623774.898848727578297 ], [ 373453.32859129528515, 1623753.114938288228586 ], [ 373448.697366241249256, 1623742.708975821034983 ], [ 373441.912526245461777, 1623726.699802794959396 ], [ 373432.535724901419599, 1623729.44423245661892 ] ] ] ] } }
]
}
