{
"type": "FeatureCollection",
"name": "tubería_Presa Agua Zarca _2011",
"crs": { "type": "name", "properties": { "name": "urn:ogc:def:crs:OGC:1.3:CRS84" } },
"features": [
{ "type": "Feature", "properties": { "id": null }, "geometry": { "type": "MultiLineString", "coordinates": [ [ [ -88.187281492026884, 14.66852579383167 ], [ -88.186354640853551, 14.669219036664011 ], [ -88.185088006120409, 14.670179749857745 ], [ -88.183994644729509, 14.671061059677003 ], [ -88.183827823686059, 14.671188740435635 ], [ -88.182780117559773, 14.672486542207386 ], [ -88.177695439720083, 14.678775405082327 ], [ -88.176403401522563, 14.681964806165439 ], [ -88.174829224457895, 14.68577166585181 ], [ -88.174822493202143, 14.686834664012247 ], [ -88.174802182114817, 14.688839903383567 ], [ -88.175008078195063, 14.690215882320679 ], [ -88.175297895409471, 14.692201431785554 ], [ -88.175387501746386, 14.692714340907624 ] ] ] } }
]
}
